City,State,Name,Address,Zip,Phone,Email
Akiachak,Alaska,Akiachak School-Community Library,1 Main Street,99551,(907) 825-3600,
Akiak,Alaska,Akiak School-Community Library,1 Kilbuck Road,99552,(907) 765-4631,
Anaktuvuk Pass,Alaska,Nunamiut School-Community Library,114 Illinois Avenue,,(907) 661-3226,
Anchor Point,Alaska,Anchor Point Public Library,72551 Milo Fritz Avenue,99556,(907) 235-5692,
Anchorage,Alaska,Anchorage Public Library,3600 Denali Street,99503,(907) 343-2975,
Anchorage,Alaska,Mountain View Branch Library,150 South Bragaw Street,99504,(907) 272-8467,
Anchorage,Alaska,Muldoon Branch Library,5530 East Northern Lights Boulevard,99504,(907) 338-4590,
Anchorage,Alaska,Samson-Dimond Branch Library,"800 East Dimond Boulevard, Suite 23",99515,(907) 343-4051,
Anchorage,Alaska,Z. J. Loussac Library,3600 Denali Street,99503,(907) 343-2983,
Anderson,Alaska,Anderson Village Library,101 First Street,99744,(907) 582-2628,
Aniak,Alaska,Aniak Public Library,270 Riverfront Drive,99557,(907) 675-4435,
Anvik,Alaska,Anvik Community-School Library,1 Airport Road,99558,(907) 663-6348,
Anvik,Alaska,Blackwell Community-School Library,1 Airport Road,99558,(907) 663-6348,
Atqasuk,Alaska,Meade River School-Community Library,4001 Kippi Street,99791,(907) 633-6315,
Barrow,Alaska,Tuzzy Consortium Library,5421 North Star Street,99723,(907) 852-4050,
Bethel,Alaska,Kuskokwim Consortium Library,420 State Highway,99559,(907) 543-4516,
Big Lake,Alaska,Big Lake Public Library,3140 South Big Lake Road,99652,(907) 892-6475,Email
Cantwell,Alaska,Cantwell Community Library,1 School Road,99729,(907) 768-2372,
Chiniak,Alaska,Chiniak Public Library,43318 Spruce Way,99615,(907) 486-3022,
Coffman Cove,Alaska,Coffman Cove Community Library,106 Denali Alley,99918,(907) 329-2233,
Cold Bay,Alaska,Cold Bay Public Library,10 Baranov Street,99571,(907) 532-2878,
Cooper Landing,Alaska,Cooper Landing Community Library,p.o. box 517,99572,(907) 595-1241,
Cordova,Alaska,Cordova Public Library,622 First Street,99574,(907) 424-6667,
Craig,Alaska,Craig Public Library,504 Third Street,99921,(907) 826-3281,
Deering,Alaska,Ipnatchiaq Library,59 Main Street,99736,(907) 363-2136,
Delta Junction,Alaska,Delta Community Library,2291 Deborah Street,99737,(907) 895-4102,
Dillingham,Alaska,Dillingham Public Library,306 D Street West,99576,(907) 842-5610,
Douglas,Alaska,Juneau Public Libraries - Douglas Branch,1016 3rd Street,99824,(907) 364-2378,
Eagle,Alaska,Eagle Public Library,2nd Amundsen,99738,(907) 547-2334,
Eagle River,Alaska,Chugiak-Eagle River Branch Library,12400 Old Glenn Highway,99577,(907) 694-5284,
Egegik,Alaska,Egegik Village Library,289 Airport Way,99579,(907) 233-2211,
Elim,Alaska,Ernest Nylin Memorial Library,50 Elim Loop,99739,(907) 890-3501,
Fairbanks,Alaska,Fairbanks North Star Borough Public Library,1215 Cowles Street,99701,(907) 459-1020,
False Pass,Alaska,False Pass Public Library,182 Unimak Drive,99583,(907) 548-2233,
Galena,Alaska,Charles Evans Community-School Library,299 Antoski Drive,99741,(907) 656-2489,
Girdwood,Alaska,Gerrish (Girdwood) Branch Library,250 Egloff Drive,99587,(907) 343-4024,
Girdwood,Alaska,Scott And Wesley Gerrish Branch Library,169 Hightower Street,,(907) 783-2106,
Glennallen,Alaska,Copper Valley Community Library,p.o. box 173,99588,(907) 822-5427,
Grayling,Alaska,Grayling Community-School Library,p.o. box 90,99590,(907) 453-5135,
Gustavus,Alaska,Gustavus Public Library,14 Gustavus Road,99826,(907) 697-2350,
Haines,Alaska,Haines Borough Public Library,111 Third Avenue South,99827,(907) 766-2545,
Healy,Alaska,Tri-Valley Community Library,400 Suntrana Street,99743,(907) 683-2507,
Hollis,Alaska,Hollis Public Library,p.o. box 5,99950,(907) 530-7112,
Holy Cross,Alaska,Holy Cross Community-School Library,210 Trailway Street,99602,(907) 476-7131,
Homer,Alaska,Homer Public Library,500 Hazel Avenue,99603,(907) 235-3180,
Hoonah,Alaska,Esther Greenwald Library,366 Garteeni Highway,99829,(907) 945-3611,
Hope,Alaska,Hope Public Library,18487 A Avenue,99605,(907) 782-3121,
Hyder,Alaska,Hyder Public Library,50 Main Street,99923,(250) 636-9148,
Igiugig,Alaska,Igiugig Tribal Library,1 Airport Road,99613,(907) 533-3211,
Juneau,Alaska,Juneau Public Libraries - Downtown Branch Library,292 Marine Way,99801,(907) 586-5249,
Juneau,Alaska,Juneau Public Libraries - Valley Branch Library,"9105 Mendenhall Mall Road, 134",99801,(907) 789-0125,
Kaktovik,Alaska,Harold Kaveolook School-Community Library,2001 Barter Avenue,99747,(907) 640-6626,
Kasilof,Alaska,Kasilof Public Library,58200 Sterling Highway,99610,(907) 252-4097,
Kenai,Alaska,Kenai Community Library,163 Main Street Loop,99611,(907) 283-4378,
Kenny Lake,Alaska,Kenny Lake Public Library,hc60 box 223,99573,(907) 822-3015,
Ketchikan,Alaska,Ketchikan Public Library,629 Dock Street,99901,(907) 225-3331,
Klawock,Alaska,Klawock Public Library,615 North Park Street,99925,(907) 755-2261,
Kodiak,Alaska,A. Holmes Johnson Memorial Library,319 Lower Mill Bay Road,99615,(907) 486-8688,
Kotzebue,Alaska,Chukchi Consortium Library,604 Third Street,99752,(907) 442-2410,
Koyuk,Alaska,Koyuk Public Library,p.o. box 53069,99753,(907) 963-3441,
Lake Min,Alaska,Lake Minchumina Community Library,123 Airport Way,99757,(907) 674-3211,
Mcgrath,Alaska,Mcgrath Community School Library,p.o. box 249,99627,(907) 524-3843,
Metlakatla,Alaska,Centennial Library,4th Milton Street,99926,(907) 886-6015,
Moose Pass,Alaska,Moose Pass Public Library,200 Depot Road,99631,(907) 288-3111,
Mountain Village,Alaska,Mountain Village Public Library,1 Saint Marys Highway,99632,(907) 591-2970,
Naknek,Alaska,Martin Monsen Regional Library,101 Main Street,99633,(907) 246-4465,
Nenana,Alaska,Nenana Public Library,201 East Second Street,99760,(907) 832-5812,
Nikolai,Alaska,Nikolai Community-School Library,p.o. box 9190,99691,(907) 293-2427,
Ninilchik,Alaska,Ninilchik Community Library,15850 Sterling Highway,99639,(907) 567-3333,
Nome,Alaska,Kegoayah Kozga Library,223 Front Street,99762,(907) 443-6628,
North Pole,Alaska,North Pole Branch Library,601 Snowman Lane,99705,(907) 488-6101,
Northway,Alaska,Northway Community-School Library,p.o. box 496,99764,(907) 778-2287,
Nuiqsut,Alaska,Nuiqsut Trapper School-Community Library,3310 3rd Avenue,99789,(907) 480-6712,
Ouzinkie,Alaska,Ouzinkie Tribal Media Center,130 Third Street,99644,(907) 680-2323,
Palmer,Alaska,Palmer Public Library,655 South Valley Way,99645,(907) 745-4690,Email
Pelican,Alaska,Pelican Public Library,166 Salmon Way,99832,(907) 735-2500,
Petersburg,Alaska,Petersburg Public Library,12 South Nordic Drive,99833,(907) 772-3349,
Pilot Point,Alaska,Pilot Point Tribal Library,2200 Main Street,99649,(907) 797-2208,
Point Hope,Alaska,Tikigak School-Community Library,1837 Tikigak Avenue,99766,(907) 368-2662,
Point Lay,Alaska,Kali School-Community Library,1029 Ugruk Avenye,99759,(907) 833-2311,
Port Lions,Alaska,Jessie Wakefield Memorial Library,207 Spruce Drive,99550,(907) 454-2288,
Ruby,Alaska,Ruby Community Library,10 Bobby Kennedy Sr. Way,99768,(907) 468-4432,
Russian Mission,Alaska,Russian Mission Community-School Library,2 School Drive,99657,(907) 584-5111,Email
Saint Paul,Alaska,St. Paul Island School-Community Library,930 Tolstol Boulevard,99660,(907) 546-3324,
Sand Point,Alaska,Sand Point Community-School Library,123 Red Cove Road,99661,(907) 383-2393,
Scammon Bay,Alaska,Scammon Bay Public Library,101 Askinuk Street,99662,(907) 558-5400,
Selawik,Alaska,Selawik Davis Community-School Library,119 Tundra Drive,99770,(907) 484-2142,
Seldovia,Alaska,Seldovia Public Library,260 Seldovia Street,99663,(907) 234-7662,
Seward,Alaska,Seward Community Library,238 5th Avenue,99664,(907) 224-4008,
Shageluk,Alaska,Innoko River Community-School Library,101 Pine Street,99665,(907) 473-8206,
Sitka,Alaska,Kettleson Memorial Library,320 Harbor Drive,99835,(907) 747-4021,
Skagway,Alaska,Skagway Public Library,769 State Street,99840,(907) 983-2665,
Soldotna,Alaska,Soldotna Public Library,235 North Binkley Street,99669,(907) 262-4227,
South Naknek,Alaska,South Naknek Branch Library,1 School Road,99670,(907) 246-6513,
St. George,Alaska,St. George Island School-Community Library,p.o. box 905,99591,(907) 546-3324,
Sutton,Alaska,Sutton Public Library,11317 North Jonesville Mine Road,99674,(907) 745-4467,
Sutton,Alaska,Sutton Public Library,11317 N Jonesville Mine Rd,99674,(907) 745-4467,Email
Takotna,Alaska,Takotna Community Library,p.o. box 7529,99675,(907) 298-2212,
Talkeetna,Alaska,Talkeetna Public Library,23151 South Talkeetna Spur Road,99676,(907) 733-2359,Email
Tanana,Alaska,Tanana Community-School Library,89 Front Street,99777,(907) 366-7211,
Tenakee Springs,Alaska,Dermott Otoole Memorial Library,707 West Tenakee Avenue,99841,(907) 736-2248,
Thorne Bay,Alaska,Thorne Bay Public Library,120 Freeman Drive,99919,(907) 828-3303,
Togiak,Alaska,Togiak Public Library And Cultural Center,p.o. box 353,99678,(907) 493-5566,
Tok,Alaska,Tok Community Library,p.o. box 227,99780,(907) 883-5623,
Trapper Creek,Alaska,Trapper Creek Public Library,8901 East Devonshire Drive,99683,(907) 733-1546,Email
Tuluksak,Alaska,Tuluksak School-Community Library,p.o. box 115,99679,(907) 695-5636,
Unalaska,Alaska,Unalaska Public Library,63 Eleanor Drive,99685,(907) 581-5060,
Valdez,Alaska,Valdez Consortium Library,212 Fairbanks Street,99686,(907) 835-4632,
Wainwright,Alaska,Alak Community-School Library,567 Main Street,99782,(907) 763-2541,
Wasilla,Alaska,Big Lake Public Library,3212 South Big Lake Road,99654,(907) 892-6475,
Wasilla,Alaska,Wasilla Meta-Rose Public Library,391 N Main St,99654,(907) 376-5913,Email
Wasilla,Alaska,Wasilla Public Library,391 North Main Street,99654,(907) 373-2242,
Whale Pass,Alaska,Whale Pass Community Library,p.o.box wwp,99950,(907) 846-5226,
White Mountain,Alaska,Naqiaksrat Library,p.o. box 130,99784,(907) 638-3411,
Willow,Alaska,Willow Public Library,23557 West Willow Community Center,99688,(907) 495-7323,Email
Wrangell,Alaska,Irene Ingle Public Library,124 Second Avenue,99929,(907) 874-3535,
Abbeville,Alabama,Abbeville Memorial Library,301 Kirkland Street,36310,(334) 585-2818,
Adamsville,Alabama,Adamsville Public Library,4825 Main Street,35005,(205) 674-3399,
Akron,Alabama,Akron Public Library,207 First Avenue South,35441,(205) 372-3148,
Alabaster,Alabama,Alabaster - Albert L. Scott Library,100 9th Street N.W.,35007,(205) 664-6822,
Albertville,Alabama,Albertville Public Library,200 Jackson Street,35950,(256) 891-8290,
Albertville,Alabama,Marshall County Cooperative Library,600 College Street,35950,(256) 878-8523,
Alexander City,Alabama,Alexander City - Adelia Mcconnell Russell Library,318 Church Street,35010,(256) 329-6796,
Alexander City,Alabama,Mamies Place Childrens Library,284 Church Street,35010,(256) 234-4644,
Aliceville,Alabama,Aliceville Public Library,416 Third Avenue Ne,35442,(205) 373-6691,Email
Andalusia,Alabama,Andalusia Public Library,212 South Three Notch Street,36420,(334) 222-6612,
Anniston,Alabama,Public Library Of Anniston-Calhoun County,108 East 10th Street,36201,(256) 237-8501,
Anniston,Alabama,Public Library Of Anniston-Calhoun County - Carver,722 West 14th Street,36201,(256) 237-7201,
Arab,Alabama,Arab Public Library,325 2nd Street Nw,35016,(256) 586-3366,
Ariton,Alabama,Ariton - Dot Laney Memorial Library,30 W. Main Street,36311,(334) 762-2463,
Arley,Alabama,Arley Public Library,6788 County Road 41,35541,(205) 387-0129,
Ashford,Alabama,Houston-Love Memorial Library - Ashford,305 6th Avenue,36312,(334) 899-3121,Email
Ashland,Alabama,Ashland City Public Library,11 Second Avenue North,36251,(256) 354-3427,
Ashville,Alabama,Ashville Public Library,196 Sixth Avenue,35953,(205) 594-7954,
Ashville,Alabama,St. Clair County Library,139 5th Avenue,35953,(205) 594-3694,
Athens,Alabama,Athens-Limestone Public Library,405 East South Street,35611,(256) 232-1233,
Atmore,Alabama,Atmore Public,700 E. Church Street,36502,(251) 368-5234,
Atmore,Alabama,Escambia County Cooperative Library System,700 East Church Street,36502,(251) 368-4130,
Attalla,Alabama,Etowah County Public Library,604 North 4th Street,35954,(256) 538-9266,
Auburn,Alabama,Auburn Public Library,749 East Thach Avenue,36830,(334) 501-3190,
Autaugaville,Alabama,Autauga Prattville Public Library - Autaugaville,207 North Taylor Street,36003,(334) 365-9322,Email
Bay Minette,Alabama,Bay Minette Public Library,205 West Second Street,36507,(251) 580-1648,
Bessemer,Alabama,Bessemer Public Library,400 19th Street N,35020,(205) 428-7882,
Billingsley,Alabama,Autauga Prattville Public Library - Billingsley,2021 Post Office Street,36006,(205) 755-9809,Email
Birmingham,Alabama,Birmingham Public Library,2100 Park Place,35203,(205) 226-3610,Email
Birmingham,Alabama,Birmingham Public Library - Avondale Regional Library,509 40th Street South,35222,(205) 226-4000,Email
Birmingham,Alabama,Birmingham Public Library - East Ensley,900 14th Street Ensley,35218,(205) 787-1928,Email
Birmingham,Alabama,Birmingham Public Library - East Lake,5 Oporto Madrid Blvd South,35206,(205) 836-3341,Email
Birmingham,Alabama,Birmingham Public Library - Eastwood,,35210,(205) 591-4944,Email
Birmingham,Alabama,Birmingham Public Library - Ensley,1201 25th Street Ensley,35218,(205) 785-2625,Email
Birmingham,Alabama,Birmingham Public Library - Five Points West,4620 Avenue V,35208,(205) 226-4013,Email
Birmingham,Alabama,Birmingham Public Library - Inglenook,4100 40th Terrace North,35217,(205) 849-8739,Email
Birmingham,Alabama,Birmingham Public Library - North Avondale,501 43rd Street N,35222,(205) 592-2082,Email
Birmingham,Alabama,Birmingham Public Library - North Birmingham,2501 31st Avenue North,35207,(205) 226-4025,Email
Birmingham,Alabama,Birmingham Public Library - Powderly,3301 Jefferson Avenue Sw,35221,(205) 925-6178,Email
Birmingham,Alabama,Birmingham Public Library - Pratt City,1100 Hibernian Street,35214,(205) 798-5071,Email
Birmingham,Alabama,Birmingham Public Library - Slossfield,1916 25th Court North,35234,(205) 322-1222,
Birmingham,Alabama,Birmingham Public Library - Smithfield,1 8th Avenue West,35204,(205) 324-8428,Email
Birmingham,Alabama,Birmingham Public Library - Southside,1814 11th Avenue South,35205,(205) 933-7776,Email
Birmingham,Alabama,Birmingham Public Library - Springville Road,1224 Old Springville Road,35235,(205) 226-4081,Email
Birmingham,Alabama,Birmingham Public Library - Titusville,2 6th Avenue Sw,35211,(205) 322-1140,Email
Birmingham,Alabama,Birmingham Public Library - West End,1241 Tuscaloosa Avenue Sw,35211,(205) 226-4089,Email
Birmingham,Alabama,Birmingham Public Library - Woodlawn,5709 First Avenue North,35212,(205) 595-2001,Email
Birmingham,Alabama,Birmingham Public Library - Wylam,4300 7th Avenue Wylam,35224,(205) 785-0349,Email
Birmingham,Alabama,North Shelby Library,5521 Cahaba Valley Road,35242,(205) 439-5555,Email
Blountsville,Alabama,Blountsville Public Library,65 Chestnut Street,35031,(205) 429-3156,
Boaz,Alabama,Boaz Public Library,404 Thomas Ave.,35957,(256) 593-8056,
Brantley,Alabama,Brantley Public Library,10 Mlk Dr.,36009,(334) 527-8624,
Brewton,Alabama,Brewton Public Library,206 West Jackson Street,36426,(251) 867-4626,
Bridgeport,Alabama,Bridgeport - Lena Cagle Public Library,401 Alabama Avenue,35740,(256) 495-2259,
Brundidge,Alabama,Brundidge - Tupper Lightfoot Memorial Library,164 South Main Street,36010,(334) 735-2145,
Butler,Alabama,Choctaw County Public Library,124 North Academy Avenue,36904,(205) 459-2542,Email
Butler,Alabama,Choctaw County Public Library - Gilbertown,,36908,(334) 843-2885,
Butler,Alabama,Choctaw County Public Library - Silas,,36919,(251) 542-9379,
Calera,Alabama,Calera Public Library,9700 Highway 25,35040,(205) 668-3514,
Camden,Alabama,Wilcox County Library,100 Broad Street,36726,(334) 682-4355,
Carbon Hill,Alabama,Carbon Hill City Library,215 Nw 2nd Street,35549,(205) 924-4254,
Carrollton,Alabama,Carrollton Public Library,225 Commerce Avenue,35447,(205) 367-2142,Email
Carrollton,Alabama,Pickens County Cooperative Library,155 Reform Street,35447,(205) 367-8407,
Centre,Alabama,Cherokee County Public Library,310 Mary Street,35960,(256) 927-5838,
Centreville,Alabama,Brent-Centreville Public Library,20 Library Street,35042,(205) 926-4736,
Chatom,Alabama,Washington County Public Library,14102 St. Stephens Ave.,36518,(251) 847-2097,Email
Chelsea,Alabama,Chelsea Public Library,11611 Chelsea Road,35043,(205) 678-8455,
Cherokee,Alabama,Cherokee Public Library,118 Church Street,35616,(256) 359-4384,
Chickasaw,Alabama,Chickasaw - Ina Pullen Smallwood Memorial Library,224 Grant Street,36611,(251) 452-6465,
Childersburg,Alabama,Childersburg - Earle A. Rainwater Memorial Library,124 Ninth Avenue Sw,35044,(256) 378-7239,
Citronelle,Alabama,Citronelle Memorial Library,7855 State Street,36522,(251) 866-7319,
Clanton,Alabama,Clanton Public Library,100 First Avenue,35045,(205) 755-1768,
Clayton,Alabama,Clayton Town And County Public Library,45 North Midway Street,36016,(334) 775-3506,
Clio,Alabama,Elton B. Stephens Library,17 School Street,36017,(334) 397-2911,
Collinsville,Alabama,Collinsville Public Library,4299 Alabama Highway 68,35961,(256) 524-2323,
Columbia,Alabama,Houston-Love Memorial Library - Columbia,200 S Main St,36319,(334) 696-4417,Email
Columbiana,Alabama,Columbiana Public Library,50 Lester Street,35051,(205) 669-5812,
Columbiana,Alabama,Harrison Regional Library System,50 Lester Street,35051,(205) 669-3910,
Cordova,Alabama,Cordova Public Library,84 Main St.,35550,(205) 483-9578,
Courtland,Alabama,Courtland Public Library,215 College Street,35618,(256) 637-9988,
Crane Hill,Alabama,Crane Hill Community Library,14538 County Rd. 222,35053,(256) 747-6509,
Crossville,Alabama,Crossville Public Library,80 Gaines Street,35962,(256) 528-2628,
Cullman,Alabama,Cullman County Public Library System,200 Clark Street Ne,35055,(256) 734-1068,
Cullman,Alabama,Fairview Public Library,7525 Alabama Hwy 69n,35058,(256) 796-5424,
Dadeville,Alabama,Dadeville Public Library,205 North West Street,36853,(256) 825-7820,
Dadeville,Alabama,Horseshoe Bend Regional Library,207 North West Street,36853,(256) 825-9232,
Daleville,Alabama,Daleville Public Library,308 Donnell Boulevard,36322,(334) 503-9119,
Daphne,Alabama,Daphne Public Library,2607 U.S. Highway 98,36526,(251) 621-2818,
Decatur,Alabama,Decatur Public Library,"504 Cherry St., Ne",35601,(256) 353-2993,
Decatur,Alabama,Wheeler Basin Regional Library,504 Cherry Street Ne,35601,(256) 353-2993,
Demopolis,Alabama,Demopolis Public Library,211 E. Washington Street,36732,(334) 289-1595,
Dora,Alabama,Dora Public Library,1485 Sharon Blvd,35062,(205) 648-3211,
Dothan,Alabama,Houston-Love Memorial Library - Dothan,212 West Burdeshaw Street,36303,(334) 793-9767,Email
Double Springs,Alabama,Double Springs Public Library,637 Blake Drive,35553,(205) 489-2412,
Dutton,Alabama,Dutton Public Library,23 Main Street,35744,(256) 228-4090,
Eight Mile,Alabama,Mitchell Branch Library,4440 Highpoint Boulevard,36613,(251) 452-7846,
Elba,Alabama,Elba Public Library,406 Simmons Street,36323,(334) 897-6921,
Enterprise,Alabama,Enterprise Public Library,101 East Grubbs Street,36330,(334) 347-2636,
Eufaula,Alabama,Eufaula Carnegie Library,217 North Eufaula Avenue,36027,(334) 687-2337,
Eufaula,Alabama,Mccoo Memorial Childrens Library,217 North Eufaula Avenue,36027,(334) 687-5974,
Eutaw,Alabama,James C. Poole Jr. Memorial Library,420 Prairie Avenue,35462,(205) 372-9026,
Eva,Alabama,Eva Public Library,4549 Highway 55 East,35621,(256) 796-8638,
Evergreen,Alabama,Evergreen Public Library,119 Cemetery Avenue,36401,(251) 578-2670,
Fairfield,Alabama,Walter J. Hanna Memorial Library,4615 Gary Avenue,35064,(205) 783-6007,
Fairfield,Alabama,Western Hills Mall Branch,,35064,(205) 923-1150,
Fairhope,Alabama,Fairhope Public Library,501 Fairhope Ave.,36532,(251) 928-7483,
Falkville,Alabama,Falkville Public Library,7 North 1st Ave.,35622,(256) 784-5822,
Fayette,Alabama,Fayette County Memorial Library,326 Temple Avenue North,35555,(205) 932-6625,
Flomaton,Alabama,Flomaton Public Library,608 Mccurdy Street,36441,(251) 296-3552,
Florala,Alabama,Florala Public Library,1214 Fourth Street,36442,(334) 858-3525,
Florence,Alabama,Florence-Lauderdale Public Library,350 North Wood Avenue,35630,(256) 764-6564,
Foley,Alabama,Foley Public Library,319 East Laurel Avenue,36535,(251) 943-7665,
Fort Deposit,Alabama,Fort Deposit Public Library,24 South Pollard St,36032,(334) 404-4400,
Fort Payne,Alabama,Dekalb County Public Library,504 Grand Avenue Nw,35967,(256) 845-2671,
Fultondale,Alabama,Fultondale Public Library,1015 Old Walkers Chapel Road,35068,(205) 849-6335,Email
Gadsden,Alabama,Carver Memorial Library,1030 Tuscaloosa Avenue,35901,(205) 549-4690,
Gadsden,Alabama,East Gadsden Branch Library,919 Wilson Avenue,35903,(205) 549-4691,
Gadsden,Alabama,Gadsden Public Library,254 College Street,35901,(256) 549-4699,
Gadsden,Alabama,Hoyt Warsham Alabama City Branch Library,2700 West Meighan,35904,(256) 549-4688,
Garden City,Alabama,Garden City Public Library,501 1st Avenue South,35070,(256) 352-4552,
Gardendale,Alabama,Gardendale Martha Moore Public Library,995 Mt. Olive Road,35071,(205) 631-6639,
Geneva,Alabama,Emma Knox Kenan Public Library,312 South Commerce Street,36340,(334) 684-2459,
Geraldine,Alabama,Geraldine Public Library,13543 Alabama Highway 227,35974,(256) 659-6663,
Goodwater,Alabama,Goodwater Public Library,36 Weogufka Street,35072,(256) 839-5741,
Gordo,Alabama,Ruth Holliman Memorial Public Library,287 Main Street South,35466,(205) 364-7148,Email
Grant,Alabama,Grant Public Library,5379 Main Street,35747,(256) 728-5128,
Graysville,Alabama,Graysville Public Library,315 South Main Street,35073,(205) 674-3040,Email
Green Pond,Alabama,Woodstock Library,321 Presbyterian Church Road,35074,(205) 938-0008,
Greensboro,Alabama,Hale County Library,1103 Main Street,36744,(334) 624-3409,
Greenville,Alabama,Butler County Public Library,309 Ft. Dale Street,36037,(334) 382-3216,
Grove Hill,Alabama,Grove Hill Public Library,108 Dubose Avenue,36451,(251) 275-8157,
Guin,Alabama,Mchs Community Library,8115 U.S. Highway 43,35563,(205) 468-2544,
Gulf Shores,Alabama,Thomas B. Norton Public Library,221 West 19th Avenue,36542,(251) 968-1176,
Guntersville,Alabama,Guntersville Public Library,1240 Obrig Avenue,35976,(256) 571-7595,
Gurley,Alabama,Gurley Public Library,331 Walker Street,35748,(256) 776-2102,
Haleyville,Alabama,Haleyville Public Library,913 20th Street,35565,(205) 486-7450,
Hamilton,Alabama,Clyde Nix Public Library,350 Bexar Avenue West,35570,(205) 921-4290,
Hanceville,Alabama,Hanceville Public Library,108 Main Street,35077,(256) 352-9830,
Hanceville,Alabama,Tom Bevel Branch,115 Byars Road,35077,(205) 287-1198,
Harpersville,Alabama,Harpersville Public Library,39397 Alabama 25,35078,(205) 672-8336,
Hartford,Alabama,Hartford - Mcgregor-Mckinney Public Library,101 East Fulton St.,36344,(334) 588-2384,
Hartselle,Alabama,Hartselle - William Bradford Huie Public Library,152 Sparkman Street Nw,35640,(256) 773-9880,
Hayneville,Alabama,Hayneville-Lowndes County Public Library,4 Washington Street,36040,(334) 548-2686,
Hazel Green,Alabama,Tillman Hill Branch Library,131 Knowledge Drive,35750,(256) 828-9529,
Headland,Alabama,Blanche R. Solomon Memorial Library,17 Park Street,36345,(334) 693-2706,
Heflin,Alabama,Cheaha Regional Library,935 Coleman Street,36264,(256) 463-7125,
Heflin,Alabama,Lucile L. Morgan Public Library,541 Ross Street,36264,(256) 463-2259,
Helena,Alabama,Jane B. Holmes Public Library,230 Tucker Road,35080,(205) 664-8308,
Henagar,Alabama,Henagar Public Library,17163 Al Highway 75,35978,(256) 657-1380,
Hokes Bluff,Alabama,Hokes Bluff - Rufus Floyd Public Library,3310 Alfords Bend Road,35903,(256) 492-9846,
Homewood,Alabama,Homewood Public Library,1721 Oxmoor Road,35209,(205) 332-6600,Email
Hoover,Alabama,Hoover Public Library,200 Municipal Drive,35216,(205) 444-7810,Email
Hueytown,Alabama,Hueytown Public Library,1372 Hueytown Road,35023,(205) 491-1443,Email
Huntsville,Alabama,Bailey Cove Branch Library,1409 Weatherly Plaza,35803,(256) 881-0257,
Huntsville,Alabama,Bessie K. Russell Branch Library,3011-C Sparkman Drive,35810,(256) 859-9050,
Huntsville,Alabama,Blue Spring Branch,4600 Blue Spring Road,35810,(256) 851-7492,
Huntsville,Alabama,Eleanor E. Murphy Branch Library,7910 Charlotte Drive,35802,(256) 881-5620,
Huntsville,Alabama,Huntsville-Madison County Public Library,915 Monroe Street,35801,(256) 532-5950,
Huntsville,Alabama,Oscar Mason Branch,149 Mason Court,35805,(256) 535-2272,
Ider,Alabama,Ider Public Library,10808 Alabama Highway 75,35981,(256) 657-2170,
Irondale,Alabama,Irondale Public Library,105 Twentieth Street South,35210,(205) 951-1415,
Irvington,Alabama,City Of Bayou La Batre Public Library,12747 Padgett Switch Road,36509,(251) 824-4213,
Jackson,Alabama,White Smith Memorial Library,213 College Avenue,36545,(251) 246-4962,
Jacksonville,Alabama,Jacksonville Public Library,200 Pelham Road South,36265,(256) 435-6332,
Jasper,Alabama,Carl Elliott Regional Library System,98 18th Street East,35501,(205) 221-2568,
Jasper,Alabama,Jasper Public Library,98 East 18th Street,35501,(205) 221-8512,
Jemison,Alabama,Jemison Public Library,,,(205) 688-4492,
Kennedy,Alabama,Kennedy Public Library,17885 Hwy. 96,35574,(205) 596-3670,
Killen,Alabama,Killen Public Library,325 J. C. Mauldin Highway,35645,(256) 757-5471,
Lafayette,Alabama,Lafayette Pilot Public Library,"198 First Street, Se",36862,(334) 864-0012,
Leeds,Alabama,Jane Culbreth Library,8104 Parkway Drive,35094,(205) 699-5962,
Leighton,Alabama,Leighton Public Library,8740 Main Street,35646,(256) 446-5380,
Lexington,Alabama,Burchell Campbell Memorial Library,11075 Highway 101,35648,(256) 229-5579,
Lincoln,Alabama,Lincoln Public Library,49 Complex Drive,35096,(205) 763-7777,
Linden,Alabama,Marengo County Public Library,507 North Main,36748,(334) 295-2246,
Lineville,Alabama,Lineville Public Library,60119 Highway 49,36266,(256) 396-5162,
Livingston,Alabama,Ruby Pickens Tartt Public Library,206 Monroe Street,35470,(205) 652-2349,
Louisville,Alabama,Louisville Public Library,1951 Main St.,36048,(334) 266-5210,
Loxleyabama,Alabama,Loxley Public Library,1001 Loxley Avenue,36551,(251) 964-5695,
Luverne,Alabama,Luverne Public Library,148 East Third Avenue,36049,(334) 335-5326,
Madison,Alabama,Madison Public Library,130 Plaza Drive,35758,(256) 461-2246,
Madison,Alabama,Monrovia Branch,1962 Jeff Road,35757,(256) 837-6153,
Madison,Alabama,Triana Branch Library,280 Zierdt Road,35756,(256) 461-7598,
Maplesville,Alabama,Maplesville Public Library,9400 Al Highway 22,36750,(334) 366-4211,
Marbury,Alabama,Autauga Prattville Public Library - Marbury,205 County Road 20 East,36051,(205) 755-8575,Email
Marion,Alabama,Marion-Perry County Library,202 Washington Street,36756,(334) 683-6411,
Mcintosh,Alabama,Mcintosh Public Library,"83 Olin Road, Mcintosh",36553,(251) 944-2047,
Midfield,Alabama,Midfield Public Library,400 Breland Drive,35228,(205) 923-1027,
Midland City,Alabama,Mary Berry Brown Memorial Library,1318 Hinton Waters Ave,36350,(334) 983-9999,
Millbrook,Alabama,Millbrook Public Library,3650 Grandview Road,36054,(334) 285-6688,
Millport,Alabama,Millport Public Library,920 Black Street,35576,(205) 662-4286,
Mobile,Alabama,Dauphin Island Parkway Branch,1924j Dauphin Island Parkway,36605,(251) 470-7766,
Mobile,Alabama,Mobile Public Library,701 Government Street,36602,(251) 208-7073,
Mobile,Alabama,Monte L. Moorer-Springhill Branch,4 Mcgregor Avenue S,36608,(251) 470-7770,
Mobile,Alabama,Tillmans Corner Branch,"5451 Halls Mill Road, Suite 10",36619,(251) 661-4578,
Mobile,Alabama,Toulminville Branch,2318 St. Stephens Road,36617,(251) 438-7075,
Mobile,Alabama,West Regional Library,5555 Grelot Road,36609,(251) 640-8550,
Monroeville,Alabama,Monroe County Public Library,121 Pineville Road,36460,(251) 743-3818,
Montevallo,Alabama,Montevallo - Parnell Memorial Library,277 Park Drive,35115,(205) 665-9207,
Montevallo,Alabama,Parnell Memorial Library,845 Valley Street,35115,(205) 665-9207,
Montgomery,Alabama,Coliseum Boulevard Branch Library,840 Coliseum Boulevard,36109,(334) 271-7005,
Montgomery,Alabama,El Lowder Regional Library,3950 Bell Road,36116,(334) 244-5717,
Montgomery,Alabama,Governors Square Branch Library,2885-B East South Blvd.,36116,(334) 284-7929,
Montgomery,Alabama,Hampstead Branch Library,5251 Hampstead High Street Suite 107,36116,(334) 244-5770,
Montgomery,Alabama,Juliette Hampton Morgan Memorial Library,245 High Street,36104,(334) 240-4300,
Montgomery,Alabama,Pintlala Branch Library,255 Federal Road,36043,(334) 281-8069,
Montgomery,Alabama,Rosa L. Parks Avenue Branch Library,1276 Rosa Parks Avenue,36108,(334) 540-4979,
Montgomery,Alabama,Rufus A. Lewis Regional Library,3095 Mobile Highway,36108,(334) 240-4848,
Moody,Alabama,Doris Stanley Memorial Library,2900 Daniel Drive,35004,(205) 640-2517,
Moody,Alabama,Moody - Doris Stanley Memorial Library,1515 Bookmark Lane,35004,(205) 640-2517,
Moulton,Alabama,Lawrence County Public Library,401 College Street,35650,(256) 974-0883,
Moundville,Alabama,Moundville Public Library,410 Market Street,35474,(205) 371-2283,
Mountain Brook,Alabama,Emmet Oneal Library,50 Oak Street,35213,(205) 879-0459,Email
Mt. Vernon,Alabama,Mt. Vernon Public Library,1220 Military Road,36560,(251) 829-9497,
Muscle Shoals,Alabama,Muscle Shoals Public Library,1918 East Avalon Avenue,35661,(256) 386-9212,
New Hope,Alabama,Elizabeth Carpenter Public Library,5496 Main Street,,(256) 723-2995,
Newton,Alabama,Newton Public Library,209 Oates Drive,36352,(334) 299-3316,
Odenville,Alabama,Odenville Public Library,200 Alabama Street,35120,(205) 629-5901,
Ohatchee,Alabama,Ohatchee Public Library,7803 Al Highway 77,36271,(256) 892-4203,
Oneonta,Alabama,Oneonta Public Library,221 Second Street South,35121,(205) 274-7641,
Opelika,Alabama,Lewis Cooper Jr. Memorial Library,200 South 6th Street,,(334) 705-5380,
Opelika,Alabama,Opelika - Lewis Cooper Jr. Memorial Library,200 South 6th Street,36801,(334) 705-5380,
Opp,Alabama,Opp Public Library,1604 North Main Street,36467,(334) 493-6423,Email
Orange Beach,Alabama,Orange Beach Public Library,26267 Canal Road,36561,(251) 981-2923,
Oxford,Alabama,Oxford Public Library,110 East 6th Street,36203,(256) 831-1750,
Ozark,Alabama,Ozark - Dale County Public Library,416 James Street,36360,(334) 774-5480,
Pelham,Alabama,Pelham Public Library,3160 Pelham Parkway,35124,(205) 620-6418,
Pell City,Alabama,Pell City Public Library,1923 1st Avenue North,35125,(205) 884-1015,
Phenix City,Alabama,Phenix City-Russell County Library,1501 17th Avenue,36867,(334) 297-1139,Email
Piedmont,Alabama,Piedmont Public Library,106 N Main Street,36272,(256) 447-3369,
Pike Road,Alabama,Pike Road Branch Library,9585 Vaughn Road,36064,(334) 244-8679,
Pine Hill,Alabama,Pine Hill Branch Public Library,530 Oak Grove Street,36769,(334) 963-4351,
Pine Level,Alabama,Pine Level Branch Library,20 Kohn Drive,36065,(334) 584-7144,
Pinson,Alabama,Clay Public Library,7257 Old Springville Road,35126,(205) 680-3812,Email
Pinson,Alabama,Pinson Public Library,4410 Main Street,35126,(205) 680-9298,
Pleasant Grove,Alabama,Pleasant Grove Public Library,501 Park Road,35127,(205) 744-1742,
Prattville,Alabama,Autauga - Prattville Public Library,254 Doster Street,36067,(334) 365-3396,
Priceville,Alabama,Priceville Public Library,103 Faye Drive,35603,(256) 584-0230,
Prichard,Alabama,Prichard Public Library,300 West Lovejoy Loop,36610,(251) 452-7847,
Ragland,Alabama,Ragland Public Library,738 Main Street,35131,(205) 472-2007,
Rainbow City,Alabama,Rainbow City Public Library,3702 Rainbow Drive,35906,(256) 442-8477,
Rainsville,Alabama,Rainsville Public Library,941 East Main Street,35986,(256) 638-3311,
Ramer,Alabama,Ramer Branch Library,5444 Sr-94,36069,(334) 562-3364,
Red Bay,Alabama,Red Bay - Weatherford Public Library,307 4th Avenue South,35582,(256) 356-9255,
Reform,Alabama,Reform Public Library,302 First Street South,35481,(205) 375-6240,Email
Roanoke,Alabama,Roanoke - Annie L. Awbrey Public Library,736 College Street,36274,(334) 863-2632,
Robertsdale,Alabama,Baldwin County Library Cooperative,22251 Palmer Street,36567,(251) 970-4010,
Robertsdale,Alabama,Robertsdale Public Library,18301 Pennsylvania Street,36567,(251) 947-8960,
Rockford,Alabama,Rockford Public Library,110 Main Street,35136,(256) 377-4911,
Rogersville,Alabama,Rogersville Public Library,74 Bank Street,35652,(256) 247-0151,
Russellville,Alabama,Russellville Public Library,110 East Lawrence Street,35653,(256) 332-1535,
Samson,Alabama,Samson Public Library,200 North Johnson Street,36477,(334) 898-7806,
Saraland,Alabama,Saraland Public Library,111 Saraland Loop,36571,(251) 675-2879,
Sardis City,Alabama,Sardis City Public Library,1310 Church Street,35956,(256) 593-5634,
Satsuma,Alabama,Satsuma Public Library,5466 Old Highway 43,36572,(251) 679-0700,
Scottsboro,Alabama,Scottsboro Public Library,1002 South Broad Street,35768,(256) 574-4335,
Selma,Alabama,Selma-Dallas County Public Library,1103 Selma Avenue,36703,(334) 874-1725,
Sheffield,Alabama,Sheffield Public Library,316 North Montgomery Avenue,35660,(256) 386-5633,
Silverhill,Alabama,Oscar Johnson Memorial Library,15965 Silverhill Ave.,36576,(251) 945-5201,
Slocomb,Alabama,Slocomb Public Library,134 South Dalton Avenue,36375,(334) 886-9009,
Somerville,Alabama,Somerville Public Library,192 Broad St,35670,(256) 778-9779,
Springville,Alabama,Springville Public Library,6496 U.S. Highway 11,35146,(205) 467-2339,
Steele,Alabama,Steele Public Library,78 Hillview Street,35987,(205) 538-0811,
Stevenson,Alabama,Stevenson Public Library,102 West Main Street,35772,(256) 437-3008,
Sulligent,Alabama,Sulligent Public Library,514 Elm Street,35586,(205) 698-8631,
Sumiton,Alabama,Sumiton Public Library,416 State Street,35148,(205) 648-7451,
Summerdale,Alabama,Summerdale - Marjorie Younce Snook Public Library,202 West Broadway Street,36580,(251) 989-2011,
Sylacauga,Alabama,B .B. Comer Memorial Library,314 North Broadway Avenue,35150,(256) 249-0961,
Talladega,Alabama,Talladega Public Library,202 South Street East,35160,(256) 362-4211,
Tallassee,Alabama,Tallassee Community Library,99 Freeman Avenue,36078,(334) 283-2732,
Tarrant,Alabama,Tarrant Public Library,1143 Ford Avenue,35217,(205) 841-0575,
Thomasville,Alabama,Thomasville Public Library,1401 Mosley Drive,36784,(334) 636-5343,
Thorsby,Alabama,Thorsby Public Library,,,(334) 644-3375,
Troy,Alabama,Troy Public Library,300 North Three Notch Street,36081,(334) 566-1314,
Trussville,Alabama,Trussville Public Library,201 Parkway Drive,35173,(205) 655-2022,
Tuscaloosa,Alabama,Tuscaloosa Public Library,1801 Jack Warner Parkway,35401,(205) 345-5820,
Tuscaloosa,Alabama,Weaver-Bolden Branch Library,2937 18th Street,35401,(205) 758-8291,
Tuscumbia,Alabama,Tuscumbia - Helen Keller Public Library,511 North Main Street,35674,(256) 383-7065,
Tuskegee,Alabama,Macon County - Tuskegee Public Library,302 South Main Street,36083,(334) 727-5192,
Union Springs,Alabama,Union Springs Public Library,103 North Prairie Street,36089,(334) 738-2760,
Uniontown,Alabama,Uniontown Public Library,108 Water Street,36786,(334) 628-6681,
Valley,Alabama,H. Grady Bradshaw - Chambers County Library,3419 20th Avenue,36854,(334) 768-2161,
Vernon,Alabama,Vernon - Mary Wallace Cobb Memorial Library,110 First Avenue West,35592,(205) 695-6123,
Vestavia Hills,Alabama,Vestavia Hills Public Library,1112 Montgomery Highway,35216,(205) 978-0155,
Vincent,Alabama,Vincent - Lallouise F. Mcgraw Library,42860 Highway 25,35178,(205) 672-2749,
Walnut Grove,Alabama,Westside Public Library,5151 Walnut Grove Road,35990,(205) 589-6699,
Warrior,Alabama,Warrior Public Library,101 First Street,35180,(205) 647-3006,
West Blocton,Alabama,West Blocton Public Library,62 Walter Owens Drive,35184,(205) 938-3570,
Westover,Alabama,Westover Public Library,,,(205) 678-7335,
Wetumpka,Alabama,Wetumpka Public Library,212 South Main Street,36092,(334) 567-1308,
White Hall,Alabama,White Hall Public Library,640 Freedom Road,36040,(334) 874-7323,
Wilsonville,Alabama,Wilsonville - Vernice Stoudenmire Library,p.o. box 24,35186,(205) 669-6180,
Winfield,Alabama,Northwest Regional Library,185 Ashwood Drive,35594,(205) 487-2330,
Winfield,Alabama,Winfield Public Library,185 Ashwood Drive,35594,(205) 487-2484,
Woodville,Alabama,Woodville Public Library,26 Venson Street,35776,(256) 776-2796,
York,Alabama,Hightower Memorial Library,630 Avenue A,36925,(205) 392-2004,
City,,Library,Address,Zip,Phone,Email
Aguila,Arizona,Maricopa County Library - Aguila,51300 West U.S. 60,85320,(928) 685-2214,
Ajo,Arizona,Salazar-Ajo Branch Library,33 Plaza Street,85321,(520) 387-6075,
Alpine,Arizona,Alpine Public Library,17 County Road 2061,85920,(928) 339-4925,
Anthem,Arizona,Maricopa County Library - North Valley Regional,40410 North Gavilan Peak Parkway,85086,(602) 652-3000,
Apache Junction,Arizona,Apache Junction Public Library,1177 N. Idaho Rd.,85219,(480) 474-8557,
Arivaca,Arizona,Caviglia-Arivaca Branch Library,17050 W Arivaca Road,85601,(520) 594-5235,
Arizona City,Arizona,Arizona City Community Library,13254 S. Sunland Gin Rd.,85193,(520) 466-5565,
Ash Fork,Arizona,Ash Fork Public Library,518 Lewis Ave,86320,(928) 637-2442,
Avondale,Arizona,Avondale Civic Center Library,11350 Civic Center Drive,85323,(602) 652-3000,
Avondale,Arizona,Avondale Old Town Library,328 West Western Avenue,85323,(623) 932-9415,
Avondale,Arizona,Sam Garcia Western Avenue Library,495 E. Western Ave,85323,(623) 333-2611,
City,Arizona,Library,Address,Zip,Phone,Email
Bagdad,Arizona,Bagdad Public Library,100 Main Street,14070,(928) 633-2325,
Beaver Dam,Arizona,Beaver Dam-Littlefield Library,3436 E Rio Virgin Rd,86432,(928) 347-5796,
Benson,Arizona,Benson Public Library,300 S. Huachuca,85602,(520) 586-9535,
Bisbee,Arizona,Cochise County Library District,100 Clawson Street,85603,(520) 432-8930,
Bisbee,Arizona,Copper Queen Library,6 Main Street,85603,(520) 432-4232,
Black Canyon City,Arizona,Black Canyon City Community Library,34701 S Old Black Canyon Hwy,85324,(623) 374-5866,
Bowie,Arizona,Jimmie Libhart Library,201 North Central,85605,(520) 847-2545,
Buckeye,Arizona,Buckeye Public Library,310 North 6th Street,85326,(623) 349-6312,
Bullhead City,Arizona,Mohave County Library At Bullhead City Library,1170 East Hancock Road,86442,(928) 758-0714,
City,Arizona,Library,Address,Zip,Phone,Email
Camp Verde,Arizona,Camp Verde Community Library,130 Black Bridge Loop Rd.,86322,(928) 567-3414,Email
Casa Grande,Arizona,Casa Grande Public Library,449 N. Dry Lake,85222,(520) 421-8710,
Catalina,Arizona,Dewhirst-Catalina Branch Library,15631 N. Oracle Rd.,85739,(520) 594-5240,
Cave Creek,Arizona,Desert Foothills Library,38443 N. Schoolhouse Road,85331,(480) 488-2286,
Chandler,Arizona,Chandler Public Library,22 South Delaware,85225,(480) 782-2817,
Chandler,Arizona,Hamilton Branch Library,3700 South Arizona Avenue,85248,(480) 782-2828,
Chandler,Arizona,Sunset Branch Library,4930 West Ray Road,85226,(480) 782-2840,
Chino Valley,Arizona,Chino Valley Public Library,1020 W. Palomino Road,86323,(928) 636-2687,
Chloride,Arizona,Craig Community Library,4901 Pay Roll Avenue,86431,(928) 565-2200,
Cibecue,Arizona,Cibecue Community Library,6 West 3rd St.,85911,(928) 332-2621,
Clarkdale,Arizona,Clark Memorial,39 North Ninth Street,86324,(928) 634-9760,
Clay Springs,Arizona,Clay Springs Public Library,2106 Granite Rd.,85923,(928) 739-4848,
Clifton,Arizona,Clifton Public Library,505 School Street,85533,(928) 865-2461,
Concho,Arizona,Concho Public Library,18 County Road 5051,85924,(928) 337-2167,
Congress,Arizona,Congress Public Library,26750 S Sante Fe Rd,85332,(928) 427-3945,
Coolidge,Arizona,Coolidge Public Library,160 W. Central Avenue,85228,(520) 723-6030,
Cottonwood,Arizona,Cottonwood Public Library,100 S. 6th St.,86326,(928) 634-7559,
Crown King,Arizona,Crown King Public Library,23550 South Towers Mountain Road,86343,(928) 632-5986,
City,Arizona,Library,Address,Zip,Phone,Email
Dateland,Arizona,Dateland Branch Library,,85333,(928) 454-2242,
Douglas,Arizona,Douglas Public Library,560 10th Street,85607,(520) 364-3851,
Duncan,Arizona,Duncan Public Library,122 N. Hwy. 75,85534,(928) 359-2094,
City,Arizona,Library,Address,Zip,Phone,Email
Eagar,Arizona,Round Valley Public Library,179 South Main Street,85925,(928) 333-4694,
El Mirage,Arizona,Maricopa County Library - El Mirage,14011 N. 1st Avenue,85335,(602) 652-3000,
Eloy,Arizona,Eloy Public Library,100 East 7th Street,85231,(520) 466-3814,
City,Arizona,Library,Address,Zip,Phone,Email
Flagstaff,Arizona,East Flagstaff Community Library,3000 N Fourth St,86004,(928) 774-8434,
Flagstaff,Arizona,Flagstaff City-Coconino County Public Library,300 West Aspen,86001,(928) 779-7673,
Florence,Arizona,Florence Community Library,1000 S. Willow Street,85232,(520) 868-9471,
Florence,Arizona,Pinal County Library District,92 W. Butte Ave.,85232,(520) 866-6457,
Forest Lakes,Arizona,Forest Lakes Community Library,417 Old Rim Rd,85931,(928) 535-9125,
Fountain Hills,Arizona,Maricopa County Library - Fountain Hills,12901 N La Montana Dr,85268,(480) 837-9793,
Fredonia,Arizona,Fredonia Public Library,118 North Main Street,86022,(928) 643-7137,
Fredonia,Arizona,Kaibab Paiute Tribal Library,1 North Pipe Springs Road,86022,(928) 643-6004,
Ft. Mcdowell,Arizona,Ft. Mcdowell Yavapai Nation Tribal Library,16708 N. Ft Mcdowell Road,85264,(480) 789-7850,
City,Arizona,Library,Address,Zip,Phone,Email
Gila Bend,Arizona,Maricopa County Library - Gila Bend,202 N Euclid,85337,(928) 683-2061,
Gila Bend,Arizona,San Lucy District Library,1125 C Street,85337,(928) 683-2012,
Gilbert,Arizona,Maricopa County Library - Perry,1965 E. Queen Creek Rd.,85298,(602) 652-3000,
Gilbert,Arizona,Maricopa County Library - Southeast Regional,775 North Greenfield Road,85234,(480) 539-5100,
Glendale,Arizona,Foothills Branch Library,19055 North 57th Avenue,85308,(623) 930-3830,
Glendale,Arizona,Glendale Public Library,5959 W Brown St,85302,(623) 930-3562,
Glendale,Arizona,Velma Teague Branch Library,7010 North 58th Avenue,85301,(623) 930-3431,
Globe,Arizona,Gila County Library District,1400 East Ash,85501,(928) 402-8770,
Globe,Arizona,Globe Public Library,339 S. Broad St.,85501,(928) 425-6111,
Golden Valley,Arizona,Golden Valley Community Library,3417 N. Verde Road,86413,(928) 565-2989,
Goodyear,Arizona,Maricopa County Library - Goodyear,250 N. Litchfield Road Ste 185,85338,(602) 652-3000,
Grand Canyon National Park,Arizona,Grand Canyon Community Library,208 Navajo Street,86023,(928) 638-2718,
Green Valley,Arizona,Joyner-Green Valley Branch Library,601 North La Canada Drive,85614,(520) 594-5295,
Greer,Arizona,Greer Memorial Library,109 County Road 1120 - Main Street,85927,(928) 735-7710,
Guadalupe,Arizona,Maricopa County Library - Guadalupe,9241 South Avenida Del Yaqui,85283,(480) 831-5967,
City,Arizona,Library,Address,Zip,Phone,Email
Hayden,Arizona,Hayden Public Library,219 E. 5th St.,85235,(520) 356-7031,
Hayden,Arizona,Hayden Public Library,520 Velasco Avenue,85135,(520) 356-7031,
Heber,Arizona,Rim Community Library,3404 Mustang Ave.,85928,(928) 535-5749,
Holbrook,Arizona,Holbrook Public Library,403 Park St,86025,(928) 524-3732,
Holbrook,Arizona,Navajo County Library District,121 W. Buffalo,86025,(928) 524-4745,Email
Huachuca City,Arizona,Huachuca City Public Library,506 N Gonzales Blvd,85616,(520) 456-1063,
City,Arizona,Library,Address,Zip,Phone,Email
Jerome,Arizona,Jerome Public,600 Clark St.,86331,(928) 639-0574,
City,Arizona,Library,Address,Zip,Phone,Email
Kayenta,Arizona,Kayenta Community Library,1 Mile N. U.S. Highway 163,86033,(928) 697-5563,
Kearny,Arizona,Kearny Public Library,912-A Tilbury Rd.,85237,(520) 363-5861,
Kingman,Arizona,Mohave County Library District,3269 N. Burbank Street,86401,(928) 692-5717,
Kingman,Arizona,Valle Vista Community Library,"7193 Concho Drive, Suite B",86401,(928) 692-7662,
Kykotsmovi,Arizona,Hopi Public Library,100 Main Street,86034,(928) 734-4500,Email
City,Arizona,Library,Address,Zip,Phone,Email
Lake Havasu City,Arizona,Mohave County Library At Lake Havasu City,1770 N Mcculloch Blvd,86403,(928) 453-0718,
Lakeside,Arizona,Larson Memorial Public Library,1595 Johnson Dr.,85929,(928) 368-0624,
Laveen,Arizona,Laveen Branch Library,9401 S. 51st Ave,85339,(602) 237-2904,
Litchfield Park,Arizona,Maricopa County Library - Litchfield Park,101 West Indian School Road,85340,(623) 935-4118,
City,Arizona,Library,Address,Zip,Phone,Email
Mammoth,Arizona,Mammoth Public Library,125 N. Clark St.,85618,(520) 487-2026,
Marana,Arizona,Geasa-Marana Branch Library,13370 Lon Adams Road,85653,(520) 594-5255,
Maricopa,Arizona,Maricopa Public Library,44240 West Maricopa-Casa Grande Hwy,85239,(520) 316-6966,
Mayer,Arizona,Cordes Lakes Public Library,20445 E Quail Run Dr,86333,(928) 632-5492,
Mayer,Arizona,Mayer Public Library,10004 Wicks Street,86333,(928) 632-7370,
Mcnary,Arizona,Mcnary Community Library,14 Cady Street,85930,(928) 334-2116,
Meadview,Arizona,Meadview Community Library,149 Meadview Blvd,86444,(928) 564-2535,
Mesa,Arizona,Dobson Ranch Branch Library,2425 South Dobson Road,85202,(480) 644-3441,
Mesa,Arizona,East Mesa Regional Library,635 North Power Road,85207,(480) 644-3184,
Mesa,Arizona,Mesa Public Library,64 E. First St.,85201,(480) 644-3100,
Miami,Arizona,Miami Memorial Public Library,1052 Adonis Ave.,85539,(928) 473-2621,
Mohave Valley,Arizona,South Mohave Valley Community Library,"8045 Highway 95, Suite D",86440,(928) 768-1151,
Morenci,Arizona,Morenci Community Library,346 Plaza Morenci,85540,(928) 865-2775,
City,Arizona,Library,Address,Zip,Phone,Email
Nogales,Arizona,Nogales-Santa Cruz County Public Library,518 N. Grand Ave.,85621,(520) 285-5710,
City,Arizona,Library,Address,Zip,Phone,Email
Oatman,Arizona,Oatman Community Library,140 Main Street,86413,(928) 768-2323,
Oracle,Arizona,Oracle Public Library,565 American Ave,85623,(520) 896-2121,
Oro Valley,Arizona,Oro Valley Public Library,1305 W Naranja Drive,85737,(520) 229-5302,
City,Arizona,Library,Address,Zip,Phone,Email
Page,Arizona,Page Public Library,479 South Lake Powell Blvd.,86040,(928) 645-4270,
Parker,Arizona,Colorado River Indian Tribes Library-Archives,26600 Mohave Road,85344,(928) 669-9211,
Parker,Arizona,La Paz County Services,1001 S. Navajo Ave,85344,(928) 669-2622,
Parker,Arizona,Parker Public Library,1001 S. Navajo Ave,85344,(928) 669-2622,
Patagonia,Arizona,Patagonia Public Library,346 Duquesne Ave,85624,(520) 394-2010,
Payson,Arizona,Payson Public Library,328 N. Mclane Rd.,85541,(928) 474-9260,
Peach Springs,Arizona,The Edward Mcelwain Memorial Library,460 Hualapai Way,86434,(928) 769-2200,
Pearce,Arizona,Alice Woods Sunizona Library,6460 East Highway 181,85625,(520) 824-3340,
Pearce,Arizona,Sunsites Community Library,210 Ford Road,85625,(520) 826-3866,
Peoria,Arizona,Peoria Public Library System,8463 W. Monroe St.,85345,(623) 773-7557,
Peoria,Arizona,Sunrise Mountain Branch Library,"21200 North 83rd Ave, Ste 101",85382,(623) 487-5150,
Phoenix,Arizona,Acacia Branch Library,750 East Townley Avenue,85020,(602) 262-6223,
Phoenix,Arizona,Burton Barr Central Library,1221 North Central Avenue,85004,(602) 262-4636,
Phoenix,Arizona,Century Branch,1750 East Highland,85016,(602) 262-7412,
Phoenix,Arizona,Cholla Branch Library,10050 Metro Parkway East,85051,(602) 534-3770,
Phoenix,Arizona,Desert Sage Branch Library,7602 West Encanto Blvd,85035,(602) 534-5276,
Phoenix,Arizona,George L. Campbell Branch Library,17811 N 32nd St,85032,(602) 652-3000,
Phoenix,Arizona,Harmon Branch Library,411 West Yavapai Street,85007,(602) 262-6362,
Phoenix,Arizona,Ironwood Branch Library,4333 East Chandler Blvd,85048,(602) 534-1900,
Phoenix,Arizona,Juniper Branch Library,1825 W Union Hills Dr,85027,(602) 534-3900,
Phoenix,Arizona,Maricopa County Library District Office,2700 N Central Ave Ste 700,85004,(602) 652-3000,
Phoenix,Arizona,Mesquite Branch Librry,4525 Paradise Village Parkway North,85032,(602) 262-7299,
Phoenix,Arizona,Ocotillo Branch Library,102 West Southern Avenue,85041,(602) 262-6694,
Phoenix,Arizona,Palo Verde Branch Library,4402 North 51st Avenue,85031,(602) 262-6805,
Phoenix,Arizona,Phoenix Public Library,1221 N. Central Avenue,85004,(602) 262-6157,
Phoenix,Arizona,Saguaro Branch Library,2808 North 46th Street,85008,(602) 262-6801,
Phoenix,Arizona,Yucca Branch Library,5648 North 15th Avenue,85015,(602) 262-6788,
Pima,Arizona,Pima Public Library,50 South 200 West,85543,(928) 485-2822,
Pine,Arizona,Isabelle Hunt Memorial Public Library,6124 W. Randall Place,85544,(928) 476-3678,
Pinetop-Lakeside,Arizona,Larson Memorial Public Library,1595 Johnson Dr.,85929,(928) 368-6688,
Portal,Arizona,Myrtle Kraft Library,2393 South Rock House Road,85632,(520) 558-2468,Email
Prescott,Arizona,Prescott Gateway Branch,3250 Gateway Blvd,86303,(928) 445-3799,
Prescott,Arizona,Prescott Public Library,215 E Goodwin St,86303,(928) 777-1519,
Prescott,Arizona,Yavapai County Library District,172 East Merritt Street Suite E,86301,(928) 771-3191,
Prescott Valley,Arizona,Prescott Valley Public Library,7501 Civic Circle,86314,(928) 759-3041,
City,Arizona,Library,Address,Zip,Phone,Email
Quartzsite,Arizona,Quartzsite Public Library,465 North Plymouth Ave,85346,(928) 927-6593,
Queen Creek,Arizona,Maricopa County Library - Queen Creek,22407 South Ellsworth Road,85142,(480) 987-3600,
City,Arizona,Library,Address,Zip,Phone,Email
Rio Rico,Arizona,Rio Rico Library,1060 Yavapai Drive,85648,(520) 281-8067,
Roll,Arizona,Roll Branch Library,5151 S Avenue 39e,85347,(928) 785-3701,
City,Arizona,Library,Address,Zip,Phone,Email
Sacaton,Arizona,Ira Hayes Memorial Library,94 North Church Street,85247,(520) 562-3225,
Safford,Arizona,Safford City - Graham County Library,808 S. 7th Avenue,85546,(928) 348-3202,
Sahuarita,Arizona,Sahuarita Branch Library,725 W. Via Rancho Sahuarita,85629,(520) 594-5490,
Salome,Arizona,Indian Hills Branch Library,66907 Indian Hills Way,85344,(928) 859-4271,
San Carlos,Arizona,San Carlos Public Library,89 San Carlos Ave.,85550,(928) 475-2611,
San Luis,Arizona,San Luis Branch Library,1075 N. 6th Ave,85349,(928) 627-8344,
San Manuel,Arizona,San Manuel Public Library,108 W Fifth Avenue,85631,(520) 385-4470,
Sanders,Arizona,Sanders Public Library,,86512,(928) 688-2677,
Scottsdale,Arizona,Arabian Library,10215 E. Mcdowell Mt. Ranch Rd.,85255,(480) 312-7323,
Scottsdale,Arizona,Civic Center Library,3839 North Drinkwater Blvd,85251,(480) 312-7323,
Scottsdale,Arizona,Mustang Library,10101 North 90th Street,85258,(480) 312-7323,
Scottsdale,Arizona,Palomino Library,"12575 East Via Linda, 102",85259,(480) 312-7323,
Scottsdale,Arizona,Salt River Tribal Library,1880 N. Longmore,85256,(480) 850-8339,
Scottsdale,Arizona,Scottsdale Public Library,3839 N. Drinkwater Blvd.,85251,(480) 312-7039,
Sedona,Arizona,Sedona Public Library,3250 White Bear Road,86336,(928) 282-7714,
Seligman,Arizona,Seligman Public Library,54170 N Floyd St,86337,(928) 771-3191,
Sells,Arizona,Pisinemo Media Center Library,,,(520) 362-2806,
Sells,Arizona,Venito Garcia Library,po box 837,85634,(520) 383-5756,
Show Low,Arizona,Show Low Public Library,181 N. 9th St.,85901,(928) 532-4070,
Sierra Vista,Arizona,Sierra Vista Public Library,2600 East Tacoma Street,85635,(520) 458-4225,
Snowflake,Arizona,Snowflake-Taylor Public Library,418 South 4th West,85937,(928) 536-7103,
Somerton,Arizona,Cocopah Tribal Library,14250 S. Avenue I,85350,(928) 627-8026,
Somerton,Arizona,Somerton Branch Library,240 Canal Street,85350,(928) 627-2149,
Sonoita,Arizona,Sonoita Community Library,3147 Arizona 83,85637,(520) 455-5517,
St. Johns,Arizona,Apache County Library District Office,245 West 1st South,85936,(928) 337-3067,
St. Johns,Arizona,St. Johns Public Library,35 South 3rd West,85936,(928) 337-4405,
Sun City,Arizona,Maricopa County Library - Fairway,"10600 W. Peoria Avenue, Room 144",85351,(602) 652-3000,
Sun City,Arizona,Maricopa County Library - Sun City,16828 N. 99th Avenue,85351,(602) 652-3000,
Sun Lakes,Arizona,Maricopa County Library - Robson,9330 E Riggs Rd,85248,(602) 652-3000,
Supai,Arizona,Havasupai Village Library,p o box 40,86435,(928) 448-2901,
Superior,Arizona,Superior Public Library,99 Kellner Ave.,85273,(520) 689-2327,
Surprise,Arizona,Maricopa County Library - Hollyhock,15844 N. Hollyhock St,85378,(623) 583-0626,
Surprise,Arizona,The Northwest Regional Library,16089 N. Bullard Avenue,85374,(602) 652-3000,
City,Arizona,Library,Address,Zip,Phone,Email
Tempe,Arizona,Tempe Public Library,3500 South Rural Road,85282,(480) 350-5551,
Tolleson,Arizona,Tolleson Public Library,9555 W. Van Buren,85353,(623) 936-7111,
Tombstone,Arizona,Tombstone Public Library,p.o. box 218,85638,(520) 457-3612,
Tonto Basin,Arizona,Tonto Basin Public Library,415 Old Hwy 188,85553,(928) 479-2355,
Topock,Arizona,Golden Shores Station Library,13136 Golden Shores Parkway,86436,(928) 768-2235,
Tuba City,Arizona,Tuba City Public Library,78 Main Street,86045,(928) 283-5856,
Tubac,Arizona,Tubac Community Library,50 Bridge Road,85646,(520) 398-9814,
Tucson,Arizona,Dusenberry-River Branch Library,5605 East River Road,85750,(520) 594-5345,
Tucson,Arizona,Eckstrom-Columbus Branch Library,4350 E. 22nd St.,85711,(520) 594-5285,
Tucson,Arizona,El Pueblo Branch Library,101 W. Irvington Rd.,85706,(520) 594-5250,
Tucson,Arizona,El Rio Branch Library,1390 West Speedway,85745,(520) 594-5245,
Tucson,Arizona,Flowing Wells Branch Library,1730 W. Wetmore Road,85705,(520) 594-5225,
Tucson,Arizona,Himmel Park Branch Library,1035 North Treat Avenue,85716,(520) 594-5305,
Tucson,Arizona,Joel D. Valdez Main Library,101 N. Stone Ave.,85701,(520) 594-5500,
Tucson,Arizona,Kirk-Bear Canyon Branch Library,8959 East Tanque Verde Road,85749,(520) 594-5275,
Tucson,Arizona,Martha Cooper Branch Library,1377 N. Catalina Avenue,85712,(520) 594-5315,
Tucson,Arizona,Miller-Golf Links Branch Library,9640 E. Golf Links Road,85730,(520) 594-5355,
Tucson,Arizona,Mission Branch Library,3770 South Mission Road,85713,(520) 594-5325,
Tucson,Arizona,Murphy-Wilmot Branch Library,,85710,(520) 594-5420,
Tucson,Arizona,Nanini Branch Library,7300 North Shannon Road,85741,(520) 594-5365,
Tucson,Arizona,Pima County Public Library,101 N. Stone Avenue,85701,(520) 594-5601,
Tucson,Arizona,Quincie Douglas Branch Library,1585 E. 36th St.,85713,(520) 594-5335,
Tucson,Arizona,Sam Lena South Tucson Branch Library,1607s. Sixth Avenue,85713,(520) 594-5265,
Tucson,Arizona,San Xavier Learning Center Library,1960 West Walk Lane,85719,(520) 295-1025,
Tucson,Arizona,Santarosa Branch Library,1075 South 10th Ave.,85735,(520) 594-5260,
Tucson,Arizona,Southwest Branch Library,6855 South Mark Road,85757,(520) 594-5270,
Tucson,Arizona,Valencia Branch Library,202 West Valencia Road,85706,(520) 594-5390,
Tucson,Arizona,"Wheeler Taft Abbett, Sr. Branch Library",7800 N. Schisler Dr.,85743,(520) 594-5200,
Tucson,Arizona,Woods Memorial Branch Library,3455n. First Ave.,85719,(520) 594-5445,
City,Arizona,Library,Address,Zip,Phone,Email
Vernon,Arizona,Vernon Public Library,10 Main Street,85940,(928) 532-5005,
City,Arizona,Library,Address,Zip,Phone,Email
Waddell,Arizona,Maricopa County Library - White Tank,20304 W White Tank Mountain Rd,85355,(602) 652-3000,
Wellton,Arizona,Wellton Branch Library,28790 San Jose Ave,85356,(928) 785-9575,
Whiteriver,Arizona,Whiteriver Public Library,100 E. Walnut St.,85941,(928) 338-4884,
Wickenburg,Arizona,Wickenburg Public Library,164 E. Apache St.,85390,(928) 684-2665,
Wilhoit,Arizona,Cathy Prentice Memorial Library,9325 Donegal Drive,86332,(928) 442-3611,
Willcox,Arizona,Bonita Library,18008 S Ft. Grant Rd.,85643,(928) 828-3363,
Willcox,Arizona,Elsie S. Hogan Community Library,207 W. Maley,85643,(520) 384-4271,
Williams,Arizona,Williams Public Library,113 S. 1st St.,86046,(928) 635-2263,
Window Rock,Arizona,Office Of Navajo Nation Library,p.o. box 9040,86515,(928) 871-7303,
Winslow,Arizona,Winslow Public Library,420 W. Gilmore Street,86047,(928) 289-4982,
Woodruff,Arizona,Woodruff Community Library,6414 West 1st Street,85942,(928) 524-3885,
City,Arizona,Library,Address,Zip,Phone,Email
Yarnell,Arizona,Yarnell Public Library,22278 N Highway 89,86332,(928) 427-3191,
Young,Arizona,Young Public Library,150 Community Center Road,85554,(928) 462-3588,
Youngtown,Arizona,Youngtown Public Library,12035 Clubhouse Square,85363,(623) 974-3401,
Yuma,Arizona,Foothills Branch Library,13226 E. South Frontage Rd,85367,(928) 342-1640,
Yuma,Arizona,Heritage Branch Library,350 Third Ave,85364,(928) 783-5415,
Yuma,Arizona,Yuma Main Library,2951 S. 21st Drive,85364,(928) 782-1871,
