StateAbr,LibID,title,Address,City,Zip,Zip4,County,Phone,WebAddr,RelCode,LegBasis,PopLSA,CentralLib,BranchLib,BookMob,Master,Librarians,OtherPaid,TotStaff,LocGvt,StGvt,FedGvt,OtherInc,TotInc,PrintExp,ElecExp,OthMaterial,TotCollExp,TotalExp,BookVol,Ebook,Audio,Video,HrsOpen,Visits,RefTran,RegBor,TotCirc,KidCirc,TotProg,KidProg,TotAtten,KidAtten,GPTerms,PITUsr,Long,Lat,CountyPop,LocaleCode,CongDist
WI,WI0001,ABBOTSFORD PUBLIC LIBRARY,203 FIRST ST.,ABBOTSFORD,54405,506,CLARK,7152233920,wvls.lib.wi.us/AbbotsfordPL,CI,CI2,2551,1,0,0,0,0.7,0.75,1.45,97150,0,0,8559,105709,8985,0,6227,15212,88543,15570,8805,4186,1119,2652,18000,1000,1511,25820,8022,80,40,1400,700,8,9206,-90.317727,44.94663,33553,32,7
WI,WI0002,ADAMS COUNTY PUBLIC LIBRARY,"569 N. CEDAR ST., SUITE 1",ADAMS,53910,9800,ADAMS,6083394250,www.scls.lib.wi.us/acl,CO,CO2,18620,1,0,0,1,1,4.1,5.1,298364,848,1200,44978,345390,25652,1061,7711,34424,327787,30575,8370,5402,3104,2440,70000,16280,8981,96655,20642,166,150,3685,3135,13,29000,-89.821605,43.96629,20325,43,6
WI,WI0003,ALBERTSON MEMORIAL LIBRARY,200 N. WATER ST.,ALBANY,53502,329,GREEN,6088623491,www.albanylibrary.org,MJ,CI2,2935,1,0,0,0,0.58,1.3,1.88,68442,450,0,8935,77827,8423,68,3009,11500,77827,16723,0,1081,2969,1716,20762,1800,2456,42557,11208,87,75,1204,1064,6,4034,-89.436874,42.70608,36090,42,2
WI,WI0004,ALGOMA PUBLIC LIBRARY,406 FREMONT ST.,ALGOMA,54201,1399,KEWAUNEE,9204872295,www.nfls.lib.wi.us/alg,CI,CI2,13756,1,0,0,0,3.63,0.6,4.23,242798,4032,609,28596,276035,24582,0,6465,31047,274210,29277,13261,4690,5245,2600,52451,8004,4194,103066,27574,324,263,5887,5367,6,12927,-87.438701,44.60672,20388,32,8
WI,WI0005,ALMA PUBLIC LIBRARY,312 N. MAIN ST.,ALMA,54610,277,BUFFALO,6086853823,-3,CI,CI2,7097,1,0,0,0,1.18,0,1.18,63824,2300,0,2981,69105,9597,0,1902,11499,50391,11506,8396,3794,875,1326,8626,3025,1994,21588,7354,122,100,1120,783,3,1390,-91.915081,44.32096,13741,43,3
WI,WI0006,ALTOONA PUBLIC LIBRARY,1303 LYNN AVE.,ALTOONA,54720,1942,EAU CLAIRE,7158395029,www.altoonapubliclibrary.org,CI,CI2,9609,1,0,0,1.73,2.73,2.25,4.98,382138,470,647,12317,395572,53711,199,15485,69395,378663,39495,4723,7065,5310,3172,68904,3027,5107,120802,45512,155,129,3513,3247,6,8859,-91.432724,44.80644,98286,23,3
WI,WI0007,AMERY PUBLIC LIBRARY,225 SCHOLL CT.,AMERY,54001,1421,POLK,7152689340,-3,CI,CI2,12021,1,0,0,0,3,2.15,5.15,341952,0,3200,31446,376598,59500,0,22549,82049,360535,84000,4723,6005,5739,2288,53200,6010,8475,130242,43414,108,61,4627,3875,6,8019,-92.365044,45.30294,44270,32,7
WI,WI0008,LETTIE W. JENSEN PUBLIC LIBRARY,278 N. MAIN ST.,AMHERST,54406,9101,PORTAGE,7158245510,www.scls.lib.wi.us/amh,CI,CI1,1052,1,0,0,0,0.35,0.38,0.73,25398,450,1200,5838,32886,2414,68,890,3372,32095,21001,0,752,1383,1184,20657,787,2988,18411,10569,60,53,224,168,5,2600,-89.284528,44.45479,68744,42,7
WI,WI0009,ANTIGO PUBLIC LIBRARY,617 CLERMONT ST.,ANTIGO,54409,1943,LANGLADE,7156233724,M,CC,CO1,21680,1,3,0,1,1,9.15,10.15,611640,0,0,34918,646558,60009,2860,26935,89804,590241,64833,8805,6781,4845,5464,124506,16263,13572,178719,57190,250,212,6950,6055,29,31134,-89.154283,45.14086,20165,43,7
WI,WI0010,APPLETON PUBLIC LIBRARY,225 N. ONEIDA ST.,APPLETON,54911,4780,OUTAGAMIE,9208326170,www.apl.org,CI,CI2,113699,1,0,0,13,15,40.11,55.11,4224463,27318,0,114211,4365992,358441,20033,173040,551514,4381485,320744,13261,29288,27097,3420,554125,112603,84005,1485494,556351,1249,997,32624,28139,54,166827,-88.405975,44.26326,174993,13,8
WI,WI0011,ARCADIA FREE PUBLIC LIBRARY,406 E. MAIN ST.,ARCADIA,54612,1322,TREMPEALEAU,6083237505,-3,CI,CI2,5185,1,0,0,0,2,0.13,2.13,147440,3500,0,0,150940,17360,95,2888,20343,138042,17277,8396,4282,1120,2194,16500,537,1280,50299,21181,43,43,1405,1405,4,6039,-91.488847,44.25019,27790,42,3
WI,WI0012,ARGYLE PUBLIC LIBRARY,401 E. MILWAUKEE,ARGYLE,53504,250,LAFAYETTE,6085433113,-3,CI,CI2,954,1,0,0,0,0.5,0,0.5,23227,0,386,740,24353,2085,0,564,2649,20935,4026,0,3760,813,1040,3500,35,511,2574,919,0,0,0,0,5,2000,-89.863902,42.70125,15871,43,3
WI,WI0013,LESTER PUBLIC LIBRARY OF ARPIN,8091 COUNTY ROAD E,ARPIN,54410,36,WOOD,7156522273,www.scls.lib.wi.us/arp,CI,CI2,1265,1,0,0,0,0.33,0.63,0.96,29181,450,1200,0,30831,4350,60,738,5148,29299,14660,0,200,700,1300,4900,200,400,9735,5579,100,50,830,600,2,917,-90.045097,44.53491,73756,42,7
WI,WI0014,VAUGHN PUBLIC LIBRARY,502 W. MAIN ST.,ASHLAND,54806,1584,ASHLAND,7156827060,vpl.coawi.org,CI,CI2,13023,1,0,0,1,1,4.88,5.88,453135,2500,867,29437,485939,54030,0,13824,67854,478038,33470,11545,5196,2733,2821,120877,11948,10094,135712,41028,331,288,4754,4395,8,20556,-90.888329,46.58924,16295,33,7
WI,WI0015,AUGUSTA MEMORIAL PUBLIC LIBRARY,113 N. STONE ST.,AUGUSTA,54722,474,EAU CLAIRE,7152862070,www.augustalibrary.org,CI,CI2,3028,1,0,0,0,0.83,1.35,2.18,85937,5325,650,4102,96014,12114,0,6558,18672,94410,12708,4723,4589,1227,1976,26613,315,1224,35889,12071,96,57,1079,920,5,3074,-91.119871,44.68063,98286,42,3
WI,WI0016,BALDWIN PUBLIC LIBRARY,400 CEDAR ST.,BALDWIN,54002,475,ST. CROIX,7156843813,baldwinlibrary.org,CI,CI2,7398,1,0,0,1,1.75,1.4,3.15,175489,0,648,10806,186943,21000,185,7315,28500,186943,25184,4723,5387,2254,2132,76495,9621,3632,86199,28822,208,176,3365,2917,6,29178,-92.367943,44.95718,82487,32,3
WI,WI0017,BALSAM LAKE PUBLIC LIBRARY,404 MAIN ST.,BALSAM LAKE,54810,340,POLK,7154853215,www.balsamlakepubliclibrary.org,CI,CI2,3117,1,0,0,0,1.05,0,1.05,82699,400,271,1618,84988,8552,0,3250,11802,67649,11055,4723,4480,1098,1768,18266,6650,2114,31058,9061,114,78,1209,933,4,4250,-92.453136,45.44908,44270,42,7
WI,WI0018,BARABOO PUBLIC LIBRARY,230 FOURTH AVE.,BARABOO,53913,2118,SAUK,6083566166,www.baraboopubliclibrary.org,CI,CI2,18787,1,0,0,1.85,2.77,7.85,10.62,751070,525,1200,58227,811022,56545,1891,8831,67267,798636,64967,8370,7322,4524,3016,187795,22606,11351,248266,81896,280,264,6318,5991,14,45019,-89.744881,43.47088,59013,32,2
WI,WI0019,BARNEVELD PUBLIC LIBRARY,107 W. ORBISON ST.,BARNEVELD,53507,92,IOWA,6089243711,www.swls.org/member.ba.html,CI,CI2,2286,1,0,0,0.65,1.45,0.05,1.5,80320,0,386,7730,88436,3890,0,1222,5112,70333,10723,0,4233,1740,2288,6550,3100,1789,13117,5671,97,82,1598,1275,5,1414,-89.89553,43.01481,23604,42,3
WI,WI0020,BARRON PUBLIC LIBRARY,10 N. 3RD ST.,BARRON,54812,1119,BARRON,7155373881,www.barronpubliclibrary.org/,CI,CI2,9066,1,0,0,1,2,2.75,4.75,375801,2496,398,0,378695,54208,1999,7164,63371,346715,36636,4723,5655,2034,2392,70202,11914,11914,84025,30422,88,68,1455,1008,5,5034,-91.854034,45.40161,45590,33,7
WI,WI0021,BAYFIELD CARNEGIE PUBLIC LIBRARY,37 N. BROAD ST.,BAYFIELD,54814,727,BAYFIELD,7157793953,www.bayfieldlibrary.org,CI,CI2,4155,1,0,0,1,2.13,0.18,2.31,111823,2349,776,12400,127348,10500,0,5500,16000,126046,15177,11545,3997,3408,2080,32206,1700,2015,41135,9852,90,65,2100,1600,6,9500,-90.817201,46.81137,14926,43,7
WI,WI0022,BEAVER DAM COMMUNITY LIBRARY,311 N. SPRING ST.,BEAVER DAM,53916,2043,DODGE,9208874631,M,CI,CI2,32472,1,0,0,2,4,9.75,13.75,978996,8733,1250,0,988979,137778,18000,68119,223897,883069,120636,8825,15657,12206,3332,232754,2354,26752,361125,102435,186,147,8952,8520,8,21697,-88.836906,43.45858,87912,32,6
WI,WI0023,BELLEVILLE PUBLIC LIBRARY,130 S. VINE ST.,BELLEVILLE,53508,140,DANE,6084241812,www.scls.lib.wi.us/blv,CI,CI2,2814,1,0,0,0,2.68,0,2.68,240470,956,0,6925,248351,27113,568,8282,35963,227638,28931,8370,5398,3577,2392,21923,17687,2140,73404,11707,70,59,1750,1678,4,5804,-89.53399,42.85843,482705,42,2
WI,WI0024,JOHN TURGESON PUBLIC LIBRARY,220 S. MOUND AVE.,BELMONT,53510,9622,LAFAYETTE,6087625137,-3,CI,CI2,1271,1,0,0,0,0.63,0,0.63,29127,0,386,0,29513,2784,0,795,3579,28350,12712,0,3968,1024,1300,4038,132,351,6793,2800,62,7,900,492,2,1300,-90.333979,42.73614,15871,42,3
WI,WI0025,BELOIT PUBLIC LIBRARY,409 PLEASANT ST.,BELOIT,53511,6272,ROCK,6083642908,www.beloitlibrary.info,CI,CI2,45338,1,0,0,6,6,21,27,1819373,3506,4380,140950,1968209,165826,8205,46879,220910,1968209,118544,0,18981,8741,3156,202232,52818,33287,449562,153553,480,406,21024,16972,15,44436,-89.033592,42.499,160213,23,2
WI,WI0026,BENTON PUBLIC LIBRARY,48 W. MAIN ST.,BENTON,53803,26,LAFAYETTE,6087592665,M,CI,CI2,1138,1,0,0,0,0.63,0,0.63,32744,0,386,547,33677,4104,0,822,4926,32153,9972,0,3936,1256,1088,5550,835,602,8087,3232,14,14,149,117,4,1833,-90.381791,42.56989,15871,42,3
WI,WI0027,BERLIN PUBLIC LIBRARY,121 W. PARK AVE.,BERLIN,54923,1526,GREEN LAKE,9203615420,www.berlinlibrary.org,CI,CI2,6687,1,0,0,0,2,3.7,5.7,343466,0,0,18800,362266,26783,300,11307,38390,362382,49823,11266,7712,6211,3116,120184,4500,7688,126637,39573,125,96,5330,4955,10,9360,-88.947347,43.969,18566,32,6
WI,WI0028,BIG BEND VILLAGE LIBRARY,W230 S9175 NEVINS ST.,BIG BEND,53103,40,WAUKESHA,2626623571,M,CI,CI2,1610,1,0,0,0,1.37,0,1.37,72957,1090,250,0,74297,11500,0,8662,20162,72687,14539,7007,3139,779,1736,7926,295,1262,11996,3382,73,41,937,658,4,4,-88.208692,42.87853,380629,21,1
WI,WI0030,BLACK EARTH PUBLIC LIBRARY,1210 MILLS ST.,BLACK EARTH,53515,347,DANE,6087672400,www.scls.lib.wi.us/ber/index.html,CI,CI2,2375,1,0,0,1,2.03,0.2,2.23,115529,782,0,2733,119044,11936,771,3600,16307,114253,18241,8370,5855,1437,2288,18304,1911,1109,39586,16364,63,57,1196,1086,2,3467,-89.747997,43.138,482705,42,2
WI,WI0031,BLACK RIVER FALLS PUBLIC LIBRARY,222 FILLMORE ST.,BLACK RIVER FALLS,54615,1788,JACKSON,7152844112,blackriverfallslibrary.org,CI,CO2,19340,1,0,0,1.13,1.13,4.43,5.56,251739,6100,0,1500,259339,35556,3144,8761,47461,293767,31239,8396,5380,2630,2808,62400,9360,8868,96280,30775,101,93,2412,2172,20,14085,-90.850006,44.29417,19904,32,3
WI,WI0033,BLANCHARDVILLE PUBLIC LIBRARY,208 MASON ST.,BLANCHARDVILLE,53516,104,LAFAYETTE,6085232055,www.blanchardville.com/Village/library.html,CI,CI2,1866,1,0,0,0,0.73,0.23,0.96,63244,0,386,567,64197,11285,358,1914,13557,61394,11179,0,3975,1541,1352,7506,1400,1045,23204,10407,51,47,575,467,4,1668,-89.90711,42.78757,15871,42,3
WI,WI0035,BLOOMINGTON PUBLIC LIBRARY,453 CANAL ST.,BLOOMINGTON,53804,38,GRANT,6089942531,www.swls.org/member.bt.html,CI,CI2,1015,1,0,0,0,0.4,0,0.4,20466,0,386,0,20852,6011,358,0,6369,20728,8496,0,3675,638,832,3175,305,345,6258,1908,6,6,93,93,2,443,-90.92252,42.88289,49238,42,3
WI,WI0036,HILDEBRAND MEMORIAL LIBRARY,1033 WISCONSIN AVE.,BOSCOBEL,53805,1597,GRANT,6083755723,www.swls.org/member.bw.html,CI,CI2,4629,1,0,0,0,2.25,0.38,2.63,162371,0,386,4850,167607,18939,0,3136,22075,173527,25073,0,4329,1196,2288,29560,4200,4120,30657,11401,59,39,1303,1040,7,6700,-90.705754,43.13309,49238,33,3
WI,WI0037,BOULDER JUNCTION PUBLIC LIBRARY,5386 PARK ST.,BOULDER JUNCTION,54512,9,VILAS,7153852050,boulderjunction.wislib.org,CI,CI2,1397,1,0,0,0,0.73,0.38,1.11,47050,2489,266,15846,65651,6641,0,3734,10375,65456,15927,11545,3129,1816,1560,16281,1500,1635,21311,5940,56,45,1201,742,6,3604,-89.642543,46.10673,21919,43,8
WI,WI0038,BOYCEVILLE PUBLIC LIBRARY,903 MAIN ST.,BOYCEVILLE,54725,129,DUNN,7156432106,www.boycevillelibrary.org,CI,CI2,2930,1,0,0,0,0.9,0.85,1.75,93006,100,0,0,93106,7158,0,3514,10672,87873,8617,4723,4433,1082,1768,11581,2211,1048,28560,9607,53,51,1055,1041,3,7009,-92.039284,45.0445,42688,42,3
WI,WI0039,BRANDON PUBLIC LIBRARY,117 E. MAIN ST.,BRANDON,53919,208,FOND DU LAC,9203462350,www.brandonlibrary.net,CI,CI2,1305,1,0,0,0,0.9,0.1,1,55441,0,0,150,55591,5300,0,2800,8100,55441,9500,11266,3551,1284,1300,10700,235,352,10215,2539,17,14,560,440,4,1200,-88.782428,43.73501,99453,42,6
WI,WI0040,BRILLION PUBLIC LIBRARY,326 N. MAIN ST.,BRILLION,54110,1190,CALUMET,9207563215,www.ci.brillion.wi.us/library_home.html,CI,CI2,8396,1,0,0,0,3.2,0,3.2,202729,0,0,24651,227380,22822,674,5313,28809,227380,31690,13064,6116,3497,2600,98250,15616,3857,69900,24005,377,212,5146,2864,13,20006,-88.064226,44.17928,44727,32,6
WI,WI0041,BRODHEAD MEMORIAL PUBLIC LIBRARY,1207 25TH ST.,BRODHEAD,53520,1308,GREEN,6088974070,www.brodheadlibrary.org,CI,CI2,5947,1,0,0,0,1,3.25,4.25,212833,1095,0,10330,224258,24419,940,7097,32456,199985,38445,8370,6939,3859,2692,28648,8840,1828,70910,24495,35,35,728,728,5,12617,-89.378032,42.6212,36090,32,2
WI,WI0042,BROOKFIELD PUBLIC LIBRARY,1900 N. CALHOUN RD.,BROOKFIELD,53005,5097,WAUKESHA,2627824140,www.brookfieldlibrary.com,CI,CI2,43661,1,0,0,10,10,23.79,33.79,2544296,2607,0,60161,2607064,334991,13335,38300,386626,2590393,155572,8805,16519,8154,3427,313207,97500,37470,706156,295128,671,450,22910,19204,28,29228,-88.126141,43.05632,380629,21,5
WI,WI0043,BROWN DEER PUBLIC LIBRARY,5600 W. BRADLEY ROAD,BROWN DEER,53223,3510,MILWAUKEE,4143570106,M,CI,CI2,11714,1,0,0,3.65,3.65,6.5,10.15,387219,85921,0,114571,587711,64819,0,11000,75819,587711,75781,11942,7099,5009,2600,117391,25000,6833,250126,80040,76,72,1164,1127,8,21948,-87.980933,43.16313,953328,11,5
WI,WI0044,BROWNSVILLE PUBLIC LIBRARY,379 MAIN ST.,BROWNSVILLE,53006,248,DODGE,9205834325,www.brownsville.lib.wi.us,CI,CI2,2684,1,0,0,0,1.13,0.08,1.21,63359,246,1250,16322,81177,7547,0,2606,10153,77106,23200,8825,4065,4093,1236,11388,1256,848,36160,15240,42,28,1068,906,5,2270,-88.485247,43.61638,87912,42,6
WI,WI0045,BURLINGTON PUBLIC LIBRARY,166 E. JEFFERSON ST.,BURLINGTON,53105,1491,RACINE,2627637623,www.burlingtonlibrary.org,CI,CI2,18573,1,0,0,2.35,3.98,8.75,12.73,608535,1461,19204,50238,679438,68800,1198,7730,77728,675875,61556,8805,6431,4028,3380,175383,12535,13203,196061,75173,189,131,3755,2921,6,20875,-88.275927,42.67828,199510,32,1
WI,WI0046,BUTLER PUBLIC LIBRARY,12808 W. HAMPTON AVE.,BUTLER,53007,1705,WAUKESHA,2627832535,M,CI,CI2,1808,1,0,0,0.58,2.08,0,2.08,94503,1132,250,2977,98862,11404,0,652,12056,91571,18254,7007,3142,375,2132,7200,225,745,13158,4386,53,35,600,420,4,2980,-88.072188,43.1048,380629,21,5
WI,WI0047,FOREST LODGE LIBRARY,13450 COUNTY HWY M,CABLE,54821,176,BAYFIELD,7157983189,cable.wislib.org,MJ,CI2,1330,1,0,0,0,0.75,0.65,1.4,77771,2500,800,3457,84528,9590,0,1280,10870,80931,7604,11545,2412,582,2236,9361,975,980,14094,3767,14,9,159,101,3,3145,-91.21295,46.24599,14926,43,7
WI,WI0049,JANE MORGAN MEMORIAL LIBRARY,109 W. EDGEWATER ST.,CAMBRIA,53923,477,COLUMBIA,9203484030,janemorganmemoriallibrary.org,CI,CI2,2054,1,0,0,0,0.6,1.18,1.78,94883,450,1200,4608,101141,10399,135,7356,17890,100877,8172,8370,4109,1241,2340,12324,660,1141,24693,6046,7,3,393,253,3,1664,-89.108203,43.54321,55196,42,2
WI,WI0050,CAMBRIDGE COMMUNITY LIBRARY,200 S. SPRING ST.,CAMBRIDGE,53523,490,DANE,6084233900,www.scls.lib.wi.us/cbr,CI,CI2,2390,1,0,0,0,2.58,0.33,2.91,159153,467,0,10204,169824,18785,540,7329,26654,158125,22607,8371,5429,2184,2704,14485,1923,2555,60398,19659,73,64,1198,1133,6,11300,-89.017054,43.00251,482705,42,2
WI,WI0051,CAMERON PUBLIC LIBRARY,603 MAIN ST.,CAMERON,54822,343,BARRON,7154582267,bclic.org/cameron/index.html,CI,CI2,2168,1,0,0,0,0.75,0.85,1.6,41737,600,0,0,42337,2600,0,600,3200,39326,7067,4723,4246,608,1716,4600,1248,3334,10933,2244,3,2,828,28,4,2162,-91.74145,45.40862,45590,42,7
WI,WI0052,CAMPBELLSPORT PUBLIC LIBRARY,220 N. HELENA,CAMPBELLSPORT,53010,405,FOND DU LAC,9205338534,www.campbellsportlibrary.org,CI,CI2,4829,1,0,0,0,2.03,0.25,2.28,116260,0,0,9489,125749,11028,0,1894,12922,120388,17085,11266,4119,3173,2500,14000,725,2427,48953,14096,124,85,2285,1886,6,3807,-88.276351,43.59929,99453,42,6
WI,WI0053,ECKSTEIN MEMORIAL LIBRARY,1034 E. DEWEY ST.,CASSVILLE,53806,450,GRANT,6087255838,www.cassville.org/cl-library.html,CI,CI2,1966,1,0,0,0,1.38,0,1.38,53720,0,386,36268,90374,11283,358,2287,13928,69592,14463,0,4040,1455,1300,6656,160,822,14085,5260,29,21,632,577,5,1482,-90.985158,42.71253,49238,42,3
WI,WI0054,CEDAR GROVE PUBLIC LIBRARY,131 VAN ALTENA AVE.,CEDAR GROVE,53013,287,SHEBOYGAN,9206686834,www.cedargrove.lib.wi.us,CI,CI2,3091,1,0,0,0,2.5,0.53,3.03,126738,0,669,8278,135685,9433,0,2552,11985,124640,30914,10382,3692,2346,2528,39832,500,3103,49008,15315,159,133,3858,3563,7,5534,-87.823718,43.57114,114561,42,6
WI,WI0055,CEDARBURG PUBLIC LIBRARY,W63N583 HANOVER AVE.,CEDARBURG,53012,1969,OZAUKEE,2623757640,www.cedarburg.lib.wi.us,MJ,CI2,17466,1,0,0,4,5,5.83,10.83,657996,0,669,40109,698774,72056,14623,16567,103246,682088,84895,10382,5793,4581,3376,146341,33878,15223,222901,87626,145,136,4987,4829,14,14603,-87.988936,43.29634,85874,21,5
WI,WI0056,CENTURIA PUBLIC LIBRARY,409 4TH ST.,CENTURIA,54824,370,POLK,7156462630,www.centurialibrary.org,CI,CI2,1338,1,0,0,0,0.83,0,0.83,49689,0,0,1591,51280,7762,0,4138,11900,43100,8458,4723,4457,1434,1350,5695,520,765,13699,3276,5,0,60,0,4,2419,-92.554196,45.45113,44270,43,7
WI,WI0057,CALHOUN MEMORIAL LIBRARY,321 MOORE ST.,CHETEK,54728,25,BARRON,7159243195,www.calhounmemoriallibrary.org,CI,CI2,6481,1,0,0,0,0.75,1.75,2.5,102305,0,0,5020,107325,13318,0,3570,16888,91658,14811,4723,4951,1373,2080,16110,8307,2389,52046,13760,70,52,1135,964,5,2535,-91.652809,45.31541,45590,43,7
WI,WI0058,CHILTON PUBLIC LIBRARY,221 PARK ST.,CHILTON,53014,1433,CALUMET,9208494414,www.chilton.lib.wi.us,CI,CI2,17069,1,0,0,0,3.1,0.63,3.73,196999,0,689,7776,205464,20570,0,4450,25020,196999,50069,13064,6399,3186,2640,88810,12803,4649,92031,26186,124,90,5850,5000,21,19250,-88.158124,44.02899,44727,32,6
WI,WI0059,CHIPPEWA FALLS PUBLIC LIBRARY,105 W. CENTRAL ST.,CHIPPEWA FALLS,54729,2397,CHIPPEWA,7157231146,www.chippewafallslibrary.org,CI,CI2,41576,1,0,0,3,6,8.5,14.5,982790,780,374,625,984569,81400,1000,14032,96432,966717,90897,4723,12459,6097,2682,183677,14857,15370,440474,142099,145,106,2579,2138,20,85599,-91.393911,44.93545,60456,23,7
WI,WI0060,CLEAR LAKE PUBLIC LIBRARY,350 FOURTH AVE.,CLEAR LAKE,54005,365,POLK,7152632802,www.clearlakelibrary.org,CI,CI2,2929,1,0,0,0.88,0.88,1,1.88,98251,0,0,10242,108493,11485,0,7598,19083,104265,12247,4723,5639,2460,1716,17264,1196,1421,47908,15196,136,116,3015,2556,4,3748,-92.27029,45.25021,44270,42,7
WI,WI0061,CLINTON PUBLIC LIBRARY,214 MILL ST.,CLINTON,53525,487,ROCK,6086765569,www.als.lib.wi.us/CPL,CI,CI2,3493,1,0,0,0,1,1.48,2.48,118439,480,1620,1490,122029,12610,2430,2500,17540,122029,26058,0,6386,2013,3000,24964,2811,2443,36684,10792,290,243,2952,2667,7,11123,-88.861343,42.55395,160213,41,1
WI,WI0062,CLINTONVILLE PUBLIC LIBRARY,75 HEMLOCK ST.,CLINTONVILLE,54929,1461,WAUPACA,7158234563,www.clintonvillelibrary.org,CI,CI2,8409,1,0,0,1,1.9,4.98,6.88,374170,10680,1579,22747,409176,43690,0,8717,52407,400322,61825,13261,6720,4875,2626,99092,15028,6514,135590,62048,307,295,7235,7065,12,8559,-88.764862,44.62192,51858,32,8
WI,WI0063,COBB PUBLIC LIBRARY,109 S. MIFFLIN ST.,COBB,53526,249,IOWA,6086232554,www.swls.org/member.co.html,CI,CI2,1278,1,0,0,0,0.6,0.08,0.68,26796,0,386,3737,30919,5428,0,669,6097,32461,6773,0,4020,980,1300,5567,937,323,10000,5487,67,47,1059,914,4,635,-90.35215,42.9669,23604,43,3
WI,WI0064,COLBY PUBLIC LIBRARY,211 W. SPENCE ST.,COLBY,54421,318,CLARK,7152232000,wvls.lib.wi.us/ColbyPL,CI,CI2,3905,1,0,0,0,1,0.8,1.8,90723,0,0,27331,118054,13105,0,2531,15636,118054,18697,8805,5485,1791,2184,32500,3966,1757,58882,17807,173,119,2748,1908,5,6409,-90.316739,44.90957,33553,32,7
WI,WI0065,COLFAX PUBLIC LIBRARY,613 MAIN ST.,COLFAX,54730,525,DUNN,7159624334,www.colfaxpubliclibrary.org,CI,CI2,3309,1,0,0,0,1.43,0.48,1.91,108056,100,618,3873,112647,13028,0,4277,17305,105296,9596,4723,5048,773,1820,11600,180,1302,29574,8800,32,30,548,528,5,1383,-91.727195,44.99976,42688,42,3
WI,WI0066,COLUMBUS PUBLIC LIBRARY,223 W. JAMES ST.,COLUMBUS,53925,1572,COLUMBIA,9206235910,www.columbuspubliclibrary.info,CI,CI2,8478,1,0,0,1,1.7,4.55,6.25,338866,1231,0,9491,349588,50639,1126,7775,59540,317065,39938,8370,6094,3122,3042,77844,3814,4982,104953,45998,111,110,3330,3305,5,21100,-89.016317,43.33941,55196,32,2
WI,WI0067,CORNELL PUBLIC LIBRARY,117 N. THIRD ST.,CORNELL,54732,796,CHIPPEWA,7152393709,www.cornellpl.org,CI,CI2,3491,1,0,0,0,1.23,0.05,1.28,64440,82,0,2820,67342,5566,0,5462,11028,67342,10524,4723,936,1799,1560,18720,2809,1183,36406,3563,10,10,112,112,4,4980,-91.149028,45.16745,60456,42,7
WI,WI0068,CRANDON PUBLIC LIBRARY,"HOBBS BUILDING, 110 W. POLK ST.",CRANDON,54520,1468,FOREST,7154783784,-3,CI,CI2,6261,1,0,0,0,0.88,1.05,1.93,89888,0,0,6021,95909,14322,0,641,14963,95262,14658,8805,4144,1168,2340,11800,236,1019,21403,4281,3,3,143,133,8,7488,-88.903669,45.56749,9846,43,8
WI,WI0069,ROSEMARY GARFOOT PUBLIC LIBRARY,2107 JULIUS ST.,CROSS PLAINS,53528,9499,DANE,6087983881,www.scls.lib.wi.us/csp,CI,CI2,5394,1,0,0,1.7,5.1,0,5.1,288000,1076,0,37028,326104,36563,810,8142,45515,335383,38771,8370,5650,3590,2756,62000,5000,2914,91411,38728,129,98,3631,3331,10,14354,-89.647021,43.11372,482705,31,2
WI,WI0070,CUBA CITY PUBLIC LIBRARY,108 N. MAIN ST.,CUBA CITY,53807,1538,GRANT,6087442613,www.swls.org/member.cu.html,CI,CI2,2995,1,0,0,0,2.38,0.25,2.63,114016,0,386,3709,118111,16579,358,9506,26443,141258,15401,0,4727,1953,2340,23352,8200,1677,34232,18620,100,99,1264,1249,4,2427,-90.430864,42.606,49238,42,3
WI,WI0071,CUDAHY FAMILY LIBRARY,3500 LIBRARY DRIVE,CUDAHY,53110,6107,MILWAUKEE,4147692246,www.cudahyfamilylibrary.org,CI,CI2,18644,1,0,0,3.95,3.95,9.45,13.4,617665,96694,0,99137,813496,54191,5270,35871,95332,804536,94834,11942,13464,15644,2960,187999,24544,13449,345372,96383,472,445,9227,8259,19,4426,-87.862327,42.95714,953328,21,4
WI,WI0072,CUMBERLAND PUBLIC LIBRARY,1305 2ND AVE.,CUMBERLAND,54829,97,BARRON,7158222767,www.bclic.org/cumberland,CI,CI2,5797,1,0,0,0.25,2.25,0.7,2.95,171294,1325,0,0,172619,15278,0,2922,18200,172619,19767,4723,4897,1703,2496,46428,249,4434,51493,18151,72,66,880,790,6,5820,-92.021457,45.53421,45590,43,7
WI,WI0074,DARIEN PUBLIC LIBRARY,47 PARK ST.,DARIEN,53114,490,WALWORTH,2628825155,-3,CI,CI2,2957,1,0,0,0,3.63,0,3.63,100406,0,750,42311,143467,22543,0,1659,24202,131382,17803,8825,4087,1918,2600,26066,3842,1584,20259,10668,189,50,2518,1642,16,6824,-88.707979,42.59909,100749,32,1
WI,WI0075,JOHNSON PUBLIC LIBRARY,131 E. CATHERINE ST.,DARLINGTON,53530,1359,LAFAYETTE,6087764171,www.swls.org/darlingtonlibrary,CI,CI2,8257,1,0,0,1.13,1.73,1.93,3.66,159593,0,764,13129,173486,12046,550,7506,20102,162146,32354,0,4970,2862,2184,32240,8272,2941,46684,22153,356,329,5569,5204,13,7593,-90.117291,42.6819,15871,43,3
WI,WI0076,DEER PARK PUBLIC LIBRARY,112 FRONT ST. W.,DEER PARK,54007,9711,ST. CROIX,7152695464,deerparkwi.org/library,CI,CI2,1141,1,0,0,0,0.63,0.45,1.08,31627,0,0,2082,33709,2022,0,610,2632,33240,10009,4723,4526,1171,884,4004,99,522,15154,8478,4,3,792,714,4,1040,-92.38581,45.18,82487,42,3
WI,WI0077,DEERFIELD PUBLIC LIBRARY,12 W. NELSON ST.,DEERFIELD,53531,408,DANE,6087648102,www.scls.lib.wi.us/deerfield,CI,CI2,3761,1,0,0,0.63,2.53,0.2,2.73,159398,450,1200,13647,174695,20007,2691,5374,28072,175860,19456,8371,5734,2421,2288,22794,3026,1886,59210,22499,148,103,2613,2223,7,7466,-89.075972,43.0543,482705,42,2
WI,WI0078,DEFOREST AREA PUBLIC LIBRARY,203 LIBRARY ST.,DEFOREST,53532,1173,DANE,6088465482,www.deforest.lib.wi.us,CI,CI2,16721,1,0,0,1,8.02,4.73,12.75,618204,1375,0,76352,695931,45270,8780,26624,80674,700020,65821,8370,10169,10212,3202,221668,43187,7974,381715,182841,960,846,19374,15476,14,52742,-89.342368,43.24756,482705,31,2
WI,WI0079,DELAFIELD PUBLIC LIBRARY,500 GENESEE ST.,DELAFIELD,53018,1895,WAUKESHA,2626466230,www.delafieldlibrary.org,CI,CI2,17062,1,0,0,2.45,3.35,4.6,7.95,567072,1472,350,32017,600911,49403,1523,20774,71700,577964,52036,7007,6198,2923,2912,85779,14917,9230,184317,84787,197,153,4090,3801,7,5284,-88.404186,43.05927,380629,21,5
WI,WI0080,ARAM PUBLIC LIBRARY,404 E. WALWORTH AVE.,DELAVAN,53115,1208,WALWORTH,2627283111,www.delavan.lib.wi.us,CI,CI2,16776,1,0,0,2,2,5.5,7.5,479616,663,1650,11626,493555,61833,1329,20592,83754,507263,45982,8825,6347,3858,2980,207870,30750,7462,122717,32030,233,218,8044,7876,14,21718,-88.642229,42.63301,100749,32,1
WI,WI0081,DE SOTO PUBLIC LIBRARY,111 S. HOUGHTON ST.,DE SOTO,54624,187,VERNON,6086483593,www.mwt.net/~despl,CI,CI2,783,1,0,0,0,0.5,0,0.5,22733,2100,0,204,25037,6581,0,1470,8051,25632,13250,8396,3662,1124,1040,3163,350,1048,7090,1509,8,6,130,115,3,1152,-91.198663,43.42358,29090,42,3
WI,WI0085,DRUMMOND PUBLIC LIBRARY,14990 SUPERIOR ST.,DRUMMOND,54832,23,BAYFIELD,7157396290,M,CI,CI2,980,1,0,0,0,0.83,0.1,0.93,52660,2500,0,2091,57251,6181,0,1015,7196,57251,8820,11545,2544,1288,1508,6119,719,859,11794,3252,10,7,199,144,5,1869,-91.253888,46.33683,14926,43,7
WI,WI0086,DURAND COMMUNITY LIBRARY,604 7TH AVE. E.,DURAND,54736,1365,PEPIN,7156728730,www.cityofdurand.com/city/library.html,CI,CI2,4514,1,0,0,0,1.75,0,1.75,111043,0,650,1000,112693,14000,0,2112,16112,112693,51994,0,1985,2100,2952,33555,2995,2490,32768,3282,16,14,650,475,6,3945,-91.958515,44.63068,7357,42,3
WI,WI0087,ALICE BAKER MEMORIAL PUBLIC LIBRARY,820 E. MAIN ST.,EAGLE,53119,520,WAUKESHA,2625942800,M,MJ,CI2,5917,1,0,0,1,3.25,1.73,4.98,226518,986,250,11046,238800,25582,1148,8421,35151,247149,29499,7012,4497,2965,2898,51700,5200,4344,59580,26042,196,109,4030,2397,5,3200,-88.460637,42.87893,380629,41,1
WI,WI0088,WALTER E. OLSON MEMORIAL LIBRARY,203 N. MAIN ST.,EAGLE RIVER,54521,69,VILAS,7154798070,olson.wislib.org,MJ,CI2,10703,1,0,0,0,1,3.33,4.33,168803,2500,893,33034,205230,26481,297,4514,31292,240501,40934,11545,4604,2162,2652,46000,2000,7194,60883,11569,245,130,3610,2280,6,28372,-89.250687,45.91762,21919,43,8
WI,WI0089,EAST TROY LIONS PUBLIC LIBRARY,3094 GRAYDON AVE.,EAST TROY,53120,1110,WALWORTH,2626426262,www.easttroy.lib.wi.us,CI,CI2,8384,1,0,0,0,3.43,0.35,3.78,198142,0,1594,13095,212831,24150,800,10950,35900,203886,20908,8825,5715,2118,2392,43560,1676,3325,43822,16155,234,145,3392,2502,5,7703,-88.41836,42.78651,100749,32,1
WI,WI0090,L.E. PHILLIPS MEMORIAL PUBLIC LIBRARY,400 EAU CLAIRE ST.,EAU CLAIRE,54701,3799,EAU CLAIRE,7158395001,www.ecpubliclibrary.info,CI,CI2,83721,1,0,0,10,10,39.11,49.11,3443573,46770,535,183529,3674407,297278,49556,64879,411713,3570162,244077,4723,26652,27007,3216,371063,59742,46288,1127390,394117,482,391,22478,18868,31,137573,-91.499309,44.81261,98286,13,3
WI,WI0091,EDGERTON PUBLIC LIBRARY,101 ALBION ST.,EDGERTON,53534,1836,ROCK,6088844511,als.lib.wi.us/EPL,CI,CI2,7760,1,0,0,0,1,3.65,4.65,290551,0,1620,31422,323593,24126,200,8966,33292,323593,33509,0,6608,2114,2769,48929,1087,7231,100077,41038,148,119,4412,3574,12,19286,-89.071945,42.83588,160213,31,2
WI,WI0092,ELKHART LAKE PUBLIC LIBRARY,40 PINE ST.,ELKHART LAKE,53020,367,SHEBOYGAN,9208762554,-3,CI,CI2,3433,1,0,0,0,0.6,1.3,1.9,107929,0,1038,5877,114844,11400,0,2622,14022,107929,19685,10382,3156,2750,2225,10920,3640,2007,31186,13026,56,55,1442,1422,4,2379,-88.017317,43.83435,114561,42,6
WI,WI0093,MATHESON MEMORIAL LIBRARY,101 N. WISCONSIN ST.,ELKHORN,53121,1311,WALWORTH,2627232678,www.elkhorn.lib.wi.us,CI,CI2,21065,1,0,0,2.75,4.55,4.07,8.62,566354,0,750,96108,663212,41104,0,10816,51920,626265,63464,8805,6223,4935,2964,224864,24128,10582,159635,57900,257,202,3654,3377,12,20851,-88.543533,42.67384,100749,32,1
WI,WI0094,ELLSWORTH PUBLIC LIBRARY,312 W. MAIN ST.,ELLSWORTH,54011,5094,PIERCE,7152733209,www.ellsworthlibrary.org,CI,CI2,6994,1,0,0,0,1.38,2.33,3.71,185752,0,0,8428,194180,9258,0,2692,11950,175694,18149,4723,5702,3522,2496,49097,4400,4997,86813,27358,141,69,2056,1330,4,7408,-92.482155,44.73209,40254,42,3
WI,WI0095,ELM GROVE PUBLIC LIBRARY,13600 JUNEAU BLVD.,ELM GROVE,53122,1654,WAUKESHA,2627826717,www.elmgrovelibrary.org,CI,CI2,6300,1,0,0,3.73,3.73,2.9,6.63,437233,1361,350,44534,483478,45479,963,30718,77160,483697,45124,7007,7426,4331,2912,93144,6866,4907,111322,22264,120,112,3376,3213,5,7060,-88.081219,43.0456,380629,21,5
WI,WI0096,ELMWOOD PUBLIC LIBRARY,111 N. MAIN ST,ELMWOOD,54740,55,PIERCE,7156392615,www.elmwoodlibrary.org,CI,CI2,1239,1,0,0,0,0.88,0.45,1.33,56609,0,0,7784,64393,6166,0,2611,8777,52328,12339,4723,4372,826,1820,4785,909,723,21852,5421,37,34,319,294,4,1833,-92.151461,44.7796,40254,43,3
WI,WI0097,ELROY PUBLIC LIBRARY,501 SECOND MAIN ST.,ELROY,53929,1255,JUNEAU,6084622407,www.elroywi.com/library.htm,CI,CI2,2656,1,0,0,0,1,0.93,1.93,127220,2500,0,5828,135548,10629,200,6731,17560,109992,17038,8396,4702,2559,2392,33365,804,1740,29166,9921,136,76,4023,2853,7,4984,-90.271942,43.73949,26633,42,3
WI,WI0098,ENDEAVOR PUBLIC LIBRARY,400 CHURCH ST.,ENDEAVOR,53930,80,MARQUETTE,6085872902,www.endeavorlibrary.org,CI,CI2,1136,1,0,0,0,0.9,0,0.9,35176,0,0,0,35176,1939,0,1202,3141,35827,7303,11266,3870,1971,1664,7752,1600,667,12547,3185,28,16,501,414,3,1416,-89.46578,43.70974,15060,42,6
WI,WI0099,EAGER FREE PUBLIC LIBRARY,39 W. MAIN ST.,EVANSVILLE,53536,2122,ROCK,6088822260,www.als.lib.wi.us/EFPL,CI,CI2,8120,1,0,0,1,4.38,0,4.38,231740,1131,0,13886,246757,31038,0,3623,34661,247168,33736,0,8141,3762,2808,57000,6950,7227,87270,36305,222,160,3120,2700,5,9600,-89.300101,42.78031,160213,31,2
WI,WI0100,FAIRCHILD PUBLIC LIBRARY,208 HURON ST.,FAIRCHILD,54741,149,EAU CLAIRE,7153344007,-3,MJ,CI2,903,1,0,0,0,0.65,0,0.65,13397,0,334,552,14283,2804,0,0,2804,15494,10619,0,135,532,1274,3970,96,394,4764,2222,9,9,175,175,2,1332,-90.965331,44.60045,98286,42,3
WI,WI0101,FALL CREEK PUBLIC LIBRARY,122 E. LINCOLN AVE.,FALL CREEK,54742,426,EAU CLAIRE,7158773334,www.fallcreekpubliclibrary.org,CI,CI2,3043,1,0,0,0,0.63,0.55,1.18,76866,0,647,9849,87362,14113,0,2911,17024,80334,14829,4723,4640,1333,1924,13260,156,1226,28956,9167,29,16,686,391,5,480,-91.276571,44.76347,98286,42,3
WI,WI0102,DWIGHT T. PARKER PUBLIC LIBRARY,925 LINCOLN AVE.,FENNIMORE,53809,1743,GRANT,6088226294,M,CI,CI2,7792,1,0,0,0,2,0.53,2.53,152139,0,0,27694,179833,26090,0,11818,37908,149017,27818,0,2863,4617,2392,23196,75,2400,90133,42600,81,81,1718,1718,5,2959,-90.655607,42.98245,49238,42,3
WI,WI0103,FOND DU LAC PUBLIC LIBRARY,32 SHEBOYGAN ST.,FOND DU LAC,54935,4271,FOND DU LAC,9209297080,www.FDLPL.org,CI,CI2,72533,1,0,1,10.13,10.13,21.35,31.48,2370432,0,0,234792,2605224,211155,27000,94034,332189,2641038,182775,1266,15800,14797,3244,357837,32126,48693,799490,336461,414,335,14546,12452,40,78268,-88.445673,43.77782,99453,13,6
WI,WI0104,FONTANA PUBLIC LIBRARY,166 2ND AVE.,FONTANA,53125,437,WALWORTH,2622755107,www.villageoffontana.com/library.html,CI,CI2,3887,1,0,0,1,3.33,0.15,3.48,273991,0,750,14015,288756,33690,0,10980,44670,262365,34650,8805,6300,4333,2444,45452,5025,2121,49540,16199,125,46,3157,1425,8,9578,-88.577991,42.5506,100749,32,1
WI,WI0105,DWIGHT FOSTER PUBLIC LIBRARY,102 E. MILWAUKEE AVE.,FORT ATKINSON,53538,2049,JEFFERSON,9205637790,www.fortlibrary.org,CI,CI2,19507,1,0,0,2,3,6.85,9.85,582965,132,4800,4789,592686,61418,3227,14822,79467,590111,75482,8825,8796,5766,3115,192744,7200,15385,196677,71854,209,156,6872,6190,14,28074,-88.83499,42.9268,80792,32,2
WI,WI0106,FOX LAKE PUBLIC LIBRARY,117 W. STATE ST.,FOX LAKE,53933,47,DODGE,9209283223,www.foxlake.lib.wi.us/,CI,CI2,2803,1,0,0,1,2.1,0.25,2.35,120829,450,1250,10808,133337,17000,0,14294,31294,133337,13520,8825,4221,1533,2392,17963,2256,1123,25337,5265,88,12,2332,725,6,8000,-88.906889,43.56598,87912,42,6
WI,WI0107,FRANKLIN PUBLIC LIBRARY,9151 W. LOOMIS RD.,FRANKLIN,53132,9601,MILWAUKEE,4144258214,www.mcfls.org/franklin,CI,CI2,33560,1,0,0,6.37,7.37,9.75,17.12,1224000,75812,0,20127,1319939,80000,0,13000,93000,1012543,99948,11942,12425,11952,2952,185000,35250,24085,490843,197809,388,340,15611,13486,45,50315,-88.028905,42.9006,953328,21,1
WI,WI0108,FREDERIC PUBLIC LIBRARY,127 OAK ST. W.,FREDERIC,54837,700,POLK,7153274979,www.fredericlibrary.org,CI,CI2,4450,1,0,0,0,1.85,0.83,2.68,131772,0,497,30667,162936,14244,0,5935,20179,143475,14801,4723,5479,1892,2236,46220,4152,2635,78057,22366,116,94,2477,2366,7,8100,-92.465265,45.65926,44270,43,7
WI,WI0109,NEUSCHAFER COMMUNITY LIBRARY,317 WOLF RIVER DRIVE,FREMONT,54940,498,WAUPACA,9204462474,www.owls.lib.wi.us/fpl,CI,CI2,2040,1,0,0,0,1.28,0.93,2.21,77402,0,498,11700,89600,13000,1500,6808,21308,89600,16978,13261,4376,3625,1724,13200,4600,1035,47254,19113,112,102,2470,2230,4,5600,-88.864669,44.25993,51858,42,8
WI,WI0110,GALESVILLE PUBLIC LIBRARY,16787 S. MAIN ST.,GALESVILLE,54630,697,TREMPEALEAU,6085822552,www.wrlsweb.org/memgalesville.htm,CI,CI2,4224,1,0,0,0.4,1.88,0.53,2.41,92965,2500,900,932,97297,7799,0,2127,9926,106121,16025,8396,4177,1156,2132,25600,1868,1926,35147,12263,49,41,1013,927,5,5592,-91.349057,44.08221,27790,42,3
WI,WI0111,GAYS MILLS PUBLIC LIBRARY,205 MAIN ST.,GAYS MILLS,54631,215,CRAWFORD,6087354331,www.mwt.net/~gmbooks,CI,CI2,2165,1,0,0,0,0.8,0,0.8,36277,0,386,5029,41692,4082,0,10927,15009,45736,6881,0,4183,1562,1326,4394,1588,717,11016,2643,27,20,277,142,4,1340,-90.844927,43.31728,16885,43,3
WI,WI0112,GENOA CITY PUBLIC LIBRARY,126 FREEMAN ST.,GENOA CITY,53128,727,WALWORTH,2622796188,-3,CI,CI2,4803,1,0,0,0,1.98,0.05,2.03,88377,0,750,3500,92627,12254,0,5817,18071,94704,17771,8805,4192,1277,2080,21000,6400,2906,35074,14943,87,85,1415,1350,5,5000,-88.329829,42.49625,100749,31,1
WI,WI0113,GERMANTOWN COMMUNITY LIBRARY,N112W16957 MEQUON RD.,GERMANTOWN,53022,670,WASHINGTON,2622537760,www.germantownlibrarywi.org,CI,CI2,31690,1,0,0,3.55,4.55,7.92,12.47,854506,0,500,27000,882006,119073,12500,45200,176773,889412,109379,8825,14480,6425,3056,225000,5000,26339,304856,152743,130,127,6127,6007,26,10431,-88.119885,43.22078,129477,21,5
WI,WI0115,WESTERN TAYLOR COUNTY PUBLIC LIBRARY,380 E. MAIN ST.,GILMAN,54433,87,TAYLOR,7154475486,wvls.lib.wi.us/WestTaylorCoPL,CI,CI2,1303,1,0,0,0,0.8,0,0.8,46791,0,0,0,46791,3616,0,604,4220,45756,6484,8805,3754,1052,1560,5500,956,787,9243,1792,3,3,177,175,6,3269,-90.809398,45.1664,19308,43,7
WI,WI0116,NORTH SHORE LIBRARY,6800 N. PORT WASHINGTON RD.,GLENDALE,53217,3920,MILWAUKEE,4143513461,www.mcfls.org/northshorelibrary,MJ,CI2,25637,1,0,0,5,5,10.85,15.85,817257,0,0,56184,873441,80817,1900,14103,96820,886154,124086,11942,7460,9442,3072,268952,79018,15024,368153,152783,148,134,2830,2523,21,39290,-87.912809,43.14057,953328,21,5
WI,WI0117,GLENWOOD CITY PUBLIC LIBRARY,127 PINE ST.,GLENWOOD CITY,54013,247,ST. CROIX,7152657443,www.glenwoodcitylibrary.org,CI,CI2,2745,1,0,0,0,1,0.93,1.93,106678,0,19,2214,108911,10119,0,6989,17108,109674,8695,4723,4306,983,2080,10700,936,1431,30386,10233,45,36,918,875,4,3409,-92.171889,45.05773,82487,43,3
WI,WI0120,GRANTSBURG PUBLIC LIBRARY,415 S. ROBERT ST.,GRANTSBURG,54840,7951,BURNETT,7154632244,nwls.wislib.org/about/libgr.htm,CI,CI2,9770,1,0,0,0,0.63,1.2,1.83,96874,2500,394,1000,100768,6302,0,4825,11127,105477,15810,11545,2761,2022,1686,74512,9788,3315,37640,11982,117,116,1084,1024,6,6438,-92.679164,45.77626,16196,43,7
WI,WI0121,BROWN COUNTY LIBRARY,515 PINE ST.,GREEN BAY,54301,5194,BROWN,9204484400,www.co.brown.wi.us/library,CO,CO2,244017,1,8,1,9.46,21.68,61.86,83.54,6127390,173468,2381,454118,6757357,545356,62011,128695,736062,6784239,459573,13261,33261,28767,22469,1335750,313295,174211,2292749,863709,2934,2698,121256,116444,123,204139,-88.010221,44.51457,245018,12,8
WI,WI0122,CAESTECKER PUBLIC LIBRARY,518 HILL ST.,GREEN LAKE,54941,278,GREEN LAKE,9202943572,www.greenlakelibrary.org,MJ,CI2,4438,1,0,0,1,2.35,0.7,3.05,152573,0,0,21223,173796,32041,0,9443,41484,163734,21881,11266,4820,4357,2668,83000,8000,3380,70228,23361,179,151,3131,2501,13,12500,-88.958696,43.84515,18566,42,6
WI,WI0123,GREENDALE PUBLIC LIBRARY,5647 BROAD ST.,GREENDALE,53129,1887,MILWAUKEE,4144232136,M,CI,CI2,13995,1,0,0,3,4,3.89,7.89,479459,11855,0,332,491646,58877,0,0,58877,479459,63128,11942,4071,6736,2922,153338,9191,8469,203749,61971,109,104,2806,2713,13,7162,-87.996027,42.94153,953328,21,1
WI,WI0124,GREENFIELD PUBLIC LIBRARY,7215 W. COLD SPRING ROAD,GREENFIELD,53220,2963,MILWAUKEE,4143219595,www.greenfieldlibrary.org,CI,CI2,36395,1,0,0,4,4,9.35,13.35,680508,0,0,110793,791301,57731,13689,21298,92718,820284,86087,11942,12270,10028,3164,164740,20158,20101,324698,88643,168,141,4130,3902,10,31640,-88.003714,42.96651,953328,21,1
WI,WI0125,GREENWOOD PUBLIC LIBRARY,102 N. MAIN ST.,GREENWOOD,54437,100,CLARK,7152677103,wvls.lib.wi.us/GreenwoodPl,CI,CI2,4228,1,0,0,0,1.93,0,1.93,110881,0,836,3812,115529,18000,200,2713,20913,115720,21484,8805,4134,1705,2080,18720,2184,1341,34301,10356,9,6,194,140,5,4500,-90.598124,44.76715,33553,43,3
WI,WI0126,HALES CORNERS PUBLIC LIBRARY,5885 S. 116TH ST.,HALES CORNERS,53130,1707,MILWAUKEE,4145296150,www.mcfls.org/halescorners,CI,CI2,7657,1,0,0,3,6.95,3.43,10.38,449362,58499,1500,12385,521746,48944,3806,6853,59603,540607,38971,11942,6697,3962,3029,97279,3872,4511,161441,69904,270,187,6392,5306,12,13623,-88.058347,42.93789,953328,21,1
WI,WI0127,HAMMOND COMMUNITY LIBRARY,850 DAVIS ST.,HAMMOND,54015,120,ST. CROIX,7157962281,www.hammondpubliclibrary.org,CI,CI2,4294,1,0,0,0,1.63,0.38,2.01,134351,0,359,10562,145272,25279,0,27701,52980,145272,25132,4723,5054,3068,2496,35000,7500,1318,65703,28048,124,97,2454,2046,4,7700,-92.436059,44.97578,82487,32,3
WI,WI0128,HANCOCK PUBLIC LIBRARY,114 S. MAIN ST.,HANCOCK,54943,217,WAUSHARA,7152495817,www.hancocklibrary.org,CI,CI2,1286,1,0,0,0,0.98,0.05,1.03,34034,0,0,13497,47531,5400,0,2100,7500,44045,7918,11266,3772,2723,1508,7000,750,596,17760,3347,11,9,104,69,6,2871,-89.523413,44.13335,24760,43,6
WI,WI0129,HARTFORD PUBLIC LIBRARY,115 N. MAIN ST.,HARTFORD,53027,1596,WASHINGTON,2626738240,www.hartfordlibrary.org,CI,CI2,20252,1,0,0,2,2,6.5,8.5,768684,1859,1250,70813,842606,97497,2860,24671,125028,724618,106776,8825,11041,4844,3285,125000,24369,20560,170724,72882,61,56,3211,3014,6,12203,-88.378942,43.31882,129477,32,5
WI,WI0130,HARTLAND PUBLIC LIBRARY,110 E. PARK AVE.,HARTLAND,53029,2130,WAUKESHA,2623673350,www.hartlandlibrary.org,CI,CI2,13845,1,0,0,3.63,4.63,5.45,10.08,658347,1505,350,6607,666809,68573,1887,36591,107051,664063,59984,7007,7123,4574,3012,166431,11192,8578,219123,86684,277,222,4028,3166,12,11461,-88.346343,43.10251,380629,21,5
WI,WI0132,SHERMAN AND RUTH WEISS COMMUNITY LIBRARY,10788 STATE HIGHWAY 27/77,HAYWARD,54843,917,SAWYER,7156342161,www.weisscommunitylibrary.com,CI,CI2,13492,1,0,0,0,1.75,3.05,4.8,160060,2925,60,128813,291858,15909,0,2284,18193,279771,30441,11545,4001,3101,2392,67557,6225,7936,107578,24173,73,67,766,615,11,13469,-91.388772,46.04538,17117,43,7
WI,WI0133,HAZEL GREEN PUBLIC LIBRARY,1610 FAIRPLAY,HAZEL GREEN,53811,367,GRANT,6088542952,-3,CI,CI2,1907,1,0,0,0,0.75,0,0.75,48719,0,0,733,49452,3503,0,1714,5217,36149,6893,0,3615,1299,1560,11600,208,984,14254,7928,21,10,671,485,6,2213,-90.434709,42.53294,49238,42,3
WI,WI0134,HILLSBORO PUBLIC LIBRARY,819 HIGH AVE.,HILLSBORO,54634,468,VERNON,6084892192,-3,CI,CI2,4598,1,0,0,0,1.65,0.1,1.75,123567,2500,900,3887,130854,22936,0,2519,25455,130854,28778,8396,5094,5418,1716,8845,12160,1399,56704,19766,26,14,685,375,2,2849,-90.341447,43.6522,29090,43,3
WI,WI0135,HORICON PUBLIC LIBRARY,404 E. LAKE ST.,HORICON,53032,1245,DODGE,9204853535,www.horicon.lib.wi.us,CI,CI2,5732,1,0,0,1,2.05,1.68,3.73,218239,0,1250,15183,234672,22049,0,9011,31060,213657,31482,8825,6536,3041,2444,41546,7347,2416,61509,21069,258,165,3063,2150,9,8489,-88.632865,43.45156,87912,41,6
WI,WI0136,HORTONVILLE PUBLIC LIBRARY,102 W. MAIN ST.,HORTONVILLE,54944,9999,OUTAGAMIE,9207794279,www.owls.lib.wi.us/hpl,CI,CI2,9022,1,0,0,0,1,1.75,2.75,116338,0,0,0,116338,5488,0,215,5703,113290,20438,13261,4628,2898,2402,34680,6375,3491,81809,35528,180,180,3837,3837,2,3948,-88.638506,44.33474,174993,41,8
WI,WI0137,HUDSON AREA JOINT LIBRARY,911 FOURTH ST.,HUDSON,54016,1682,ST. CROIX,7153863101,www.hudsonpubliclibrary.org,MJ,CI2,30833,1,0,0,2,3,6.79,9.79,649954,1197,0,37195,688346,69162,0,27971,97133,680902,56286,4723,6938,3938,2884,95081,32945,13830,323964,149240,376,364,13440,13348,8,18895,-92.754051,44.97942,82487,31,3
WI,WI0138,HURLEY PUBLIC LIBRARY,405 5TH AVE. N.,HURLEY,54534,1178,IRON,7155615707,-3,CI,CI2,4785,1,0,0,0,1,0.5,1.5,57915,2923,470,31400,92708,16535,0,1400,17935,92859,10150,11545,2690,531,2080,11450,4850,1203,17977,3853,21,20,538,520,5,4680,-90.186258,46.4531,6197,33,7
WI,WI0140,INDEPENDENCE PUBLIC LIBRARY,23688 ADAMS ST.,INDEPENDENCE,54747,99,TREMPEALEAU,7159853616,www.wrlsweb.org/independence,CI,CI2,1632,1,0,0,0,1,0.55,1.55,66438,2500,0,878,69816,12888,125,2121,15134,69816,13347,8396,3905,1512,1924,12700,500,0,9415,3552,9,4,645,476,3,3100,-91.426915,44.35734,27790,43,3
WI,WI0141,IOLA VILLAGE LIBRARY,180 S. MAIN ST.,IOLA,54945,336,WAUPACA,7154454330,www.owls.lib.wi.us/ivl,CI,CI2,3997,1,0,0,0,2.6,0.5,3.1,176272,0,0,7898,184170,17149,0,10312,27461,171399,17702,13261,4687,3015,2640,50891,2765,2383,62878,16982,59,50,821,704,6,10275,-89.130899,44.50592,51858,42,8
WI,WI0142,HEDBERG PUBLIC LIBRARY,316 S. MAIN ST.,JANESVILLE,53545,3971,ROCK,6087586600,www.hedbergpubliclibrary.org,CI,CI2,83800,1,0,0,10.5,10.5,38.65,49.15,3435892,130575,12623,226400,3805490,304630,66550,118382,489562,3725270,221893,0,35189,20768,3744,625882,41930,61812,1176691,402929,912,561,28447,25099,69,130045,-89.018445,42.67925,160213,13,1
WI,WI0143,JEFFERSON PUBLIC LIBRARY,321 S. MAIN ST.,JEFFERSON,53549,1772,JEFFERSON,9206747733,www.jefferson.lib.wi.us,CI,CI2,12450,1,0,0,1.68,2.68,4.68,7.36,433270,910,1250,8723,444153,25542,0,11835,37377,449467,53827,8825,4785,2607,2848,40317,4703,7029,97641,34846,96,96,4097,4097,5,9476,-88.807341,43.00319,80792,32,2
WI,WI0144,JOHNSON CREEK PUBLIC LIBRARY,125 LINCOLN ST.,JOHNSON CREEK,53038,130,JEFFERSON,9206993741,www.johnsoncreeklibrary.org,CI,CI2,4898,1,0,0,0,1,2.45,3.45,196279,589,1250,14457,212575,15231,0,7706,22937,206629,22954,8825,4607,2153,2596,25330,6278,2615,56386,32005,184,156,2739,2587,5,3762,-88.77591,43.07841,80792,42,5
WI,WI0145,JUNEAU PUBLIC LIBRARY,250 N. FAIRFIELD AVE.,JUNEAU,53039,1157,DODGE,9203864805,www.juneau.lib.wi.us,CI,CI2,4329,1,0,0,0,1,2.53,3.53,234088,1168,1250,10818,247324,45233,0,7964,53197,238925,40189,8825,4776,2639,2237,68950,4260,1520,38964,13388,46,42,1037,970,4,3497,-88.708892,43.41135,87912,42,6
WI,WI0146,KAUKAUNA PUBLIC LIBRARY,111 MAIN AVE.,KAUKAUNA,54130,2436,OUTAGAMIE,9207666340,www.kaukaunalibrary.org,CI,CI2,19574,1,0,0,1.9,3.78,5.6,9.38,688726,0,0,0,688726,68775,1913,27423,98111,687347,63509,13261,7693,3151,2884,145851,12285,12456,224071,104754,261,232,8274,4568,8,13960,-88.269594,44.27987,174993,22,8
WI,WI0147,KENDALL PUBLIC LIBRARY,110 E. SOUTH RAILROAD ST.,KENDALL,54638,126,MONROE,6084637103,www.wrlsweb.org/memkendall.htm,CI,CI2,1199,1,0,0,0,0.55,0,0.55,30529,2100,0,1745,34374,4759,0,682,5441,22958,14219,8396,3892,1033,1092,3450,475,664,8373,3181,26,15,244,51,4,3225,-90.368313,43.79247,43350,43,3
WI,WI0148,KENOSHA PUBLIC LIBRARY,812 56TH ST.,KENOSHA,53141,1414,KENOSHA,2625646324,www.kenosha.lib.wi.us,CI,CO2,130987,0,4,1,20.2,20.2,68.2,88.4,5813337,357769,31897,227976,6430979,405954,60271,119161,585386,6402526,357397,8825,28924,22731,13680,846285,178693,93943,1157686,415793,964,883,27851,25467,109,325205,-87.82125,42.58477,164465,22,1
WI,WI0149,MENOMINEE TRIBAL/COUNTY LIBRARY,W2760 CHIEF LITTLE WAVE RD.,KESHENA,54135,1090,MENOMINEE,7157995212,www.nfls.lib.wi.us/kes,NL,CO1,4630,1,0,0,0,2,0,2,172600,1011,5000,0,178611,5175,0,3450,8625,178611,8426,13261,3431,1637,2206,14500,700,2055,1910,394,12,10,140,121,8,10798,-88.625835,44.8736,4571,42,8
WI,WI0150,KEWASKUM PUBLIC LIBRARY,206 FIRST ST.,KEWASKUM,53040,38,WASHINGTON,2626264312,www.kewaskum.lib.wi.us,CI,CI2,7053,1,0,0,0,1,1.88,2.88,167944,897,500,17529,186870,20789,0,5904,26693,176403,25226,8825,4741,2490,2512,15000,4000,3608,68770,29185,24,14,798,578,5,4200,-88.227288,43.52184,129477,32,5
WI,WI0151,KEWAUNEE PUBLIC LIBRARY,822 JUNEAU ST.,KEWAUNEE,54216,1200,KEWAUNEE,9203885015,www.nfls.lib.wi.us/kew,CI,CI2,7602,1,0,0,0,4.2,0.25,4.45,216449,2157,0,6318,224924,32784,0,10609,43393,216869,29832,13261,5297,3315,2704,54771,9702,3053,53534,14322,193,135,2200,1734,8,11368,-87.5059,44.45379,20388,42,8
WI,WI0152,KIEL PUBLIC LIBRARY,511 THIRD ST.,KIEL,53042,1408,MANITOWOC,9208947122,www.kiel.lib.wi.us,CI,CI2,7843,1,0,0,1,1,3.48,4.48,261269,110,837,2569,264785,29844,0,3542,33386,264785,36467,13064,4887,2507,2440,40017,7857,4177,79984,32413,199,174,7326,6928,7,10738,-88.032527,43.9116,80641,32,6
WI,WI0153,KIMBERLY--LITTLE CHUTE PUBLIC LIBRARY,515 W. KIMBERLY AVE.,KIMBERLY,54136,1335,OUTAGAMIE,9207887515,www.kimlit.org,MJ,CI2,26808,0,2,0,1,2,9.85,11.85,688404,0,0,22779,711183,61491,1979,30625,94095,716032,104034,13261,7994,6934,5564,131424,17337,13552,301443,125625,230,201,5787,5458,12,15796,-88.340225,44.27201,174993,22,6
WI,WI0154,MILL POND PUBLIC LIBRARY,140 N. SOUTH ST.,KINGSTON,53939,98,GREEN LAKE,9203943281,www.millpondlibrary.org,CI,CI2,2020,1,0,0,0,0.93,0.1,1.03,30511,0,0,15284,45795,10656,0,1423,12079,50417,8141,11266,3981,2253,1248,15414,4989,575,28696,12586,18,7,320,207,4,3701,-89.136866,43.68409,18566,43,6
WI,WI0155,KOHLER PUBLIC LIBRARY,333 UPPER ROAD,KOHLER,53044,1545,SHEBOYGAN,9204592923,www.kohler.lib.wi.us,CI,CI2,3425,1,0,0,0,1,1.25,2.25,191263,0,669,0,191932,31772,0,7220,38992,191932,40672,10382,3380,5111,3154,42000,62,2332,58038,26118,34,30,1140,1120,6,1530,-87.78491,43.7406,114561,23,6
WI,WI0157,MADELINE ISLAND PUBLIC LIBRARY,1 LIBRARY ST.,LA POINTE,54850,65,ASHLAND,7157473662,madisland.wislib.org,CI,CI2,287,1,0,0,0,1.5,0.08,1.58,102019,2497,305,0,104821,6012,0,232,6244,104853,10256,11545,2575,2018,1660,7488,400,874,8344,2377,131,58,1360,769,14,6240,-90.686574,46.81246,16295,43,7
WI,WI0158,BEN GUTHRIE--LAC DU FLAMBEAU PUBLIC LIBRARY,622 PEACE PIPE ROAD,LAC DU FLAMBEAU,54538,368,VILAS,7155887001,www.nwls.wislib.org/about/liblf.htm,NL,CI2,3314,1,0,0,0,1,1.5,2.5,138065,0,5705,0,143770,6260,0,240,6500,143771,17100,11545,2296,50,1872,3504,1112,0,24573,13162,80,40,800,400,5,1955,-89.892911,45.97,21919,43,8
WI,WI0159,LA CROSSE PUBLIC LIBRARY,800 MAIN ST.,LA CROSSE,54601,4122,LA CROSSE,6087897100,www.lacrosselibrary.org,CI,CI1,51840,1,2,0,11,25,39.88,64.88,4440671,137000,5506,329894,4913071,317238,45862,161998,525098,4981359,215054,8747,28663,19038,8008,700646,120200,150458,1143843,400485,1253,1177,33840,31506,99,126531,-91.245191,43.81165,112627,13,3
WI,WI0160,RUSK COUNTY COMMUNITY LIBRARY,418 CORBETT AVE. W.,LADYSMITH,54848,1708,RUSK,7155322604,www.ladysmithpl.org,CC,CO2,12978,1,0,0,1,4.88,0.95,5.83,432924,2866,0,17875,453665,26515,0,4024,30539,401675,37426,4723,6549,4379,2444,105944,11907,5410,129035,35651,67,60,2409,1965,6,8257,-91.105017,45.46134,14389,32,7
WI,WI0161,LAWTON MEMORIAL LIBRARY,118 N. BIRD ST.,LA FARGE,54639,38,VERNON,6086252015,www.lafargelibrary.org,CI,CI2,2175,1,0,0,0,1.13,0.15,1.28,50581,2300,2344,5325,60550,7154,0,2291,9445,57551,10335,8396,3778,1312,1560,12400,3200,873,19439,4524,119,99,836,670,4,2488,-90.63757,43.57459,29090,43,3
WI,WI0162,LAKE GENEVA PUBLIC LIBRARY,918 W. MAIN ST.,LAKE GENEVA,53147,1899,WALWORTH,2622495299,www.lakegeneva.lib.wi.us,CI,CI2,18064,1,0,0,2,3,8,11,622811,1359,750,21983,646903,80945,0,14320,95265,636015,47843,8805,7310,2264,2964,96460,29952,12153,131335,42502,240,204,6199,5148,9,17007,-88.437424,42.59177,100749,32,1
WI,WI0163,L.D. FARGO PUBLIC LIBRARY,120 E. MADISON ST.,LAKE MILLS,53551,1644,JEFFERSON,9206482166,www.lakemills.lib.wi.us,CI,CI2,9534,1,0,0,1,1,4.18,5.18,309800,300,1250,17837,329187,33058,0,6297,39355,328296,37031,8825,5653,3142,3328,40000,600,8524,107918,53010,196,155,5525,5225,4,10501,-88.910975,43.08066,80792,32,2
WI,WI0165,SCHREINER MEMORIAL LIBRARY,113 W. ELM ST.,LANCASTER,53813,1202,GRANT,6087237304,www.swls.org/member.la.html,CI,CI2,7809,1,1,0,1,3.83,0.35,4.18,248099,0,386,25512,273997,40261,0,12682,52943,271633,32531,0,5389,2048,3587,38546,3347,4139,67925,37571,237,221,5013,4897,9,9430,-90.711308,42.84993,49238,32,3
WI,WI0166,LAND O' LAKES PUBLIC LIBRARY,4242 CO. HWY. B,LAND O' LAKES,54540,450,VILAS,7155476006,landolakeslibrary.com,CI,CI2,955,1,0,0,0,0.93,1.3,2.23,94567,2925,857,25705,124054,12367,0,1958,14325,123698,18898,11545,3541,1735,1716,28109,3003,1833,22211,4825,62,61,1604,1543,6,5183,-89.210442,46.1609,21919,43,1
WI,WI0167,EDITH EVANS COMMUNITY LIBRARY,5216 FOREST AVE.,LAONA,54541,127,FOREST,7156744751,wvls.lib.wi.us/laonapl/,CI,CI2,2374,1,0,0,0,0.93,0.13,1.06,53153,0,500,0,53653,8209,0,1206,9415,52964,15419,8805,3673,1800,1864,8555,2000,757,12450,2702,4,4,150,150,3,2300,-88.669428,45.56145,9846,43,8
WI,WI0168,LA VALLE PUBLIC LIBRARY,101 W. MAIN ST.,LA VALLE,53941,7,SAUK,6089858383,www.scls.lib.wi.us/lav,CI,CI2,464,1,0,0,0,0.4,0,0.4,20464,194,0,1000,21658,4159,68,0,4227,15750,5066,8370,3975,936,345,1050,40,313,2522,570,0,0,0,0,3,445,-90.130119,43.58221,59013,42,3
WI,WI0169,LENA PUBLIC LIBRARY,200 E. MAIN ST.,LENA,54139,179,OCONTO,9208295335,www.nfls.lib.wi.us/len/,CI,CI2,2242,1,0,0,0,1.28,0,1.28,40873,1295,560,3452,46180,4967,0,754,5721,48271,7836,13261,3900,1859,1456,17500,250,750,22300,6254,8,5,1142,982,4,5200,-88.045277,44.9508,37529,42,8
WI,WI0170,ALLEN-DIETZMAN PUBLIC LIBRARY,220 W. BARBER AVE.,LIVINGSTON,53554,216,GRANT,6089436801,www.swls.org/member.li.html,CI,CI2,821,1,0,0,0,0.55,0.05,0.6,26188,0,0,1585,27773,3478,0,2649,6127,29656,5816,0,3855,831,1132,6044,521,310,5567,2556,44,43,868,840,4,2236,-90.43018,42.9012,49238,42,3
WI,WI0172,LOMIRA PUBLIC LIBRARY,1038 MAIN ST.,LOMIRA,53048,1108,DODGE,9202694115,www.lomira.lib.wi.us,CI,CI2,2898,1,0,0,0,1.25,0,1.25,69031,451,500,13056,83038,20849,7764,6435,35048,74495,21322,8825,4294,1921,1490,4731,2247,1492,18981,7096,18,15,456,442,3,3212,-88.445909,43.5916,87912,42,6
WI,WI0173,LONE ROCK COMMUNITY LIBRARY,234 N. BROADWAY,LONE ROCK,53556,5,RICHLAND,6085832034,www.swls.org/member.lr.html,CI,CI2,1189,1,0,0,0,1.43,0,1.43,36717,0,386,0,37103,2835,0,219,3054,32678,6973,0,4211,1046,1612,5000,50,1088,5416,1589,38,38,180,180,6,4500,-90.197358,43.18524,17982,43,3
WI,WI0174,LOYAL PUBLIC LIBRARY,214 N. MAIN ST.,LOYAL,54446,337,CLARK,7152558189,wvls.lib.wi.us/loyalpl,CI,CI2,3847,1,0,0,0,0.95,0.8,1.75,77347,0,486,2590,80423,16333,0,2465,18798,86577,20193,8805,4108,1486,1768,32660,850,1585,34108,14685,83,80,1225,1115,6,5050,-90.495792,44.736,33553,43,3
WI,WI0175,LUCK PUBLIC LIBRARY,301 S. MAIN ST.,LUCK,54853,500,POLK,7154722770,www.luckpubliclibrary.org/,CI,CI2,3257,1,0,0,0,0.9,0.63,1.53,82050,0,0,2770,84820,5828,0,1913,7741,83263,10127,4723,4572,1007,1664,16012,6004,1837,32381,10415,343,312,1735,1206,4,2487,-92.482431,45.57363,44270,43,7
WI,WI0176,MADISON PUBLIC LIBRARY,201 W. MIFFLIN ST.,MADISON,53703,2597,DANE,6082666363,www.madisonpubliclibrary.org,CI,CI2,265424,1,8,0,40.2,40.98,120.57,161.55,11784763,317210,1849,973138,13076960,845706,47109,314257,1207072,13333236,785574,8370,71220,74450,28538,2274220,257157,137990,4665858,1264185,1936,1525,57458,52406,90,365237,-89.387399,43.07402,482705,12,2
WI,WI0177,STURM MEMORIAL LIBRARY,130 N. BRIDGE ST.,MANAWA,54949,20,WAUPACA,9205962252,www.manawalibrary.org,CI,CI2,4281,1,0,0,0,1.75,0.78,2.53,139780,0,705,14974,155459,17823,0,4602,22425,152872,19079,13261,3936,2522,2194,35263,3445,2474,55371,21675,85,70,2283,2090,3,6232,-88.919935,44.46305,51858,42,8
WI,WI0179,MANITOWOC PUBLIC LIBRARY,707 QUAY ST.,MANITOWOC,54220,4539,MANITOWOC,9206834863,www.manitowoc.lib.wi.us,CI,CI2,58602,1,0,0,2,2,33.83,35.83,2204534,45169,370,73304,2323377,203000,16618,62074,281692,2317439,210476,13064,20704,17383,3119,321652,52593,42026,630261,155855,457,353,14325,10824,27,92131,-87.656438,44.09123,80641,32,6
WI,WI0181,MARION PUBLIC LIBRARY,120 N. MAIN ST.,MARION,54950,267,WAUPACA,7157545368,www.marionpubliclibrary.info,CI,CI2,1880,1,0,0,0,2.33,0.2,2.53,131320,7588,0,1897,140805,13280,0,3066,16346,136393,22691,13261,4710,3609,2184,24100,2050,1800,38411,11096,104,88,1151,851,4,2944,-88.889302,44.6711,51858,42,8
WI,WI0182,MARKESAN PUBLIC LIBRARY,75 N. BRIDGE ST.,MARKESAN,53946,160,GREEN LAKE,9203983434,www.markesanlibrary.org,CI,CI2,2991,1,0,0,0,2.63,0.05,2.68,118162,0,0,11827,129989,14541,40,2923,17504,130526,13306,11266,4211,2704,2340,29792,520,1723,44123,13277,36,23,533,432,6,6612,-88.987452,43.70785,18566,42,6
WI,WI0183,MARSHALL COMMUNITY LIBRARY,605 WATERLOO RD.,MARSHALL,53559,8716,DANE,6086553123,www.marlib.org,CI,CI2,4887,1,0,0,0,1,2.33,3.33,181529,918,1200,21763,205410,24290,754,14940,39984,209782,26875,8370,5560,2583,2444,72760,10000,2560,59159,21777,108,50,1098,466,4,7300,-89.052169,43.16804,482705,31,2
WI,WI0184,MARSHFIELD PUBLIC LIBRARY,211 E. SECOND ST.,MARSHFIELD,54449,3702,WOOD,7153878494,www.marshfieldlibrary.org,MJ,CI2,30717,1,0,0,4,4,17.35,21.35,1332938,1548,1200,39198,1374884,130900,4272,34005,169177,1393023,115732,0,7992,13217,3618,228109,29006,26793,441154,67201,282,249,7989,7244,23,50635,-90.172584,44.66536,73756,32,7
WI,WI0185,HATCH PUBLIC LIBRARY,111 W. STATE ST.,MAUSTON,53948,1355,JUNEAU,6088474454,www.hatchpubliclibrary.org,CI,CI2,15694,1,0,0,0,3.38,3.3,6.68,485102,6100,0,31512,522714,34412,2600,15111,52123,460905,35448,8396,6227,5669,3015,50458,13721,10820,122814,45112,163,121,3694,3239,23,34046,-90.089356,43.80331,26633,41,3
WI,WI0186,MAYVILLE PUBLIC LIBRARY,111 N. MAIN ST.,MAYVILLE,53050,1639,DODGE,9203877910,www.mayville.lib.wi.us,CI,CI2,7242,1,0,0,1,1,2.78,3.78,194360,0,500,23543,218403,13129,0,1867,14996,188506,48542,8825,6038,2924,2600,55232,7255,5680,73036,26686,83,83,1585,1585,9,7930,-88.545056,43.49793,87912,32,6
WI,WI0187,MAZOMANIE FREE LIBRARY,102 BRODHEAD ST.,MAZOMANIE,53560,458,DANE,6087952104,www.scls.lib.wi.us/maz,CI,CI2,2440,1,0,0,0,1.75,0,1.75,103651,472,0,4251,108374,11200,270,4766,16236,107860,17964,8370,4671,2031,1976,14820,1963,1269,37674,12753,130,51,1435,772,3,4001,-89.794184,43.17554,482705,42,2
WI,WI0188,FRANCES L. SIMEK MEMORIAL LIBRARY MEDFORD,400 N. MAIN ST.,MEDFORD,54451,1455,TAYLOR,7157482505,www.sws-wis.com/medfordpubliclibrary/,CI,CI2,13547,1,0,0,0,4.33,0.6,4.93,288815,0,0,25792,314607,33594,0,7825,41419,303557,40001,8805,5613,2672,2946,94489,12429,6600,125649,48730,122,75,5772,4855,19,18370,-90.347454,45.14152,19308,32,7
WI,WI0189,LEGION MEMORIAL LIBRARY,102 E. BENNETT AVE.,MELLEN,54546,47,ASHLAND,7152748331,-3,CI,CI2,2523,1,0,0,0,1,0.68,1.68,61912,2500,428,73,64913,8902,225,2089,11216,64915,11977,11545,2663,980,1976,8112,200,889,16136,6930,109,80,1758,1390,4,1424,-90.661781,46.31908,16295,43,7
WI,WI0190,ELISHA D. SMITH PUBLIC LIBRARY,440 FIRST ST.,MENASHA,54952,3191,WINNEBAGO,9209673660,www.menashalibrary.org,CI,CI2,25367,1,0,0,6,8.4,11,19.4,1379835,0,0,14770,1394605,121606,3240,61073,185919,1383397,125147,11266,12734,12473,3510,201294,68196,22226,527145,254184,472,312,24209,19001,17,36535,-88.447877,44.20296,162111,22,6
WI,WI0191,MENOMONEE FALLS PUBLIC LIBRARY,W156N8436 PILGRIM RD.,MENOMONEE FALLS,53051,3140,WAUKESHA,2625328930,www.mf.lib.wi.us,CI,CI2,34739,1,0,0,5,5,17.5,22.5,1741223,3686,600,91230,1836739,170557,1186,34276,206019,1689209,124314,0,5414,7043,3328,181325,27000,25721,364541,165897,303,150,8779,6721,51,82095,-88.103687,43.1708,380629,21,5
WI,WI0192,MENOMONIE PUBLIC LIBRARY,600 WOLSKE BAY RD.,MENOMONIE,54751,1645,DUNN,7152322164,www.menomonielibrary.org,CI,CI2,36406,1,0,0,1,4,10,14,744421,0,0,43881,788302,90109,0,13882,103991,846414,46124,4723,8446,4635,3068,159911,12896,16160,346427,116526,326,310,10258,9968,14,21447,-91.925592,44.89489,42688,32,3
WI,WI0193,FRANK L. WEYENBERG LIBRARY,11345 N. CEDARBURG RD.,MEQUON,53092,1998,OZAUKEE,2622422593,www.flwlib.org,MJ,CI2,27147,1,0,0,3.15,3.15,12.35,15.5,993007,0,1169,64461,1058637,69673,6811,12987,89471,1043981,101200,10382,7346,6533,3224,155418,26191,23253,326586,107773,238,199,5712,4285,14,21483,-87.984212,43.22434,85874,21,5
WI,WI0194,MERCER PUBLIC LIBRARY,2648 W. MARGARET ST.,MERCER,54547,9186,IRON,7154762366,mercer.wislib.org,CI,CI2,2263,1,0,0,0,0.8,1,1.8,98339,2500,446,3818,105103,14846,0,5336,20182,104653,15783,11545,3282,1326,2424,15781,700,3163,24030,4390,61,27,800,521,8,5034,-90.063803,46.16885,6197,43,7
WI,WI0196,MIDDLETON PUBLIC LIBRARY,7425 HUBBARD AVE.,MIDDLETON,53562,3196,DANE,6088315564,www.midlibrary.org,CI,CI2,27208,1,0,0,7,10,10.75,20.75,1569593,627,0,74447,1644667,169875,3794,78582,252251,1587618,95746,8370,10678,9892,3520,507136,55545,16604,755727,316462,527,474,15632,14793,39,195482,-89.509378,43.09519,482705,21,2
WI,WI0197,MILLTOWN PUBLIC LIBRARY,61 W. MAIN ST.,MILLTOWN,54858,69,POLK,7158252313,-3,CI,CI2,3750,1,0,0,1,2,0.58,2.58,118411,150,561,17849,136971,12186,0,14164,26350,121141,13264,4723,5265,1897,2444,20462,182,1827,45379,12226,77,63,1696,1587,6,9382,-92.506206,45.52667,44270,43,7
WI,WI0198,MILTON PUBLIC LIBRARY,"430 E. HIGH ST., #100",MILTON,53563,1502,ROCK,6088687462,www.als.lib.wi.us/MPL,CI,CI2,8890,1,0,0,1,3.68,0,3.68,219958,2996,0,2304,225258,20000,0,9150,29150,225258,26718,0,6548,2338,3224,75330,1250,5590,112637,36424,139,110,3309,2709,13,11750,-88.944389,42.7729,160213,23,1
WI,WI0199,MILWAUKEE PUBLIC LIBRARY,814 W. WISCONSIN AVE.,MILWAUKEE,53233,2385,MILWAUKEE,4142863000,www.mpl.org,CI,CI2,591557,1,12,1,94.5,94.5,261,355.5,21995112,1682933,563460,645549,24887054,1458969,406021,412366,2277356,25057272,2318464,11942,114858,116304,34372,2466608,535982,369240,2880443,863412,3489,2515,99855,86980,388,776445,-87.921983,43.03887,953328,11,4
WI,WI0200,MINERAL POINT PUBLIC LIBRARY,137 HIGH ST.,MINERAL POINT,53565,1207,IOWA,6089872447,www.swls.org/member.mi.html,CI,CI2,4909,1,0,0,0,1.85,0,1.85,157543,0,386,4132,162061,19158,358,7107,26623,128089,16939,0,4757,3591,2236,30156,7600,3064,45652,14995,71,65,1996,1876,8,5760,-90.178954,42.85972,23604,42,3
WI,WI0201,MINOCQUA PUBLIC LIBRARY,415 MENOMINEE ST.,MINOCQUA,54548,1087,ONEIDA,7153564437,www.minocqualibrary.org,CI,CI2,12265,1,0,0,1.9,2.9,2.68,5.58,433805,0,755,38375,472935,47397,0,22034,69431,390714,29421,8805,5766,2195,2912,145000,8000,9209,148673,39814,110,69,2529,1959,12,14562,-89.707305,45.87169,36031,43,8
WI,WI0202,MONDOVI PUBLIC LIBRARY,146 W. HUDSON ST.,MONDOVI,54755,1518,BUFFALO,7159264403,www.wrlsweb.org/mondovi,CI,CI2,7103,1,0,0,0,1.53,0.18,1.71,81537,3500,0,2838,87875,15061,0,5421,20482,87131,21306,8396,4219,1096,1976,11358,3595,1922,30636,9838,74,60,705,415,2,3647,-91.671238,44.5667,13741,42,3
WI,WI0203,MONONA PUBLIC LIBRARY,1000 NICHOLS RD.,MONONA,53716,2531,DANE,6082226127,www.mononalibrary.org,CI,CI2,10163,1,0,0,3,3,7.75,10.75,612821,1366,0,63539,677726,44399,2007,29612,76018,651364,59420,8370,7292,7349,3029,135707,4928,6837,265114,101984,432,398,8738,8307,15,24708,-89.341326,43.0634,482705,21,2
WI,WI0204,MONROE PUBLIC LIBRARY,925 16TH AVE.,MONROE,53566,1763,GREEN,6083287010,www.monroepubliclibrary.org,SD,SD2,17404,1,0,0,1,6,7.38,13.38,806732,876,1200,81660,890468,67801,5181,27853,100835,880599,82385,8370,9311,6587,3264,131885,18980,13969,224622,67494,392,311,9787,8739,21,35579,-89.63985,42.60264,36090,32,2
WI,WI0205,MONTELLO PUBLIC LIBRARY,128 LAKE CT.,MONTELLO,53949,457,MARQUETTE,6082977544,www.montellolibrary.org,CI,CI2,5352,1,0,0,0,1.73,0.1,1.83,87603,0,0,5975,93578,7969,0,3661,11630,94729,9988,11266,4045,2178,2288,25120,3632,2470,53267,12438,43,32,733,592,5,5281,-89.296299,43.80959,15060,43,6
WI,WI0206,MONTFORT PUBLIC LIBRARY,102 E. PARK ST.,MONTFORT,53569,8,GRANT,6089436265,www.swls.org/member.mo.html,CI,CI2,736,1,0,0,0,0.78,0,0.78,21940,0,0,117,22057,3242,0,350,3592,22260,4806,0,3847,1171,1508,1500,540,410,6907,3619,61,58,803,630,7,1300,-90.433387,42.97174,49238,43,3
WI,WI0207,MONTICELLO PUBLIC LIBRARY,512 E. LAKE AVE.,MONTICELLO,53570,149,GREEN,6089384011,-3,CI,CI2,4394,1,0,0,0,1,0.9,1.9,88510,450,1200,37204,127364,17919,270,13651,31840,127364,29714,0,2446,6065,2080,18113,6015,2205,70030,28491,96,77,1189,980,3,8896,-89.589498,42.74555,36090,42,2
WI,WI0209,MOUNT HOREB PUBLIC LIBRARY,105 PERIMETER ST.,MOUNT HOREB,53572,2013,DANE,6084375021,www.mhpl.org,CI,CI2,11455,1,0,0,3,5.5,2.9,8.4,572863,475,0,43710,617048,66665,4608,32559,103832,659591,43401,8370,8417,4412,2990,84359,10510,6612,217183,81746,239,201,10902,10427,15,31900,-89.721604,43.00804,482705,41,2
WI,WI0211,MUSCODA PUBLIC LIBRARY,206 N. WISCONSIN AVE.,MUSCODA,53573,138,GRANT,6087393182,www.swls.org/member.mu.html,CI,CI2,2432,1,0,0,0,0.75,0,0.75,61773,0,386,0,62159,4527,0,3032,7559,50835,10679,0,4476,1975,1664,13050,950,1570,19515,3643,0,0,0,0,3,1800,-90.443043,43.18548,49238,42,3
WI,WI0212,MUSKEGO PUBLIC LIBRARY,S73 W16663 JANESVILLE RD.,MUSKEGO,53150,810,WAUKESHA,2629712100,M,CI,CI2,23921,1,0,0,2,5,10,15,1176333,2314,350,17406,1196403,80162,51544,1519,133225,1046782,115203,7012,7140,3705,3328,134738,20603,23993,228559,102964,215,145,9982,8257,30,27486,-88.117191,42.90314,380629,21,1
WI,WI0213,NECEDAH MEMORIAL LIBRARY,216 S. MAIN ST.,NECEDAH,54646,279,JUNEAU,6085657979,-3,CI,CI2,2871,1,0,0,0,1.15,0.6,1.75,35546,2300,0,4985,42831,4258,0,391,4649,40613,10150,8396,3629,1279,1456,8545,274,1660,15680,3256,50,15,456,323,4,1935,-90.07319,44.02568,26633,43,3
WI,WI0214,NEENAH PUBLIC LIBRARY,240 E. WISCONSIN AVE.,NEENAH,54957,569,WINNEBAGO,9208866300,www.neenahlibrary.org,CI,CI2,46187,1,0,0,7.5,7.5,14.56,22.06,1834428,0,0,102875,1937303,157411,18225,94501,270137,1937303,167418,11266,22027,22804,3476,287248,49321,24727,835775,287207,598,522,18574,15167,32,79465,-88.458877,44.18518,162111,13,6
WI,WI0215,NEILLSVILLE PUBLIC LIBRARY,409 HEWETT ST.,NEILLSVILLE,54456,1923,CLARK,7157432558,M,CI,CI2,9665,1,0,0,1,1.8,1.2,3,128587,0,346,1020,129953,17630,0,3205,20835,131202,30452,8805,4796,1702,2288,51500,3700,5506,87706,48107,44,30,1086,972,4,8863,-90.596264,44.55905,33553,43,3
WI,WI0216,CHARLES & JOANN LESTER LIBRARY,100 PARK ST.,NEKOOSA,54457,1424,WOOD,7158867879,www.scls.lib.wi.us/nek/index.html,CI,CI2,4525,1,0,0,1,1,2.43,3.43,149910,475,1200,10200,161785,14991,177,5108,20276,161060,27555,1,436,2000,2704,40074,3641,3502,43228,20065,243,239,4505,4361,8,5541,-89.902068,44.3138,73756,32,7
WI,WI0217,NESHKORO PUBLIC LIBRARY,132 S. MAIN ST.,NESHKORO,54960,196,MARQUETTE,9202934026,www.neshkorolibrary.org,CI,CI2,892,1,0,0,0,0.53,0,0.53,27083,0,0,0,27083,2000,0,550,2550,27679,24062,11266,6356,1468,1092,5742,654,202,5789,1358,6,3,103,62,3,3,-89.21862,43.96289,15060,43,6
WI,WI0218,NEW BERLIN PUBLIC LIBRARY,15105 LIBRARY LANE,NEW BERLIN,53151,5280,WAUKESHA,2627854980,M,CI,CI2,39712,1,0,0,7.45,7.45,11.8,19.25,1175850,3342,600,81343,1261135,169470,18498,27112,215080,1175829,136494,0,10778,10956,3442,265564,69224,28913,364882,113120,669,555,15007,12920,21,4223,-88.10272,42.9789,380629,21,5
WI,WI0219,NEW GLARUS PUBLIC LIBRARY,319 2ND ST.,NEW GLARUS,53574,35,GREEN,6085272003,www.newglaruspubliclibrary.org,CI,CI2,5543,1,0,0,2,3.13,0.68,3.81,240394,1120,1200,3493,246207,29313,540,27465,57318,246207,23822,8370,6594,4433,2496,46080,9314,2276,80342,19619,80,66,1799,1655,4,12204,-89.635349,42.81702,36090,42,2
WI,WI0220,NEW HOLSTEIN PUBLIC LIBRARY,2115 WASHINGTON ST.,NEW HOLSTEIN,53061,1098,CALUMET,9208985165,www.newholstein.lib.wi.us,CI,CI2,7686,1,0,0,1,1,3.08,4.08,213615,0,795,12131,226541,29541,875,11869,42285,214455,39229,13064,6552,4545,2592,74498,10920,3601,72139,23312,205,146,3407,3100,12,6454,-88.095809,43.95121,44727,32,6
WI,WI0221,NEW LISBON MEMORIAL LIBRARY,115 W. PARK ST.,NEW LISBON,53950,1250,JUNEAU,6085623213,www.wrlsweb.org/newlisbon,CI,CI2,4711,1,0,0,0,1.93,0.3,2.23,129591,2500,0,10825,142916,18635,0,1691,20326,125954,19886,8396,4878,1898,2080,21528,1040,1665,29126,13482,29,18,549,488,3,2934,-90.166619,43.8772,26633,42,3
WI,WI0222,NEW LONDON PUBLIC LIBRARY,406 S. PEARL ST.,NEW LONDON,54961,1441,WAUPACA,9209828519,www.owls.lib.wi.us/nlp,CI,CI2,11682,1,0,0,2,3,4.75,7.75,406958,0,0,0,406958,36252,577,7141,43970,406958,44862,13261,6236,3506,3107,91383,7805,8680,143935,54041,255,212,6009,5626,13,18936,-88.739586,44.38987,51858,32,8
WI,WI0223,CARLETON A. FRIDAY MEMORIAL LIBRARY,155 E. FIRST ST.,NEW RICHMOND,54017,1801,ST. CROIX,7152430431,www.fridaylibrary.org,CI,CI2,18249,1,0,0,2,6,3.7,9.7,636297,0,647,12595,649539,45814,749,14450,61013,649539,42433,4723,8108,5289,3068,159304,5613,11461,234512,96060,188,161,4360,4120,8,17875,-92.536711,45.12268,82487,32,3
WI,WI0224,SPILLMAN PUBLIC LIBRARY,719 WISCONSIN AVE.,NORTH FOND DU LAC,54937,1335,FOND DU LAC,9209293771,www.northfonddulaclibrary.org,CI,CI2,6372,1,0,0,0,1.48,0.75,2.23,196877,0,0,300,197177,15582,0,2325,17907,177637,22964,11266,4603,1799,2035,14491,1000,2883,46594,18857,129,115,1980,1844,3,2601,-88.48098,43.8084,99453,23,6
WI,WI0225,NORTH FREEDOM PUBLIC LIBRARY,105 N. MAPLE ST.,NORTH FREEDOM,53951,60,SAUK,6085224571,www.scls.lib.wi.us/nof/index.html,CI,CI2,1362,1,0,0,0,0.7,0.1,0.8,25898,263,0,4551,30712,1150,68,2000,3218,30828,5305,8370,4511,1489,1326,9165,1000,410,17810,5634,56,31,600,350,9,7000,-89.866809,43.46035,59013,42,3
WI,WI0226,TOWN HALL LIBRARY,N76 W31429 HWY. V V,NORTH LAKE,53064,158,WAUKESHA,2629662933,M,CI,CI2,9279,1,0,0,1,3.15,4,7.15,435766,1434,250,1528,438978,61804,0,33515,95319,438210,52296,7007,7679,6953,3120,33015,6053,4566,67682,25078,96,91,1325,1077,4,4292,-88.370467,43.15797,380629,41,5
WI,WI0227,OAK CREEK PUBLIC LIBRARY,8620 S. HOWELL AVE.,OAK CREEK,53154,2996,MILWAUKEE,4147644400,www.mcfls.org/ocpl,CI,CI2,32475,1,0,0,4.5,4.5,9.58,14.08,795240,0,0,296,795536,75800,0,21000,96800,795240,76055,11942,7987,7008,1753,303035,37765,15269,337220,42709,120,90,2704,2424,9,21189,-87.911972,42.88857,953328,21,1
WI,WI0228,OAKFIELD PUBLIC LIBRARY,130 N. MAIN ST.,OAKFIELD,53065,278,FOND DU LAC,9205834552,www.oakfieldlibrary.org,CI,CI2,2219,1,0,0,0,0.5,0.78,1.28,62543,0,0,3904,66447,15404,0,3575,18979,68350,15529,11266,3643,2232,1560,9695,627,466,26492,9820,65,48,843,777,9,2280,-88.547487,43.68027,99453,42,6
WI,WI0229,OCONOMOWOC PUBLIC LIBRARY,200 SOUTH ST.,OCONOMOWOC,53066,5299,WAUKESHA,2625692193,M,CI,CI2,22859,1,0,0,3,5,8.36,13.36,1017001,1774,500,26687,1045962,97400,0,28230,125630,959762,100366,6965,9229,3612,3140,154874,13115,17928,281685,144589,264,216,11696,11382,13,17746,-88.501418,43.1103,380629,21,5
WI,WI0230,FARNSWORTH PUBLIC LIBRARY,715 MAIN ST.,OCONTO,54153,1795,OCONTO,9208347730,www.nfls.lib.wi.us/oco/,CI,CI2,10033,1,0,0,0,2.65,1.68,4.33,212067,1851,341,13374,227633,16715,0,5155,21870,216633,19799,13261,3960,2320,1775,40000,1775,4624,74900,20426,114,93,2054,1880,12,4971,-87.872908,44.88892,37529,32,8
WI,WI0231,OCONTO FALLS COMMUNITY LIBRARY,251 N. MAIN ST.,OCONTO FALLS,54154,1048,OCONTO,9208462673,www.nfls.lib.wi.us/ocf,CI,CI2,12404,1,0,0,0,2.5,0,2.5,117435,1782,792,15885,135894,14831,0,5224,20055,144770,19344,13261,4743,3084,2392,44716,1637,3938,80232,21555,21,21,392,392,8,4681,-88.144865,44.87621,37529,32,8
WI,WI0232,OGEMA PUBLIC LIBRARY,W5005 STATE ROAD 86,OGEMA,54459,603,PRICE,7157675130,www.ogemalibrary.org,CI,CI2,1113,1,0,0,0,1.2,0.1,1.3,37225,0,0,3522,40747,3800,0,550,4350,37153,18095,4723,377,1271,1628,5000,400,958,7155,2095,102,84,352,208,6,950,-90.176222,45.44776,14278,43,7
WI,WI0233,CARTER MEMORIAL LIBRARY,405 E. HURON ST.,OMRO,54963,1405,WINNEBAGO,9206857016,www.omrolibrary.org,CI,CI2,5350,1,0,0,0,2.25,0.23,2.48,148750,0,0,5400,154150,14065,30,3409,17504,147581,25534,11266,4244,2516,2184,38173,3560,2147,57568,21182,56,28,1219,1067,6,3388,-88.739341,44.0386,162111,31,6
WI,WI0234,ONTARIO PUBLIC LIBRARY,313 MAIN ST.,ONTARIO,54651,69,VERNON,6083374651,www.wrlsweb.org/ontario,CI,CI2,1139,1,0,0,0,0.75,0.35,1.1,45089,2100,900,4541,52630,9348,0,1344,10692,51367,13864,8396,3849,983,1300,10400,3900,497,16488,7959,60,30,611,389,4,2145,-90.591111,43.724,29090,43,3
WI,WI0235,OOSTBURG PUBLIC LIBRARY,213 N. 8TH ST.,OOSTBURG,53070,1246,SHEBOYGAN,9205642934,www.oostburg.org/library,CI,CI2,5733,1,0,0,0,1.75,0.6,2.35,106423,0,669,5873,112965,15011,0,3895,18906,110586,26187,10382,3178,3197,2576,52000,1726,3103,61100,33601,117,106,2281,2177,2,2174,-87.794154,43.62498,114561,31,6
WI,WI0236,OREGON PUBLIC LIBRARY,256 BROOK ST.,OREGON,53575,1452,DANE,6088353656,www.oregonpubliclibrary.org,CI,CI2,17057,1,0,0,3,4.5,7.18,11.68,596803,475,1200,54250,652728,56175,1351,17169,74695,652728,58568,8370,8129,4040,3349,105458,7090,8448,301870,123516,193,167,4565,4211,13,70468,-89.380776,42.92652,482705,31,2
WI,WI0237,ORFORDVILLE PUBLIC LIBRARY,203 W. BELOIT ST.,ORFORDVILLE,53576,249,ROCK,6088799229,www.als.lib.wi.us/OPL,CI,CI2,3052,1,0,0,0,1,0.48,1.48,82024,1452,48,4542,88066,13836,0,3954,17790,86102,13874,0,5963,2011,1820,17249,2456,1310,38895,9881,81,65,2030,1697,2,3606,-89.256201,42.62838,160213,42,2
WI,WI0238,OSCEOLA PUBLIC LIBRARY,102 CHIEFTAIN ST.,OSCEOLA,54020,816,POLK,7152942310,www.osceolapubliclibrary.org,CI,CI2,8748,1,0,0,1,1.8,2.18,3.98,152029,350,0,14904,167283,7200,0,4260,11460,166478,18728,4723,5310,2257,2288,40275,7682,5389,106866,41912,201,155,2504,1978,4,5456,-92.704892,45.31969,44270,42,7
WI,WI0239,OSHKOSH PUBLIC LIBRARY,106 WASHINGTON AVE.,OSHKOSH,54901,4985,WINNEBAGO,9202365210,www.oshkoshpubliclibrary.org,CI,CI2,82761,1,0,0,12.5,12.5,27.8,40.3,3259077,70698,7700,199409,3536884,242478,25782,105158,373418,3540824,254226,11272,29070,19866,3379,400458,119587,38468,1110817,378181,547,521,17196,15931,55,76087,-88.535051,44.0177,162111,13,6
WI,WI0240,HAUGE MEMORIAL LIBRARY,50655 CHARLES ST.,OSSEO,54758,659,TREMPEALEAU,7155973444,www.wrlsweb.org/memosseo.htm,CI,CI2,2511,1,0,0,0,1.55,0.38,1.93,74866,2500,0,1271,78637,6382,0,1444,7826,76903,19277,8396,3851,721,1872,11232,5000,1462,21304,860,74,30,1169,410,3,3029,-91.222886,44.57835,27790,42,3
WI,WI0241,OWEN PUBLIC LIBRARY,414 CENTRAL AVE.,OWEN,54460,130,CLARK,7152292939,wvls.lib.wi.us/owenpl,CI,CI2,3438,1,0,0,0,1,0.45,1.45,86348,0,844,2223,89415,9390,0,3458,12848,89416,21369,8805,4296,1616,1820,13520,1820,1623,32317,10567,14,14,205,205,5,3282,-90.548017,44.90081,33553,43,7
WI,WI0242,OXFORD PUBLIC LIBRARY,129 S. FRANKLIN AVE.,OXFORD,53952,32,MARQUETTE,6085864458,www.oxfordlibrary.org,CI,CI2,1122,1,0,0,0,1.2,0,1.2,29357,0,0,7358,36715,914,0,2237,3151,36173,8673,11266,3787,1950,1430,3700,500,892,12614,2140,3,2,35,30,7,3208,-89.572645,43.78109,15060,43,6
WI,WI0243,PACKWAUKEE PUBLIC LIBRARY,N3511 STATE ST.,PACKWAUKEE,53953,406,MARQUETTE,6085895202,www.packwaukeelibrary.org,CI,CI2,1431,1,0,0,0,0.93,0,0.93,34841,0,0,1781,36622,4106,0,1205,5311,34861,7483,11260,3997,1950,1716,7181,655,384,10165,1299,8,6,108,89,3,1972,-89.457922,43.76348,15060,43,6
WI,WI0245,ANGIE WILLIAMS COX PUBLIC LIBRARY,119 N. MAIN ST.,PARDEEVILLE,53954,370,COLUMBIA,6084292354,www.scls.lib.wi.us/pardeeville/index.html,CI,CI2,3990,1,0,0,1,1,2.05,3.05,92956,647,1200,39121,133924,11780,500,5177,17457,133924,19612,8370,4524,1835,2496,24284,4160,2500,43536,20296,156,154,4269,3127,6,10504,-89.299888,43.53856,55196,42,2
WI,WI0246,PARK FALLS PUBLIC LIBRARY,121 N. FOURTH AVE.,PARK FALLS,54552,1192,PRICE,7157623121,www.parkfallslibrary.org,CI,CI2,5454,1,0,0,1,3,2.05,5.05,411392,0,0,6567,417959,21629,0,5633,27262,417959,35277,4723,5983,1975,2752,35828,1641,5533,69399,19346,46,33,970,800,5,6800,-90.451756,45.93541,14278,43,7
WI,WI0247,PEPIN PUBLIC LIBRARY,510 2ND ST.,PEPIN,54759,277,PEPIN,7154424932,www.pepinpubliclibrary.org,CI,CI2,3229,1,0,0,0,0.73,0.35,1.08,31235,0,644,5888,37767,3725,0,1765,5490,36493,13753,4723,4634,1407,1560,14200,520,1056,26884,8110,15,4,200,92,4,5500,-92.148266,44.44008,7357,42,3
WI,WI0249,ELEANOR ELLIS PUBLIC LIBRARY,4495 TOWN HALL RD.,PHELPS,54554,9273,VILAS,7155452887,phelps.wislib.org,CI,CI2,1504,1,0,0,0,0.5,0.48,0.98,48860,2500,462,12920,64742,12122,0,5179,17301,64536,12398,11545,3138,1061,1352,5200,2200,1077,20831,2619,16,16,584,584,4,500,-89.084644,46.06595,21919,43,8
WI,WI0250,PHILLIPS PUBLIC LIBRARY,286 CHERRY ST.,PHILLIPS,54555,1240,PRICE,7153392868,www.phillipspl.org,CI,CI2,9521,1,0,0,1,4.65,0,4.65,267535,63,648,11241,279487,25863,0,5350,31213,270104,22129,4723,5440,2406,2988,38373,9538,2991,97646,30320,109,109,2872,2872,4,8118,-90.399818,45.68923,14278,43,7
WI,WI0251,LEON-SAXEVILLE TOWNSHIP LIBRARY,N4715 COUNTY RD. E,PINE RIVER,54965,247,WAUSHARA,9209875110,www.pineriverlibrary.org,MJ,CI2,2754,1,0,0,0,0.75,0.38,1.13,45799,0,0,604,46403,6200,0,1684,7884,46217,13319,11266,4332,3104,1560,14000,1350,846,21154,4088,108,73,505,368,4,3897,-89.076997,44.1495,24760,42,6
WI,WI0253,KRAEMER LIBRARY & COMMUNITY CENTER,910 MAIN ST.,PLAIN,53577,9691,SAUK,6085464201,www.scls.lib.wi.us/pla,CI,CI2,2299,1,0,0,0,0.88,0.65,1.53,104532,450,0,7131,112113,13723,270,2627,16620,112113,13626,8370,4204,1677,1672,13933,1850,1080,28778,11539,61,47,1181,831,6,9962,-90.042429,43.27879,59013,43,3
WI,WI0254,PLAINFIELD PUBLIC LIBRARY,126 S. MAIN ST.,PLAINFIELD,54966,305,WAUSHARA,7153354523,www.plainfieldlibrary.org,CI,CI2,2063,1,0,0,0,0.9,0.43,1.33,54089,0,0,4200,58289,4873,0,3553,8426,58260,16644,11266,4322,2379,1540,11306,2213,1119,30526,11052,84,42,1628,1374,6,8160,-89.492278,44.21332,24760,43,6
WI,WI0255,PLATTEVILLE PUBLIC LIBRARY,65 S. ELM ST.,PLATTEVILLE,53818,3139,GRANT,6083487441,www.platteville.org/Attractions/PlattevilleCityLibrary/tabid/1850/Default.aspx,CI,CI2,17885,1,0,0,1.7,4.7,4.5,9.2,589578,500,500,2869,593447,37790,1675,11609,51074,533279,54198,0,7217,5355,3320,154973,15637,12664,171370,57935,149,149,4508,4508,14,16116,-90.481704,42.73324,49238,32,3
WI,WI0256,PLUM CITY PUBLIC LIBRARY,611 MAIN ST.,PLUM CITY,54761,203,PIERCE,7156472373,www.plumcitylibrary.org,CI,CI2,1983,1,0,0,1,2,0.3,2.3,83193,0,513,8522,92228,18945,0,1511,20456,88685,10967,4723,4987,1533,1411,13709,978,654,31458,11842,54,30,970,774,4,1857,-92.192701,44.63207,40254,43,3
WI,WI0257,PLYMOUTH PUBLIC LIBRARY,130 DIVISION ST.,PLYMOUTH,53073,1802,SHEBOYGAN,9208924416,www.plymouthgov.com/library,CI,CI2,14263,1,0,0,2,2,4.73,6.73,599311,0,669,8864,608844,67279,4058,13497,84834,461424,77756,10382,4611,3785,2918,60969,25681,9466,117880,26942,171,115,3938,3366,7,18558,-87.976269,43.74689,114561,31,6
WI,WI0258,W.J. NIEDERKORN LIBRARY,316 W. GRAND AVE.,PORT WASHINGTON,53074,2293,OZAUKEE,2622845031,www.ci.port-washington.wi.us/library/library.htm,CI,CI2,17576,1,0,0,1,3.6,6.3,9.9,521408,0,1965,59221,582594,18489,0,40149,58638,580657,57358,10382,5984,6102,3168,133489,15367,9943,238851,100317,357,239,7181,5542,8,10702,-87.874831,43.38754,85874,31,5
WI,WI0259,PORTAGE PUBLIC LIBRARY,253 W. EDGEWATER ST.,PORTAGE,53901,2117,COLUMBIA,6087424959,www.scls.lib.wi.us/por,CI,CI2,19649,1,0,0,2,4,4.25,8.25,521168,525,1200,69123,592016,73906,1351,16041,91298,592016,60178,8370,6550,2506,3136,166712,21216,11464,222820,58740,217,207,5809,5704,10,28860,-89.460345,43.53868,55196,32,2
WI,WI0260,POY SIPPI PUBLIC LIBRARY,W2251 COMMERCIAL ST.,POY SIPPI,54967,345,WAUSHARA,9209875737,www.poysippilibrary.org,CI,CI2,1566,1,0,0,0,0.75,0,0.75,34076,0,0,5607,39683,4533,0,2536,7069,36953,11982,11266,3828,3173,1404,9602,1791,461,25866,7461,69,52,663,498,4,2202,-88.993775,44.13612,24760,42,6
WI,WI0261,POYNETTE AREA PUBLIC LIBRARY,118 N. MAIN ST.,POYNETTE,53955,368,COLUMBIA,6086357577,www.poynettelibrary.com,CI,CI2,5582,1,0,0,0,1,1.33,2.33,136171,161,0,12000,148332,8962,270,3352,12584,139805,17907,8370,5034,2359,2782,33488,988,3357,57161,18621,88,58,755,456,4,10920,-89.402751,43.39083,55196,42,2
WI,WI0262,JOSEPH W. & EMMA L. WACHUTE MEMORIAL LIBRARY,125 S. WACOUTA AVE.,PRAIRIE DU CHIEN,53821,1633,CRAWFORD,6083266211,www.prairieduchien-wi.gov/internal/library_home.htm,CI,CI2,12472,1,0,0,1,4,0,4,285761,0,886,21596,308243,44272,0,10704,54976,303457,32985,0,5079,3378,2912,34000,475,7138,75459,24667,42,36,1342,1164,6,10616,-91.14514,43.05129,16885,33,3
WI,WI0263,PRAIRIE DU SAC PUBLIC LIBRARY,560 PARK AVE.,PRAIRIE DU SAC,53578,1105,SAUK,6086438318,www.pdslibrary.org,CI,CI2,6076,1,0,0,1.8,2.8,2.88,5.68,306681,590,1200,13884,322355,34596,810,14675,50081,322355,43197,8370,6578,3833,3224,74300,7788,4123,137118,58270,334,289,8144,7702,11,23528,-89.721884,43.2913,59013,32,2
WI,WI0265,PRESCOTT PUBLIC LIBRARY,800 BORNER ST. N.,PRESCOTT,54021,2012,PIERCE,7152625555,www.prescottpubliclibrary.org,CI,CI2,5780,1,0,0,0,2.28,1.58,3.86,201856,0,0,8788,210644,21713,0,13328,35041,226231,25799,4723,5435,2714,2650,55646,7409,4351,70685,27973,146,140,4526,3439,6,5838,-92.78684,44.75876,40254,31,3
WI,WI0266,PRESQUE ISLE COMMUNITY LIBRARY,8306 SCHOOL LOOP RD.,PRESQUE ISLE,54557,200,VILAS,7156867613,presqueisle.wislib.org,CI,CI2,615,1,0,0,0,1,0.35,1.35,58031,2500,273,10405,71209,7785,0,3047,10832,71209,15376,11545,3048,4907,1560,14168,120,1040,19423,2558,46,33,981,577,9,3698,-89.728547,46.21345,21919,43,8
WI,WI0267,PRINCETON PUBLIC LIBRARY,424 W. WATER ST.,PRINCETON,54968,234,GREEN LAKE,9202956777,www.princetonpublib.org,CI,CI2,3355,1,0,0,0,1.75,0.08,1.83,98161,0,0,6982,105143,12603,0,7741,20344,102505,14482,11266,4781,4098,2652,30000,2200,2112,54189,14972,178,75,1985,915,7,7500,-89.127498,43.84975,18566,43,6
WI,WI0268,RACINE PUBLIC LIBRARY,75 SEVENTH ST.,RACINE,53403,1200,RACINE,2626369170,www.racinelibrary.info,CI,CI2,140007,1,0,2,16,16,34.5,50.5,3442900,20000,1250,262189,3726339,249770,1624,71229,322623,3689827,287603,8805,22332,19504,4714,322549,69706,59605,964865,422835,469,322,12315,10108,54,65402,-87.781891,42.72598,199510,13,1
WI,WI0269,HUTCHINSON MEMORIAL LIBRARY,228 N. HIGH ST.,RANDOLPH,53956,1216,DODGE,9203264640,www.randolph.lib.wi.us,CI,CI2,2558,1,0,0,1,2.38,0.28,2.66,129568,200,500,0,130268,21779,0,6565,28344,138500,24636,8825,4791,2772,2821,15503,2058,1470,36865,11186,9,4,228,168,6,3742,-89.006933,43.53967,87912,42,6
WI,WI0270,LAKEVIEW COMMUNITY LIBRARY,112 BUTLER ST.,RANDOM LAKE,53075,326,SHEBOYGAN,9209944825,www.randomlake.lib.wi.us,MJ,CI2,6036,1,0,0,0,4,0.38,4.38,198441,0,1456,10598,210495,18407,475,5725,24607,217722,36357,10382,3839,2655,2714,59694,9496,4236,64892,21699,216,130,3956,2546,5,5758,-87.960951,43.55017,114561,42,6
WI,WI0271,REDGRANITE PUBLIC LIBRARY,135 W. BANNERMAN AVE.,REDGRANITE,54970,291,WAUSHARA,9205660176,www.redgranitelibrary.org,CI,CI2,3303,1,0,0,0,0.9,0,0.9,37512,0,0,2263,39775,3741,0,1318,5059,40574,12245,11266,3775,1955,1248,30000,4500,1353,23776,7925,42,42,190,190,4,2934,-89.102692,44.04386,24760,42,6
WI,WI0272,REEDSBURG PUBLIC LIBRARY,370 VINE ST.,REEDSBURG,53959,1916,SAUK,6085243316,www.reedsburglibrary.org,CI,CI2,18372,1,0,0,1,4,4.35,8.35,613370,1486,1200,0,616056,72750,1621,23692,98063,616056,68745,8370,7710,7304,3270,246664,16063,9940,262377,85727,567,537,12483,12045,24,63492,-90.005591,43.5315,59013,33,3
WI,WI0273,RHINELANDER DISTRICT LIBRARY,106 N. STEVENS ST.,RHINELANDER,54501,3158,ONEIDA,7153651070,M,MJ,CO2,23810,1,0,0,2,3,11.31,14.31,830277,0,4172,7628,842077,51857,829,8246,60932,842258,75765,8805,7195,4430,2860,135000,18000,14105,194729,82672,678,593,18982,15482,21,20925,-89.411303,45.63911,36031,33,7
WI,WI0274,RIB LAKE PUBLIC LIBRARY,645 PEARL ST.,RIB LAKE,54470,188,TAYLOR,7154275769,wvls.lib.wi.us/RibLakePL,CI,CI2,2750,1,0,0,0.73,0.73,0.95,1.68,69150,0,450,1200,70800,18000,0,9550,27550,64493,17251,8805,3903,3013,1976,9000,800,1610,35321,6098,6,4,325,250,10,6926,-90.205363,45.31729,19308,43,7
WI,WI0275,RICE LAKE PUBLIC LIBRARY,2 E. MARSHALL ST.,RICE LAKE,54868,1785,BARRON,7152344861,ricelakelibrary.org,CI,CI2,21248,1,0,0,3,4,6.86,10.86,676544,0,649,46047,723240,60570,2061,14843,77474,657174,42700,4723,6476,2747,3272,148606,12805,11458,224648,80412,293,257,9570,9026,10,26854,-91.733279,45.50427,45590,33,7
WI,WI0276,BREWER PUBLIC LIBRARY,325 N. CENTRAL AVE.,RICHLAND CENTER,53581,1802,RICHLAND,6086476444,rc.swls.org,CI,CI2,16073,1,0,0,0,6.75,0,6.75,340826,0,385,0,341211,16601,0,6192,22793,341212,60619,0,6928,7052,2652,131191,12000,8425,127030,50830,62,60,1766,1676,22,29078,-90.38522,43.33765,17982,33,3
WI,WI0277,RIO COMMUNITY LIBRARY,324 W. LYONS ST.,RIO,53960,306,COLUMBIA,9209923206,www.scls.lib.wi.us/rio,CI,CI2,3030,1,0,0,0,1.5,0.93,2.43,104495,450,0,28339,133284,9629,270,3499,13398,132554,23577,0,1126,2368,2028,14820,3588,2598,34976,13898,36,35,1290,1273,5,2548,-89.240983,43.44559,55196,42,2
WI,WI0278,RIPON PUBLIC LIBRARY,120 JEFFERSON ST.,RIPON,54971,1395,FOND DU LAC,9207486160,www.riponlibrary.org,CI,CI2,11111,1,0,0,2,3,4.35,7.35,510997,0,0,32205,543202,52379,0,18760,71139,530934,49260,11266,6770,5624,3192,95497,6570,5833,154153,45256,156,115,3973,3484,8,22000,-88.839365,43.84715,99453,32,6
WI,WI0279,RIVER FALLS PUBLIC LIBRARY,140 UNION ST.,RIVER FALLS,54022,45,PIERCE,7154250905,www.rfcity.org/library,CI,CI2,24809,1,0,0,4,5,8.3,13.3,936209,720,0,37704,974633,61311,1919,19854,83084,979548,78064,4723,10169,7366,2925,190670,8260,15808,358720,90558,264,199,5427,4012,26,40544,-92.622017,44.8641,40254,32,3
WI,WI0280,HAZEL MACKIN COMMUNITY LIBRARY,107 W. MAIN ST.,ROBERTS,54023,88,ST. CROIX,7157493849,www.robertspubliclibrary.org,CI,CI2,3846,1,0,0,0,1.48,0.03,1.51,136076,0,0,2015,138091,20481,0,20425,40906,141391,14116,4723,5004,1536,1612,15800,1510,1167,40425,23370,27,13,350,280,2,1408,-92.553131,44.98306,82487,42,3
WI,WI0281,ROCHESTER PUBLIC LIBRARY,208 W. SPRING ST.,ROCHESTER,53167,245,RACINE,2625343533,www.rochester.lib.wi.us,MJ,CI2,5071,1,0,0,0,1.6,2,3.6,144317,0,1547,3665,149529,16831,412,9545,26788,149992,17548,8805,4510,2358,2436,24303,1650,679,41122,23562,210,184,4968,4698,8,4580,-88.209545,42.76519,199510,32,1
WI,WI0282,ROCK SPRINGS PUBLIC LIBRARY,101 FIRST ST.,ROCK SPRINGS,53961,56,SAUK,6085225050,www.rockspringslibrary.com,CI,CI2,643,1,0,0,0,0.98,0,0.98,36271,478,1200,5751,43700,1893,68,822,2783,39413,6466,8370,3959,1304,1250,4428,650,361,5350,1462,62,56,659,528,5,1950,-89.92678,43.45299,59013,42,3
WI,WI0283,COMMUNITY LIBRARY,24615 89TH ST.,SALEM,53168,8918,KENOSHA,2628433348,www.community.lib.wi.us,MJ,CI2,31099,1,2,0,3,5,17.67,22.67,1017045,72445,0,33221,1122711,86367,15811,20842,123020,1155690,93741,8825,9220,6198,6812,124851,25094,93943,180398,63664,545,442,10291,8958,38,25418,-88.110994,42.5465,164465,22,1
WI,WI0285,SAUK CITY PUBLIC LIBRARY,515 WATER ST.,SAUK CITY,53583,1159,SAUK,6086438346,www.saukcitylibrary.org,CI,CI2,6192,1,0,0,0,1.38,3.75,5.13,321496,637,1200,19089,342422,27342,924,8552,36818,321408,40626,8370,5646,2801,2990,56908,2800,3859,131173,53441,256,214,5687,4913,7,13970,-89.720569,43.27518,59013,32,2
WI,WI0289,MUEHL PUBLIC LIBRARY,436 N. MAIN ST.,SEYMOUR,54165,1021,OUTAGAMIE,9208332725,www.owls.lib.wi.us/sey,CI,CI2,7670,1,0,0,0,1.8,2.1,3.9,169124,0,254,14151,183529,18926,0,10387,29313,183842,27753,13261,4512,3243,2634,57920,1488,4111,86183,36930,181,152,4111,3908,9,10585,-88.330049,44.5158,174993,31,8
WI,WI0290,BRIGHAM MEMORIAL LIBRARY,131 PLAIN ST.,SHARON,53585,9506,WALWORTH,2627364249,www.sharon.lib.wi.us,CI,CI2,2463,1,0,0,0,1,1.08,2.08,87020,0,750,4145,91915,5500,0,3250,8750,87770,10698,8805,4094,2531,2236,9934,1982,1139,27715,11482,97,62,1108,902,4,7485,-88.730739,42.50317,100749,42,1
WI,WI0291,SHAWANO CITY-COUNTY LIBRARY,128 S. SAWYER ST.,SHAWANO,54166,2496,SHAWANO,7155263829,www.nfls.lib.wi.us/sha,CC,CO1,42455,1,5,1,1,1,10.5,11.5,655779,0,0,35665,691444,73554,0,25054,98608,706151,130345,13261,9496,9754,9722,161534,93169,18586,352901,127969,549,250,12241,7158,24,22726,-88.607475,44.78142,40972,42,8
WI,WI0292,MEAD PUBLIC LIBRARY,710 N. 8TH ST.,SHEBOYGAN,53081,4563,SHEBOYGAN,9204593400,www.sheboygan.lib.wi.us,CI,CI2,69320,1,0,0,9.5,11.5,33.85,45.35,3250271,47381,9128,266101,3572881,327270,0,129213,456483,3367189,311173,10382,16883,21254,3016,336090,36425,51366,819127,267969,689,576,15227,12807,41,88473,-87.712965,43.75215,114561,13,6
WI,WI0293,SHEBOYGAN FALLS MEMORIAL LIBRARY,330 BUFFALO ST.,SHEBOYGAN FALLS,53085,140,SHEBOYGAN,9204677908,www.sheboyganfalls.lib.wi.us/sheboyganfalls.html,CI,CI2,12171,1,0,0,0,3.98,1.53,5.51,333824,0,669,0,334493,43593,2147,17703,63443,319184,45936,10382,6435,6066,3100,93042,2028,6246,126604,33147,101,89,3061,2306,4,8452,-87.813241,43.72982,114561,23,6
WI,WI0294,SHELL LAKE PUBLIC LIBRARY,501 1ST ST.,SHELL LAKE,54871,318,WASHBURN,7154682074,shelllakeonline.com/library,CI,CI2,4253,1,0,0,0,0.88,1.15,2.03,104713,2500,277,8706,116196,8570,0,6545,15115,127816,13023,11545,2950,959,2128,32445,1352,2287,43275,12344,98,87,1271,1048,7,7163,-91.925513,45.743,16712,42,7
WI,WI0295,SHIOCTON PUBLIC LIBRARY,W7740 PINE ST.,SHIOCTON,54170,8632,OUTAGAMIE,9209863933,www.shiocton.org,CI,CI2,2196,1,0,0,0,0.8,0.7,1.5,51905,0,0,3900,55805,8084,0,1200,9284,54516,9409,13261,3411,2557,1508,13104,1438,1040,18501,7614,75,61,1220,1011,5,6108,-88.577678,44.44284,174993,42,8
WI,WI0296,SHOREWOOD PUBLIC LIBRARY,3920 N. MURRAY AVENUE,SHOREWOOD,53211,2303,MILWAUKEE,4148472670,www.shorewoodlibrary.org,CI,CI2,13433,1,0,0,4.75,4.75,7.13,11.88,754860,14984,0,68779,838623,56662,7663,25043,89368,869388,63720,11942,10394,7319,2990,233294,16236,12020,319797,115127,283,283,5859,5859,22,45329,-87.885025,43.08785,953328,21,5
WI,WI0297,MCCOY PUBLIC LIBRARY,190 N. JUDGEMENT ST.,SHULLSBURG,53586,580,LAFAYETTE,6089654424,www.shullsburgwisconsin.org/shullsburgmccoylibrary.html,CI,CI2,2902,1,1,0,0,0.88,0.05,0.93,55549,0,386,22569,78504,10288,0,3252,13540,60089,12042,0,4422,1461,1872,11257,350,1455,17836,8351,223,187,3361,3090,5,3375,-90.231022,42.57252,15871,42,3
WI,WI0298,SLINGER COMMUNITY LIBRARY,220 SLINGER RD.,SLINGER,53086,9586,WASHINGTON,2626446171,www.slinger.lib.wi.us,CI,CI2,11851,1,0,0,1,1.8,2.98,4.78,311631,75,500,23055,335261,29632,0,10966,40598,303791,29880,8825,5292,2423,2700,44722,6000,5311,114909,58720,158,144,5418,5092,6,2743,-88.280504,43.33063,129477,41,5
WI,WI0299,SOLDIERS GROVE PUBLIC LIBRARY,"102 PASSIVE SUN DR., SOLAR TOWN CEN",SOLDIERS GROVE,54655,6,CRAWFORD,6086245815,www.swls.org/member.so.html,CI,CI2,2810,1,0,0,0,1,0.08,1.08,73502,0,386,2454,76342,10800,358,7200,18358,75567,11197,0,4139,932,1664,8204,2750,1094,14390,4136,27,20,741,444,6,4107,-90.767193,43.3886,16885,43,3
WI,WI0300,SOMERSET PUBLIC LIBRARY,208 HUD ST.,SOMERSET,54025,129,ST. CROIX,7152475228,www.somersetlibrary.org,CI,CI2,5802,1,0,0,0,1,1.48,2.48,148824,0,0,834,149658,8112,0,800,8912,156247,16393,4723,4558,1314,2240,54466,2750,3632,56728,25583,96,92,1531,1414,3,6444,-92.687536,45.14568,82487,42,3
WI,WI0301,SOUTH MILWAUKEE PUBLIC LIBRARY,1907 10TH AVE.,SOUTH MILWAUKEE,53172,2003,MILWAUKEE,4147688195,www.southmilwaukee.org/library,CI,CI2,21326,1,0,0,6.4,6.4,3.1,9.5,825106,0,0,20806,845912,59640,7103,23197,89940,823244,127564,11942,10821,10439,2850,59151,25147,11476,211013,68714,151,60,4794,3460,10,6322,-87.860594,42.91233,953328,21,4
WI,WI0302,SPARTA FREE LIBRARY,124 W. MAIN ST.,SPARTA,54656,347,MONROE,6082692010,www.spartalibrary.org,CI,CI2,17591,1,0,0,2,2,4.23,6.23,355815,8300,900,25866,390881,32327,150,8907,41384,404663,43769,8396,5335,2655,2874,117777,4983,7937,129239,43286,270,233,3545,2983,9,11896,-90.811333,43.94442,43350,32,3
WI,WI0303,SPOONER MEMORIAL LIBRARY,421 HIGH ST.,SPOONER,54801,1431,WASHBURN,7156352792,www.spoonerlibrary.org,CI,CI2,13393,1,0,0,0,1.45,2.9,4.35,213031,1732,2205,0,216968,24271,0,8876,33147,215511,28840,11545,4128,1732,2912,81493,18000,6664,94559,27262,58,56,1467,1342,10,14622,-91.891245,45.82687,16712,33,7
WI,WI0304,SPRING GREEN COMMUNITY LIBRARY,230 E. MONROE ST.,SPRING GREEN,53588,8035,SAUK,6085882276,www.springgreenlibrary.org,CI,CI2,3984,1,0,0,1,1,3.33,4.33,222636,475,0,8127,231238,28749,0,17074,45823,229964,27967,8370,4532,3378,2444,30127,4786,2853,96813,30354,178,167,3086,2855,6,11383,-90.066128,43.1778,59013,43,3
WI,WI0305,SPRING VALLEY PUBLIC LIBRARY,E. 121 S. 2ND ST.,SPRING VALLEY,54767,217,PIERCE,7157784590,springvalleylibrary.org,CI,CI2,2565,1,0,0,0,0.85,0.5,1.35,68494,0,0,2013,70507,9077,0,1321,10398,55943,16636,4723,4624,1501,1560,14000,70,1221,31685,15788,23,22,463,455,5,2200,-92.271218,44.84454,40254,42,3
WI,WI0307,D.R. MOON MEMORIAL LIBRARY,154 4TH AVE.,STANLEY,54768,112,CHIPPEWA,7156442004,www.stanleylibrary.org/,CI,CI2,4265,1,0,0,0,1,1.13,2.13,123477,0,0,1388,124865,13704,0,3223,16927,116615,18767,4723,5001,1007,1976,3190,1025,985,29465,8611,51,40,668,602,8,5541,-90.952074,44.94447,60456,42,7
WI,WI0308,JEAN M. THOMSEN MEMORIAL LIBRARY,105 N. GERSHWIN ST.,STETSONVILLE,54480,99,TAYLOR,7156782892,www.geocities.com/bookit_44,CI,CI2,1611,1,0,0,0,1,0.13,1.13,58688,0,0,14155,72843,10762,0,4959,15721,71994,13390,8805,3751,1880,1772,5800,819,905,15736,5104,24,15,368,305,9,5243,-90.311907,45.07718,19308,42,7
WI,WI0309,PORTAGE COUNTY PUBLIC LIBRARY,1001 MAIN ST.,STEVENS POINT,54481,2860,PORTAGE,7153461544,M,CO,CO2,69454,1,3,0,5.3,6,24.31,30.31,1742748,1950,1200,36900,1782798,97087,4575,24295,125957,1782798,175990,1700,9910,9379,6827,355356,16928,22513,483035,168959,711,685,15009,14188,28,64085,-89.584233,44.52341,68744,32,7
WI,WI0310,STOUGHTON PUBLIC LIBRARY,304 S. 4TH ST.,STOUGHTON,53589,2101,DANE,6088736281,www.stoughtonpubliclibrary.org,CI,CI2,19543,1,0,0,2,3,8.15,11.15,699279,525,1200,48230,749234,60918,1891,24623,87432,744452,58392,8370,7505,6852,3328,160642,15366,10671,271925,85330,193,167,4842,4443,16,37668,-89.217914,42.91661,482705,21,2
WI,WI0311,STRUM PUBLIC LIBRARY,114  5TH AVE. S.,STRUM,54770,10,TREMPEALEAU,7156953848,www.wrlsweb.org/memstrum.htm,CI,CI2,1615,1,0,0,1,1.5,0.28,1.78,96648,2300,0,0,98948,8738,0,1223,9961,91992,9033,8396,3799,752,2340,2300,100,382,11565,4234,88,38,1378,590,4,872,-91.392571,44.54977,27790,42,3
WI,WI0312,DOOR COUNTY LIBRARY,107 S. 4TH AVE.,STURGEON BAY,54235,2203,DOOR,9207436578,www.dcl.lib.wi.us,CO,CO1,30303,1,7,0,4,4,15.12,19.12,1546058,7920,4290,26350,1584618,111385,800,24869,137054,1432284,118064,13261,10328,12092,11474,335433,19864,24311,381812,86333,397,281,9621,8097,54,71108,-87.374218,44.83383,27771,43,8
WI,WI0313,ST. FRANCIS PUBLIC LIBRARY,4230 S. NICHOLSON AVE.,ST. FRANCIS,53235,5803,MILWAUKEE,4144817323,www.stfrancislibrary.com,CI,CI2,8958,1,0,0,3,6.25,2.3,8.55,507292,23126,0,19556,549974,43943,4761,10914,59618,513526,52892,11942,7077,6714,2892,86000,8400,4917,125908,36136,394,103,4729,1809,22,22963,-87.872703,42.9673,953328,21,4
WI,WI0314,SUN PRAIRIE PUBLIC LIBRARY,1350 LINNERUD DRIVE,SUN PRAIRIE,53590,2631,DANE,6088257323,www.sunprairiepubliclibrary.org,CI,CI2,33704,1,0,0,5.5,5.5,16.6,22.1,1503360,713,1200,80635,1585908,130341,4946,52106,187393,1538252,90248,8370,11103,7854,3544,271447,39468,18961,540272,336515,399,297,19292,17873,31,90895,-89.233549,43.17537,482705,21,2
WI,WI0315,SUPERIOR PUBLIC LIBRARY,1530 TOWER AVE.,SUPERIOR,54880,2563,DOUGLAS,7153948860,www.ci.superior.wi.us,CI,CO1,44326,1,2,0,3,4.75,14.77,19.52,1282484,33761,2347,60363,1378955,55010,0,16543,71553,1247143,135796,11545,9406,11387,3661,208744,8000,26508,394541,138947,169,161,3958,3723,11,34776,-92.103813,46.72019,43774,42,7
WI,WI0318,THERESA PUBLIC LIBRARY,290 MAYVILLE ST.,THERESA,53091,307,DODGE,9204882342,www.theresa.lib.wi.us,MJ,CI2,2617,1,0,0,0,1.38,0,1.38,57518,0,500,11198,69216,11876,0,6777,18653,68970,20073,8825,4180,2049,1768,7300,2200,936,23580,9235,30,16,779,385,6,3375,-88.45238,43.5196,87912,42,6
WI,WI0319,THORP PUBLIC LIBRARY,401 S. CONWAY DR.,THORP,54771,407,CLARK,7156695953,wvls.lib.wi.us/ThorpPL,CI,CI2,4381,1,0,0,0,0.98,0.8,1.78,101239,0,486,2978,104703,13036,0,1689,14725,100320,23394,8805,4111,1339,2080,14924,1248,2402,40852,18847,22,21,497,487,5,3752,-90.793589,44.95624,33553,43,7
WI,WI0320,EDWARD U. DEMMER MEMORIAL LIBRARY,6961 W. SCHOOL ST.,THREE LAKES,54562,760,ONEIDA,7155463391,www.demmerlibrary.org,CI,CI2,2828,1,0,0,0,0.9,3,3.9,231872,0,437,16853,249162,23703,150,3931,27784,242844,29375,8805,5424,1748,2652,65382,3437,2745,51608,16711,90,57,1514,786,7,10171,-89.169906,45.79854,36031,43,8
WI,WI0321,TOMAH PUBLIC LIBRARY,716 SUPERIOR AVE.,TOMAH,54660,2098,MONROE,6083747470,www.tomah.com/tomahpl,CI,CI2,19665,1,0,0,0,2,4.95,6.95,381812,4150,0,13702,399664,39239,0,12755,51994,401871,42016,0,2411,4712,3172,114633,18613,18578,154685,51382,272,261,9322,9274,7,18195,-90.504527,43.9803,43350,33,3
WI,WI0322,TOMAHAWK PUBLIC LIBRARY,300 W. LINCOLN AVE.,TOMAHAWK,54487,1202,LINCOLN,7154532455,wvls.lib.wi.us/TomahawkPL,CI,CI2,8067,1,0,0,0,2.95,2.73,5.68,363766,0,1213,28937,393916,35945,0,6461,42406,338222,53180,8805,7082,4250,2596,40071,3800,7734,107757,36858,151,141,3731,3495,9,9994,-89.733724,45.47392,29499,32,7
WI,WI0323,SHIRLEY M. WRIGHT MEMORIAL LIBRARY,11455 FREMONT ST.,TREMPEALEAU,54661,9247,TREMPEALEAU,6085346197,www.wrlsweb.org/trempealeau,CI,CI2,4383,1,0,0,0,1,0.93,1.93,94836,2500,0,25593,122929,12547,0,18807,31354,127786,16377,8396,4795,1720,2184,10000,2000,2302,33957,15234,179,102,3256,2365,8,6798,-91.431232,44.0041,27790,42,3
WI,WI0324,TURTLE LAKE PUBLIC LIBRARY,114 MARTIN AVE. EAST,TURTLE LAKE,54889,272,BARRON,7159864618,www.turtlelakepubliclibrary.org,CI,CI2,3120,1,0,0,0,1.88,0.13,2.01,93712,1100,0,4256,99068,9187,0,3235,12422,89387,15755,5001,4958,2351,1976,21238,202,2482,49107,17168,26,19,394,340,3,10876,-92.126656,45.4185,45590,43,7
WI,WI0325,LESTER PUBLIC LIBRARY,1001 ADAMS ST.,TWO RIVERS,54241,3544,MANITOWOC,9207938888,www.tworivers.lib.wi.us,CI,CI2,18698,1,0,0,2,5,8,13,721384,7282,455,128438,857559,68749,1500,20502,90751,858009,62227,13064,10830,8086,3068,151757,16656,15239,206151,63759,351,273,9089,8280,16,15953,-87.569868,44.14429,80641,32,6
WI,WI0326,GRAHAM PUBLIC LIBRARY,1215 MAIN ST.,UNION GROVE,53182,1303,RACINE,2628782910,www.uniongrove.lib.wi.us,CI,CI2,8447,1,0,0,0,1.65,3.3,4.95,251534,0,0,11851,263385,25587,0,9190,34777,260400,39225,8805,4986,1364,3016,64422,8462,4133,61716,26257,52,37,1890,1733,12,11127,-88.051843,42.68481,199510,31,1
WI,WI0327,VERONA PUBLIC LIBRARY,500 SILENT STREET,VERONA,53593,1252,DANE,6088457180,veronapubliclibrary.org,CI,CI2,20577,1,0,0,4,4,8.5,12.5,897843,525,1200,80219,979787,91297,2081,28262,121640,994762,69928,8370,9834,5516,3276,212656,24760,12149,532268,252562,486,448,20616,17910,15,40642,-89.529135,42.99316,482705,21,2
WI,WI0328,LESTER PUBLIC LIBRARY OF VESPER,6550 VIRGINIA ST.,VESPER,54489,9999,WOOD,7155694669,www.scls.lib.wi.us/ves,CI,CI2,998,1,0,0,0.58,1,0,1,22544,450,1200,10558,34752,5749,45,68,5862,34752,11786,0,95,405,1716,4500,151,814,8759,4278,65,57,1789,1684,3,1193,-89.969212,44.48396,73756,42,7
WI,WI0329,VIOLA PUBLIC LIBRARY,137 S. MAIN ST.,VIOLA,54664,7037,RICHLAND,6086271850,www.swls.org/member.vi.html,CI,CI2,1359,1,0,0,0,0.75,0.15,0.9,75769,0,386,1395,77550,8897,0,1799,10696,62469,16539,0,4366,2384,1456,7552,425,1137,10795,1823,8,7,58,37,5,3087,-90.666379,43.50481,17982,43,3
WI,WI0330,MCINTOSH MEMORIAL LIBRARY,118 E. JEFFERSON ST.,VIROQUA,54665,1613,VERNON,6086377151,www.wrlsweb.org/viroqua,CI,CI2,11388,1,0,0,0,2.78,3.63,6.41,335890,6100,900,2799,345689,14900,0,3000,17900,337990,34579,8396,6741,3570,2808,81786,5012,7988,125394,45213,390,287,3926,3204,10,19500,-90.889032,43.55535,29090,32,3
WI,WI0331,WABENO PUBLIC LIBRARY,4556 N. BRANCH ST.,WABENO,54566,340,FOREST,7154734131,wvls.lib.wi.us/WabenoPL/,CI,CI2,1758,1,0,0,0,0.55,0.18,0.73,26139,0,0,6000,32139,10462,0,1677,12139,32139,7932,8805,3974,987,1390,5453,780,1007,5669,1049,38,37,371,356,2,1425,-88.663467,45.43913,9846,43,8
WI,WI0332,WALWORTH MEMORIAL LIBRARY,101 MAPLE AVE.,WALWORTH,53184,280,WALWORTH,2622756322,www.lakeshores.lib.wi.us/about/member_walworth.htm,CI,CI2,5240,1,0,0,0,2.73,0.08,2.81,140222,0,750,0,140972,23495,0,7675,31170,140677,24734,8805,5097,1729,2496,43458,3992,1950,50188,23889,265,115,4135,2935,5,5,-88.599417,42.52992,100749,32,1
WI,WI0333,WASHBURN PUBLIC LIBRARY,307 WASHINGTON AVE.,WASHBURN,54891,248,BAYFIELD,7153736172,www.cityofwashburn.org/library.htm,CI,CI2,5063,1,0,0,0,1,1.98,2.98,157193,2925,900,4000,165018,18250,0,10389,28639,161918,16736,11545,3614,2457,2704,96573,7000,2443,55145,18335,130,70,2660,2530,6,33000,-90.894798,46.6733,14926,42,7
WI,WI0334,WATERFORD PUBLIC LIBRARY,101 N. RIVER ST.,WATERFORD,53185,4149,RACINE,2625343988,www.waterford.lib.wi.us,CI,CI2,24223,1,0,0,1,5.63,5.41,11.04,575263,500,6500,38426,620689,62520,2660,15898,81078,626179,55370,8805,7953,5273,2952,80603,5300,8483,233444,116190,390,270,10168,9203,14,11695,-88.214164,42.7633,199510,32,1
WI,WI0335,KARL JUNGINGER MEMORIAL LIBRARY,625 N. MONROE ST.,WATERLOO,53594,1183,JEFFERSON,9204783344,www.waterloo.lib.wi.us,CI,CI2,4236,1,0,0,3,3,1.43,4.43,275467,0,0,70248,345715,14569,0,4899,19468,291489,26519,8825,4955,1644,2184,46889,12410,3724,45395,21972,198,164,3963,3736,8,6769,-88.990458,43.19131,80792,41,2
WI,WI0336,WATERTOWN PUBLIC LIBRARY,100 S. WATER ST.,WATERTOWN,53094,4320,JEFFERSON,9202624090,www.watertown.lib.wi.us,CI,CI2,29305,1,0,0,3,4,10.13,14.13,851835,2117,1250,43472,898674,75805,5952,45190,126947,799277,104057,8825,12467,6215,2964,172032,9899,27723,358085,156156,167,159,3377,3124,9,17959,-88.726109,43.19436,80792,32,6
WI,WI0337,WAUKESHA PUBLIC LIBRARY,321 WISCONSIN AVE.,WAUKESHA,53186,4786,WAUKESHA,2625243680,www.waukesha.lib.wi.us,CI,CI2,93896,1,0,0,13.15,14.15,29.88,44.03,3441113,82163,0,165499,3688775,285084,21021,116785,422890,4124335,273067,7007,20140,19624,3453,548000,68040,66058,1384612,517706,628,493,27204,21782,82,152310,-88.232961,43.00971,380629,13,5
WI,WI0338,WAUNAKEE PUBLIC LIBRARY,710 SOUTH ST.,WAUNAKEE,53597,1638,DANE,6088494217,www.waunakeepubliclibrary.org,CI,CI2,14928,1,0,0,2,2,7.48,9.48,643147,1259,1200,25347,670953,48204,4952,21587,74743,663764,62463,8370,8959,4584,3276,114531,8190,8681,259491,128246,251,245,8640,8485,14,12596,-89.455181,43.1853,482705,21,2
WI,WI0339,WAUPACA AREA PUBLIC LIBRARY,107 S. MAIN ST.,WAUPACA,54981,1799,WAUPACA,7152584414,www.waupacalibrary.org,CI,CI2,19118,1,0,0,3,6.6,7.9,14.5,785960,0,0,18340,804300,54630,0,24659,79289,791857,66911,13261,7989,7324,3153,189799,19746,12577,300424,94437,403,324,20729,9515,16,39173,-89.084846,44.35791,51858,32,8
WI,WI0340,WAUPUN PUBLIC LIBRARY,123 S. FOREST ST.,WAUPUN,53963,391,DODGE,9203247925,www.waupunpubliclibrary.org,CI,CI2,12766,1,0,0,2,2,7.3,9.3,596660,1060,500,15722,613942,69455,6056,8458,83969,573862,58151,8825,7522,2970,3068,77858,3940,9050,124669,42429,42,38,2310,2244,5,10710,-88.73223,43.63176,87912,32,6
WI,WI0341,MARATHON COUNTY PUBLIC LIBRARY,300 N. FIRST ST.,WAUSAU,54403,5405,MARATHON,7152617200,www.mcpl.us,CO,CO1,131465,1,8,0,6,6,47.2,53.2,3809222,46742,1733,156522,4014219,295009,29728,61734,386471,3730408,298064,8805,17664,13657,18028,569951,75020,81213,942107,347357,1299,1010,34987,27144,77,127318,-89.630396,44.95916,130962,42,7
WI,WI0342,WAUTOMA PUBLIC LIBRARY,410 W. MAIN ST.,WAUTOMA,54982,269,WAUSHARA,9207872988,www.wautomalibrary.org,CI,CI2,9107,1,0,0,0,2.43,0,2.43,148631,0,0,15487,164118,22153,0,4348,26501,156017,21386,11266,5700,5190,2500,28700,2400,4545,118797,19839,33,32,711,621,8,15458,-89.291729,44.07535,24760,43,6
WI,WI0343,WAUWATOSA PUBLIC LIBRARY,7635 W. NORTH AVE.,WAUWATOSA,53213,1778,MILWAUKEE,4144718484,tpublib.fp.execpc.com,CI,CI2,46116,1,0,0,12.7,12.7,14.34,27.04,2237559,103088,0,203776,2544423,160238,30598,79818,270654,1980225,198984,11942,14624,14528,3297,413233,118365,37415,845703,323309,610,347,19840,14517,22,77384,-88.008926,43.06071,953328,21,5
WI,WI0344,WEST ALLIS PUBLIC LIBRARY,7421 W. NATIONAL AVE.,WEST ALLIS,53214,4699,MILWAUKEE,4143028501,www.ci.west-allis.wi.us/library/library_services.htm,CI,CI2,63248,1,0,0,8.3,8.3,22.8,31.1,2044186,161956,5620,152408,2364170,200292,57863,35811,293966,2217221,217983,11942,17305,14475,3228,287970,68194,34116,688048,267651,260,235,8216,7510,31,71890,-88.005238,43.0121,953328,13,4
WI,WI0345,WEST BEND COMMUNITY MEMORIAL LIBRARY,630 POPLAR ST.,WEST BEND,53095,3246,WASHINGTON,2623355151,www.west-bendlibrary.org,CI,CI2,59731,1,0,0,9.5,9.5,10.75,20.25,1339390,41115,1250,30978,1412733,175166,17165,54374,246705,1447989,174027,8825,15924,11617,3324,298350,21690,52399,586518,242516,517,241,15779,12318,23,31121,-88.184086,43.42077,129477,32,5
WI,WI0346,WESTBORO PUBLIC LIBRARY,W4941 CENTER ST.,WESTBORO,54490,100,TAYLOR,7154275864,wvls.lib.wi.us/westboropl,CI,CI2,854,1,0,0,0,0.83,0.18,1.01,34031,0,0,602,34633,3096,0,1919,5015,35909,6052,8805,3686,1417,1092,4651,305,419,9612,687,8,4,137,76,5,1064,-90.297958,45.35366,19308,43,7
WI,WI0347,BEKKUM MEMORIAL PUBLIC LIBRARY,206 N. MAIN ST.,WESTBY,54667,1108,VERNON,6086344419,www.wrlsweb.org/westby,CI,CI2,5403,1,0,0,0,1.58,0.78,2.36,91274,3500,0,4701,99475,14416,0,8500,22916,96913,16799,8396,4443,1948,2607,18500,1950,2658,53875,20183,200,171,2958,2726,5,7500,-90.856651,43.65453,29090,42,3
WI,WI0348,ETHEL EVERHARD MEMORIAL LIBRARY,117 E. 3RD ST.,WESTFIELD,53964,355,MARQUETTE,6082962544,www.westfieldlibrary.org,CI,CI2,5490,1,0,0,0,1.75,0,1.75,102748,0,0,13117,115865,7422,0,3000,10422,111880,12052,11266,3954,2674,2184,22762,3000,1923,46705,9451,89,83,924,900,5,6614,-89.49283,43.88462,15060,43,6
WI,WI0349,WEYAUWEGA PUBLIC LIBRARY,301 S. MILL ST.,WEYAUWEGA,54983,6,WAUPACA,9208673742,www.wegalibrary.org,CI,CI2,3090,1,0,0,0,1,1.35,2.35,132501,0,0,0,132501,20145,1141,3335,24621,132500,18547,13261,4295,1991,2393,32093,2577,2020,39765,12024,87,68,1430,1155,5,8038,-88.934064,44.31963,51858,42,8
WI,WI0350,WHITEFISH BAY PUBLIC LIBRARY,5420 N. MARLBOROUGH DR.,WHITEFISH BAY,53217,5347,MILWAUKEE,4149644380,www.wfblibrary.org,CI,CI2,13891,1,0,0,4.52,4.52,6.02,10.54,709834,0,0,22032,731866,59607,0,8488,68095,731866,66889,11942,6808,6385,3020,231044,24816,11221,280923,134178,180,162,4259,3972,27,25272,-87.90076,43.114,953328,21,5
WI,WI0351,WHITEHALL PUBLIC LIBRARY,36245 PARK ST.,WHITEHALL,54773,36,TREMPEALEAU,7155384107,www.wrlsweb.org/memwhitehall.htm,CI,CI2,5092,1,0,0,0,0.98,0.5,1.48,79554,2500,0,2403,84457,21596,500,9721,31817,91629,18992,8396,4254,2519,2028,21718,1220,1889,39068,10431,51,48,1550,1350,4,5658,-91.318154,44.36729,27790,43,3
WI,WI0352,IRVIN L. YOUNG MEMORIAL LIBRARY,431 W. CENTER ST.,WHITEWATER,53190,1915,JEFFERSON,2624730530,www.whitewater.lib.wi.us,CI,CI2,16865,1,0,0,2,3,8.24,11.24,836375,1779,1275,31429,870858,89149,234,29765,119148,740847,80560,8825,10084,8028,3276,97102,4282,12245,184504,59494,146,137,3472,3291,5,15957,-88.736519,42.8331,80792,32,2
WI,WI0353,PATTERSON MEMORIAL LIBRARY,500 DIVISION ST.,WILD ROSE,54984,305,WAUSHARA,9206223835,www.wildroselibrary.org,CI,CI2,3412,1,0,0,0,2.2,0,2.2,101130,0,0,8600,109730,4082,0,5402,9484,109730,11059,11266,4372,3493,2260,19918,2471,1859,47559,22828,247,196,3755,3402,8,9959,-89.247202,44.17878,24760,43,6
WI,WI0354,BARRETT MEMORIAL LIBRARY,65 W. GENEVA ST.,WILLIAMS BAY,53191,9513,WALWORTH,2622452709,www.williamsbay.lib.wi.us,CI,CI2,6368,1,0,0,0,2.05,1.68,3.73,179291,1538,1550,19200,201579,23402,1063,9275,33740,184671,22301,8805,5570,3768,2724,50000,4200,2435,67931,18653,190,82,2097,1594,6,6266,-88.543792,42.5774,100749,32,1
WI,WI0355,WILTON PUBLIC LIBRARY,400 EAST ST.,WILTON,54670,280,MONROE,6084356710,www.wrlsweb.org/wilton/,CI,CI2,2597,1,0,0,0,0.7,0.58,1.28,58201,2100,0,3953,64254,7815,0,5055,12870,61825,15937,8396,3893,1615,1456,20368,2350,686,20871,11890,57,46,1611,1472,5,5225,-90.525316,43.81318,43350,43,3
WI,WI0356,WINCHESTER PUBLIC LIBRARY,2117 LAKE STREET,WINCHESTER,54557,9104,VILAS,7156862926,-3,CI,CI2,519,1,0,0,0.63,0.63,0,0.63,32650,2500,461,6611,42222,18048,0,1780,19828,48269,7753,11545,2542,936,1040,3828,200,215,5039,510,41,15,329,135,4,391,-89.728547,46.21345,21919,43,8
WI,WI0357,WINNECONNE PUBLIC LIBRARY,31 S. SECOND ST.,WINNECONNE,54986,518,WINNEBAGO,9205827091,www.winneconnelibrary.org,CI,CI2,6394,1,0,0,1,1,1.85,2.85,183948,0,0,10571,194519,17309,0,16759,34068,184945,26194,11266,5769,5082,2213,41025,624,3023,81327,27997,38,35,1785,1592,2,1236,-88.713714,44.1106,162111,41,6
WI,WI0358,WINTER PUBLIC LIBRARY,5129 N. MAIN ST.,WINTER,54896,340,SAWYER,7152662144,-3,MJ,CI2,2111,1,0,0,0,1,0.78,1.78,54891,2500,816,7553,65760,5426,0,985,6411,64861,6350,11545,2322,561,2236,14238,2114,934,24304,5307,18,12,236,173,4,5015,-91.011431,45.82161,17117,43,7
WI,WI0359,KILBOURN PUBLIC LIBRARY,620 ELM ST.,WISCONSIN DELLS,53965,1590,COLUMBIA,6082542146,www.dellslibrary.org,MJ,CI2,5849,1,0,1,1,3.25,3.3,6.55,622110,475,1200,9710,633495,56332,810,16856,73998,469706,38026,8370,5504,2121,3374,109160,18807,8457,95123,26911,265,208,4250,3758,22,67282,-89.7722,43.62548,55196,32,2
WI,WI0360,MCMILLAN MEMORIAL LIBRARY,490 E. GRAND AVE.,WISCONSIN RAPIDS,54494,4898,WOOD,7154231040,www.mcmillanlibrary.org,CI,CI2,39329,1,0,0,5,6,10.75,16.75,1323117,599,0,152984,1476700,117895,11630,26746,156271,1494041,87347,8370,10023,10377,3172,260171,8500,22942,489554,112579,417,346,17752,13996,34,90375,-89.821017,44.38822,73756,32,7
WI,WI0361,WITHEE PUBLIC LIBRARY,504 DIVISION ST.,WITHEE,54498,147,CLARK,7152292010,wvls.lib.wi.us/witheepl/,CI,CI2,1366,1,0,0,0,0.95,0.3,1.25,48183,0,417,1050,49650,3635,0,770,4405,47697,8842,8805,3787,1981,1664,4823,1200,453,12314,4539,32,29,111,96,3,1500,-90.597796,44.9576,33553,43,7
WI,WI0362,WONEWOC PUBLIC LIBRARY,305 CENTER ST.,WONEWOC,53968,116,JUNEAU,6084647625,M,CI,CI2,1427,1,0,0,0,1.28,0,1.28,54694,2300,0,0,56994,3456,0,1899,5355,52142,8548,8396,3650,1728,2288,11000,7200,1006,17103,4904,32,8,222,62,4,4200,-90.223304,43.65442,26633,43,3
WI,WI0363,WOODVILLE COMMUNITY LIBRARY,124 MAIN ST.,WOODVILLE,54028,204,ST. CROIX,7156982430,www.woodvillelibrary.org,CI,CI2,2547,1,0,0,0,1,0.58,1.58,116912,75,650,2406,120043,13159,0,2256,15415,116352,12718,4723,4358,1196,1872,19952,4680,1274,28151,8794,122,36,1033,522,3,3969,-92.291454,44.9531,82487,42,3
WI,WI0366,BRUCE AREA LIBRARY,102 W. RIVER AVE.,BRUCE,54819,277,RUSK,7158682005,-3,MJ,CI2,2051,1,0,0,0,0.75,0.03,0.78,35298,600,0,2012,37910,3296,0,0,3296,32926,13686,4723,4478,1107,1924,11766,81,1166,10216,1999,38,34,695,679,2,1190,-91.27409,45.45676,14389,42,7
WI,WI0369,FRANK B. KOLLER MEMORIAL LIBRARY,HWY. 51 S.,MANITOWISH WATERS,54545,100,VILAS,7155432700,koller.wislib.org,CI,CI2,1399,1,0,0,0,0.63,0.78,1.41,61903,1866,410,48826,113005,10891,0,3979,14870,81002,24781,11545,3966,2977,1562,13473,2100,1812,25246,4369,12,10,274,226,4,3661,-89.852166,46.10295,21919,43,8
WI,WI0370,ONEIDA COMMUNITY LIBRARY,201 ELM ST.,ONEIDA,54155,365,BROWN,9208692210,library.oneidanation.org,NL,CI2,3288,1,1,0,0,6,0,6,365861,0,934,20602,387397,15000,0,3000,18000,364658,25066,13261,3847,3985,4420,27317,1085,2704,11187,2618,275,190,5858,2204,19,10218,-88.183586,44.49798,245018,41,8
WI,WI0375,BLACK CREEK VILLAGE LIBRARY,507 S. MAPLE ST.,BLACK CREEK,54106,9304,OUTAGAMIE,9209843094,www.blackcreeklibrary.org,CI,CI2,4460,1,0,0,1,1,1.65,2.65,136154,0,725,5399,142278,9127,0,5121,14248,125096,21555,13261,4334,2974,2402,8994,1872,1559,50837,19490,41,36,693,668,5,3120,-88.449802,44.46814,174993,42,8
WI,WI0376,BLAIR-PRESTON PUBLIC LIBRARY,122 S. URBERG AVE.,BLAIR,54616,165,TREMPEALEAU,6089892502,-3,CI,CI2,2784,1,0,0,0,0.88,0.15,1.03,69837,2500,0,2980,75317,9879,0,6116,15995,73807,11167,8396,4113,1275,1690,3569,658,1222,18140,4983,7,2,145,95,3,2078,-91.233195,44.29442,27790,42,3
WI,WI0377,G.E. BLESKACEK FAMILY MEMORIAL LIBRARY,1519 17TH AVE.,BLOOMER,54724,1508,CHIPPEWA,7155682384,www.bloomerpubliclibrary.org,CI,CI2,6278,1,0,0,0,3,0.58,3.58,177819,0,0,17180,194999,24808,100,13646,38554,194999,21469,0,1012,1129,2444,37379,1505,5646,50311,16902,32,30,413,409,4,7650,-91.487748,45.09971,60456,32,7
WI,WI0378,CADOTT COMMUNITY LIBRARY,331 N. MAIN ST.,CADOTT,54727,68,CHIPPEWA,7152894950,www.cadottlibrary.org,CI,CI2,4267,1,0,0,0,0.75,1.18,1.93,94457,0,0,11203,105660,28294,0,5234,33528,105660,18821,4723,4587,1641,1612,12427,3434,1262,39127,11453,72,60,671,545,6,2945,-91.150612,44.94747,60456,42,7
WI,WI0379,COLOMA PUBLIC LIBRARY,155 S. FRONT ST.,COLOMA,54930,99,WAUSHARA,7152282530,www.colomalibrary.org,CI,CI2,1756,1,0,0,0,2.05,0,2.05,52223,0,0,9500,61723,4250,0,3804,8054,62023,10397,11266,4327,2555,1662,25385,442,1086,34498,7806,154,118,1923,1685,5,4821,-89.522075,44.03114,24760,43,6
WI,WI0380,DODGEVILLE PUBLIC LIBRARY,139 S. IOWA ST.,DODGEVILLE,53533,1549,IOWA,6089353728,dodgevillelibrary.net,CI,CI2,15437,1,0,0,1,2,3.25,5.25,304803,0,385,18767,323955,23781,2177,16643,42601,334913,34368,0,7650,5556,2392,131222,3671,8226,152973,88565,161,136,3883,3596,8,11970,-90.130471,42.95937,23604,32,3
WI,WI0381,DORCHESTER PUBLIC LIBRARY,155 N. SECOND ST.,DORCHESTER,54425,198,CLARK,7156545959,-3,CI,CI2,1350,1,0,0,0,0.75,0.15,0.9,52316,0,0,2387,54703,9080,0,3026,12106,55093,14220,8805,3712,1869,1508,7100,925,809,20209,10794,54,54,974,974,6,1143,-90.332429,45.00431,33553,42,7
WI,WI0382,DRESSER PUBLIC LIBRARY,117 S. CENTRAL AVE.,DRESSER,54009,547,POLK,7157552944,www.dresserpubliclibrary.org,CI,CI2,1367,1,0,0,0,0.63,0.5,1.13,50255,0,0,362,50617,5500,0,545,6045,50393,13324,4723,4428,599,1300,6555,70,644,17014,8726,61,37,547,492,3,868,-92.633499,45.3553,44270,42,7
WI,WI0384,FLORENCE COUNTY LIBRARY,400 OLIVE AVE.,FLORENCE,54121,440,FLORENCE,7155283094,www.nfls.lib.wi.us/flo,CO,CO1,5317,1,0,0,0,0.88,0,0.88,68073,1093,0,0,69166,2760,0,8975,11735,69166,42220,13261,4030,2906,1508,10800,1800,2052,37156,21475,8,7,325,280,19,17784,-88.247804,45.9241,4652,42,8
WI,WI0385,U.S.S. LIBERTY MEMORIAL PUBLIC LIBRARY,1620 11TH AVE.,GRAFTON,53024,2404,OZAUKEE,2623755315,www.grafton.lib.wi.us,MJ,CI2,16251,1,0,0,2,4,5.28,9.28,588900,0,4569,44920,638389,38277,418,15886,54581,636036,71166,10382,8104,5941,2652,140000,26200,12092,223593,96816,273,232,5260,4962,9,12509,-87.952877,43.31398,85874,21,5
WI,WI0386,SAMSON MEMORIAL LIBRARY,107 W. 2ND ST.,GRANTON,54436,70,CLARK,7152385250,-3,CI,CI2,973,1,0,0,0,0.75,0.18,0.93,22195,0,0,1553,23748,4602,0,2942,7544,26920,11886,8805,3834,1059,1040,4862,714,554,8081,4436,7,5,120,84,2,386,-90.461613,44.58748,33553,43,3
WI,WI0387,HAWKINS AREA LIBRARY,709 MAIN ST.,HAWKINS,54530,17,RUSK,7155852311,-3,MJ,CI2,628,1,0,0,0,1.1,0,1.1,23325,342,0,9655,33322,3560,546,542,4648,29074,8355,0,29,624,2184,5982,156,380,3612,903,33,13,550,410,10,2164,-90.714624,45.51242,14389,43,7
WI,WI0388,HUSTISFORD COMMUNITY LIBRARY,609 W. JUNEAU ST.,HUSTISFORD,53034,9710,DODGE,9203493463,www.hustisford.lib.wi.us,MJ,CI2,4817,1,0,0,0,0.93,1.25,2.18,119370,2308,1250,19227,142155,28094,0,8901,36995,136180,19944,8825,4623,2749,2007,32454,2760,2179,45014,17770,16,15,461,417,8,6974,-88.605669,43.34612,87912,42,6
WI,WI0389,IRON RIDGE PUBLIC LIBRARY,205 PARK ST.,IRON RIDGE,53035,247,DODGE,9203873637,www.ironridge.lib.wi.us,CI,CI2,2124,1,0,0,0.4,0.5,0.23,0.73,48070,564,0,6291,54925,9554,0,5062,14616,46270,22525,8825,4632,3716,1300,4174,721,742,14936,6269,6,5,186,137,5,1565,-88.528008,43.40281,87912,42,6
WI,WI0390,LA CROSSE COUNTY LIBRARY,103 STATE ST.,HOLMEN,54636,220,LA CROSSE,6085269600,www.lacrossecountylibrary.com,CO,CO2,60918,0,5,0,2.41,7.58,19.32,26.9,1654030,13000,0,40052,1707082,88985,4219,44006,137210,1553139,137890,8396,11992,8351,10972,258516,7369,26276,398098,176468,568,561,19923,19696,31,33852,-91.256288,43.96312,112627,23,3
WI,WI0391,LAKES COUNTRY PUBLIC LIBRARY,15235 HWY. 32,LAKEWOOD,54138,220,OCONTO,7152769020,www.nfls.lib.wi.us/lak,CI,CI2,6386,1,0,0,0,1.75,0.05,1.8,66088,1228,239,26487,94042,11151,0,5003,16154,95208,16166,13261,4174,3259,2092,22057,8185,2998,53579,8874,82,58,796,461,6,6075,-88.516701,45.29765,37529,43,8
WI,WI0392,LODI WOMAN'S CLUB PUBLIC LIBRARY,130 LODI ST.,LODI,53555,1217,COLUMBIA,6085924130,www.lodipubliclibrary.org,CI,CI2,8623,1,0,0,0,1,3.7,4.7,203563,475,1200,46069,251307,15832,540,6191,22563,251307,27067,8370,5646,1826,2938,66352,5564,3925,98393,39685,321,292,4217,3753,9,10712,-89.533747,43.30828,55196,31,2
WI,WI0394,MARINETTE COUNTY CONSOLIDATED PUBLIC LIBRARY SERVICE,1700 HALL AVE.,MARINETTE,54143,1798,MARINETTE,7157327570,www.nfls.lib.wi.us/mrt,CO,CO1,44823,1,6,0,2.8,5.8,8,13.8,859298,11245,350,27000,897893,47600,0,33130,80730,887647,84048,13261,10641,12242,10306,215000,15000,16849,338479,111396,464,312,8225,5125,19,30945,-87.63084,45.1001,42288,43,8
WI,WI0395,T.B. SCOTT FREE LIBRARY,106 W. FIRST ST.,MERRILL,54452,2398,LINCOLN,7155367191,www.tbscottlibrary.org,CI,CI2,22614,1,0,0,2,5,9.2,14.2,931221,0,899,26305,958425,79287,0,21392,100679,992150,87917,8805,9393,5549,3050,156691,10036,14428,300936,128592,268,250,9238,8980,12,26384,-89.703343,45.17895,29499,32,7
WI,WI0396,MUKWONAGO COMMUNITY LIBRARY,300 WASHINGTON AVE.,MUKWONAGO,53149,1259,WAUKESHA,2623636411,www.mukwonago.lib.wi.us,CI,CI2,21116,1,0,0,4.75,5.75,7,12.75,745231,1441,600,39647,786919,60954,3257,25511,89722,780015,76407,7007,9017,7407,3142,156728,7320,15333,320520,137086,352,299,10223,9680,13,19094,-88.331754,42.86724,380629,31,1
WI,WI0397,POWERS MEMORIAL LIBRARY,115 W. MAIN ST.,PALMYRA,53156,924,JEFFERSON,2624954605,www.palmyra.lib.wi.us,CI,CI2,3954,1,0,0,1,1,1.8,2.8,132709,0,1250,5698,139657,17437,0,3452,20889,153513,23101,8825,4919,3031,2028,16172,488,2334,32531,9251,118,99,1504,1392,7,2537,-88.5848,42.8784,80792,42,5
WI,WI0399,PITTSVILLE COMMUNITY LIBRARY,5291 THIRD AVE.,PITTSVILLE,54466,911,WOOD,7158846500,www.scls.lib.wi.us/pit/index.html,CI,CI2,2802,1,0,0,0,1,0.03,1.03,60108,450,936,860,62354,11641,245,1605,13491,57311,16315,0,648,1039,1836,6500,229,1490,29759,10666,28,28,902,902,5,2825,-90.126395,44.43932,73756,43,7
WI,WI0400,REESEVILLE PUBLIC LIBRARY,216 S. MAIN ST.,REESEVILLE,53579,279,DODGE,9209277390,www.reeseville.lib.wi.us,CI,CI2,1624,1,0,0,0,0.63,0.75,1.38,35087,240,0,6718,42045,2381,0,2645,5026,43104,8388,8825,3999,1558,1560,7665,208,510,14470,6381,12,12,220,220,3,1683,-88.848365,43.30152,87912,42,6
WI,WI0402,CLARELLA HACKETT JOHNSON PUBLIC LIBRARY,E9311 COUNTY ROAD I,SAND CREEK,54765,156,DUNN,7156581269,-3,CI,CI2,647,1,0,0,0,0.28,0.33,0.61,17595,150,0,280,18025,1846,0,1043,2889,21385,5042,4723,376,575,1207,3489,474,142,4487,1718,45,40,196,148,2,616,-91.676285,45.1776,42688,42,3
WI,WI0403,OSCAR GRADY PUBLIC LIBRARY,151 S. MAIN ST.,SAUKVILLE,53080,1930,OZAUKEE,2622846022,www.saukville.lib.wi.us,CI,CI2,8368,1,0,0,1,5.2,0.38,5.58,351588,0,1509,0,353097,36916,550,19350,56816,323149,35397,10382,4268,4329,2990,44785,2132,4384,102416,30856,117,85,2392,2008,6,5984,-87.941952,43.38106,85874,21,5
WI,WI0404,PLUM LAKE PUBLIC LIBRARY,239 STATE HWY 155,SAYNER,54560,229,VILAS,7155422020,sayner.wislib.org,CI,CI2,2638,1,0,0,0,1.28,0.2,1.48,49245,2499,684,49643,102071,12340,0,1832,14172,87314,24641,11545,4373,2956,1560,16286,3120,1764,28674,8062,61,44,989,836,6,3218,-89.537298,46.0033,21919,43,8
WI,WI0405,SCANDINAVIA PUBLIC LIBRARY,349 N. MAIN ST.,SCANDINAVIA,54977,157,WAUPACA,7154674636,www.owls.lib.wi.us/sca,CI,CI2,1162,1,0,0,0,0.83,0,0.83,26084,0,323,7459,33866,2722,53,937,3712,31607,9226,13261,3609,1550,1020,6568,1435,348,13366,4083,46,34,657,505,3,1327,-89.147339,44.45896,51858,42,8
WI,WI0406,ST. CROIX FALLS PUBLIC LIBRARY,210 N. WASHINGTON ST.,ST. CROIX FALLS,54024,9240,POLK,7154831777,www.stcroixfallslibrary.org,CI,CI2,4762,1,0,0,0,2.13,0,2.13,111665,0,0,2000,113665,13400,0,4336,17736,114336,12647,4723,4807,1115,2444,29858,1573,2487,55835,16670,71,52,2494,1424,6,10196,-92.644966,45.41224,44270,42,7
WI,WI0407,SURING AREA PUBLIC LIBRARY,604 E. MAIN ST.,SURING,54174,74,OCONTO,9208424451,www.nfls.lib.wi.us/sur,MJ,CI2,3496,1,0,0,0,1.5,0,1.5,71809,2646,781,0,75236,6868,0,1467,8335,84635,13343,13261,3955,1702,1534,15725,10200,1341,23282,5472,68,44,968,820,4,9345,-88.371995,44.99901,37529,43,8
WI,WI0408,PAULINE HAASS PUBLIC LIBRARY,N64W23820 MAIN ST.,SUSSEX,53089,3122,WAUKESHA,2622465180,M,MJ,CI2,22175,1,0,0,5.95,5.95,8.89,14.84,938002,2106,600,51256,991964,81580,4335,26061,111976,980333,83683,7003,8572,5671,2984,140269,14930,18737,321485,163268,286,202,9421,8042,11,17833,-88.220639,43.13373,380629,21,5
WI,WI0409,LOWELL PUBLIC LIBRARY,105 N. RIVER ST.,LOWELL,53557,15,DODGE,9209275700,www.villageoflowell.com/library.php,CI,CI2,434,1,0,0,0,0.5,0,0.5,16019,350,0,5763,22132,3658,0,996,4654,21845,5969,8825,4244,636,1040,2812,237,63,3284,1218,16,16,117,117,2,855,-88.792956,43.34317,87912,42,6
WI,WI0410,READSTOWN PUBLIC LIBRARY,129 W. WISCONSIN AVE.,READSTOWN,54652,8114,VERNON,6086295465,-3,CI,CI2,1406,1,0,0,0,0.63,0,0.63,18639,2100,0,822,21561,3704,0,536,4240,21216,22255,8396,4048,1495,1300,12882,6845,638,17584,5210,66,5,828,100,8,4240,-90.759703,43.45107,29090,42,3
WI,WI0413,LAC COURTE OREILLES OJIBWA COLLEGE COMMUNITY LIBRARY,13466 W. TREPANIA RD.,HAYWARD,54843,2181,SAWYER,7156344790,www.lco.edu/library/index.html,NL,CI2,2150,1,0,0,1,1,1.38,2.38,86841,2925,107741,0,197507,18450,7480,7453,33383,197507,24996,11545,3698,2645,2502,11485,1577,2688,8500,2000,32,9,477,94,13,7500,-91.363574,45.94185,17117,43,7
WI,WI0415,BURNETT COMMUNITY LIBRARY,7451 W. MAIN ST.,WEBSTER,54893,510,BURNETT,7158667697,webster.wislib.org,CI,CI2,7021,1,0,0,0,1,0.38,1.38,81740,2500,1538,617,86395,8659,0,1350,10009,86395,11419,11545,2887,1179,2236,10098,7034,3233,23386,6397,58,58,380,380,4,6799,-92.366448,45.87744,16196,43,7
WI,WI0416,CASHTON MEMORIAL LIBRARY,720 BROADWAY ST.,CASHTON,54619,234,MONROE,6086545465,wrlsweb.org/cashton,CI,CI2,1950,1,0,0,0,0.83,0.1,0.93,33483,2300,0,8409,44192,4885,0,1947,6832,46132,7769,8396,3690,1591,1092,5156,300,1603,14120,3829,86,65,1745,1534,4,1560,-90.775201,43.74244,43350,42,3
WI,WI0417,BAD RIVER PUBLIC TRIBAL LIBRARY,HWY 2 AND MAPLE ST.,ODANAH,54861,39,ASHLAND,7156827111,-3,NL,CI2,1096,1,0,0,0,0.83,0,0.83,23615,0,17202,0,40817,2000,0,752,2752,40817,14302,11545,2318,1262,2080,5455,950,1050,3408,1177,8,5,60,20,4,5200,-90.68374,46.60934,16295,42,7
WI,WI0418,GILLETT PUBLIC LIBRARY,200 E. MAIN ST.,GILLETT,54124,109,OCONTO,9208556224,www.nfls.lib.wi.us/gil,CI,CI2,4700,1,0,0,0,2.08,0,2.08,83026,1200,740,9310,94276,10386,0,1325,11711,94277,16240,13261,3953,2556,2194,65000,2850,2176,40555,11623,76,74,2383,2263,11,12759,-88.301042,44.89101,37529,42,8
WI,WI0419,NORWALK PUBLIC LIBRARY,101 RAILROAD ST.,NORWALK,54648,132,MONROE,6088237473,www.wrlsweb.org/norwalk,CI,CI2,1168,1,0,0,0.75,0.75,0,0.75,37435,2300,900,869,41504,5304,0,3628,8932,36976,8844,8396,3854,859,1508,7898,513,320,8141,1950,156,81,888,670,6,4431,-90.619416,43.83262,43350,43,3
WI,WI0420,E.D. LOCKE PUBLIC LIBRARY,5920 MILWAUKEE ST.,MCFARLAND,53558,8962,DANE,6088389030,www.mcfarlandlibrary.org,CI,CI2,11121,1,0,0,2,3,4.25,7.25,453256,1366,0,53533,508155,60479,1081,12606,74166,505363,53501,8370,7637,5506,3328,110044,10203,7104,206184,63551,160,144,4227,4069,15,19606,-89.287428,43.01344,482705,21,2
WI,WI0421,PEWAUKEE PUBLIC LIBRARY,210 MAIN ST.,PEWAUKEE,53072,3506,WAUKESHA,2626915670,www.pewaukeelibrary.org,MJ,CI2,24855,1,0,0,4.63,4.63,10.03,14.66,944200,1514,600,29128,975442,79275,1399,36605,117279,987247,93263,7007,8406,6474,3029,177716,13119,12915,344208,162707,300,252,9637,8686,12,16456,-88.260811,43.08005,380629,21,5
WI,WI0422,WYOCENA PUBLIC LIBRARY,165 E. DODGE ST.,WYOCENA,53969,913,COLUMBIA,6084294899,M,CI,CI2,1287,1,0,0,0,1.13,0.28,1.41,28288,618,1200,29482,59588,5343,250,776,6369,59588,8253,8370,4093,1112,1508,6528,4690,462,12955,1520,80,31,1585,904,5,2250,-89.309529,43.4958,55196,42,2
WI,WI0423,BRICKL MEMORIAL LIBRARY,500 EAST AVENUE,DICKEYVILLE,53808,219,GRANT,6085683142,www.swls.org/member.bricklmemorial.html,CI,CI2,1669,1,0,0,0,1.48,0,1.48,42240,0,386,3394,46020,3989,219,848,5056,47307,6369,0,3786,1278,1092,10422,1224,282,9433,4864,17,15,793,635,3,425,-90.593381,42.62724,49238,42,3
WI,WI9017,ETTRICK PUBLIC LIBRARY,15570 SCHOOL ST,ETTRICK,54627,147,TREMPEALEAU,6085253408,www.wrlsweb.org/Ettrick,CI,CI2,852,1,0,0,0.48,0.53,0,0.53,27894,2100,0,1253,31247,2887,0,1088,3975,27237,6312,8396,4051,826,988,3739,214,426,6087,2773,12,8,508,290,2,831,-91.265291,44.16729,27790,42,3
WI,WI9018,TAYLOR MEMORIAL LIBRARY,420 2ND ST.,TAYLOR,54659,130,JACKSON,7156622310,www.wrlsweb.org/taylor/,CI,CI2,800,1,0,0,0.25,0.5,0,0.5,23101,2100,0,5000,30201,2681,0,592,3273,20276,8481,8396,3699,910,936,2984,132,582,3471,1090,12,12,224,224,2,1179,-91.121717,44.32173,19904,42,3
WI,WI9019,KNUTSON MEMORIAL LIBRARY,500 CENTRAL AVE.,COON VALLEY,54623,99,VERNON,6084523757,www.wrlsweb.org/coonvalley,CI,CI2,2729,1,0,0,0,0.65,0.41,1.06,64062,2300,0,3113,69475,11751,0,5242,16993,67191,10768,8396,4311,2198,1404,9920,2603,1223,26000,11276,182,70,2719,1075,2,3000,-91.011661,43.7024,29090,42,3
WI,WI9020,RED CLIFF PUBLIC LIBRARY,88840 CHURCH ROAD,BAYFIELD,54814,4818,BAYFIELD,7157793764,-3,NL,CI2,-3,-3,-3,-3,-3,-3,-3,-3,-3,-3,-3,-3,-3,-3,-3,-3,-3,-3,-3,-3,-3,-3,-3,-3,-3,-3,-3,-3,-3,-3,-3,-3,-3,-3,-90.787421,46.856676,14926,43,7
WI,WI9021,EVELYN GOLDBERG BRIGGS MEMORIAL LIBRARY,68235 S. MAIN ST.,IRON RIVER,54847,145,BAYFIELD,7153725451,ironriver.wislib.org,CI,CI2,3704,1,0,0,1,1,1.03,2.03,66604,2259,0,18608,87471,7350,750,3503,11603,82703,12146,11545,3325,1832,2236,12000,1700,1670,41812,13420,12,11,530,515,4,6484,-91.373645,46.60424,14926,43,7
WI,WI9024,LESTER PUBLIC LIBRARY OF ROME,1157 ROME CENTER DRIVE,NEKOOSA,54457,8700,ADAMS,7153258990,www.romepubliclibrary.org,CI,CI1,3190,1,0,0,0.28,1.9,0.05,1.95,127790,450,2079,3321,133640,18163,270,3121,21554,128139,15739,0,1000,694,2288,19333,775,2992,29825,5547,107,67,1215,1025,5,5665,-89.809886,44.20145,20325,42,6

